"Longitude (x)","Latitude (y)","Station Name","Climate ID","Date/Time","Year","Month","Day","Time","Temp (°C)","Temp Flag","Dew Point Temp (°C)","Dew Point Temp Flag","Rel Hum (%)","Rel Hum Flag","Wind Dir (10s deg)","Wind Dir Flag","Wind Spd (km/h)","Wind Spd Flag","Visibility (km)","Visibility Flag","Stn Press (kPa)","Stn Press Flag","Hmdx","Hmdx Flag","Wind Chill","Wind Chill Flag","Weather"
"-111.22","56.65","FORT MCMURRAY A","3062697","2016-05-01 00:00","2016","05","01","00:00","8.8","","-2.8","","44","","23","","5","","16.1","","97.59","","","","","","NA"
"-111.22","56.65","FORT MCMURRAY A","3062697","2016-05-01 01:00","2016","05","01","01:00","3.8","","-3.4","","60","","21","","9","","16.1","","97.59","","","","","","NA"
"-111.22","56.65","FORT MCMURRAY A","3062697","2016-05-01 02:00","2016","05","01","02:00","3.9","","-3.7","","58","","18","","8","","16.1","","97.60","","","","","","NA"
"-111.22","56.65","FORT MCMURRAY A","3062697","2016-05-01 03:00","2016","05","01","03:00","3.3","","-4.7","","56","","20","","5","","16.1","","97.62","","","","","","NA"
"-111.22","56.65","FORT MCMURRAY A","3062697","2016-05-01 04:00","2016","05","01","04:00","3.9","","-5.1","","52","","19","","5","","16.1","","97.62","","","","","","NA"
"-111.22","56.65","FORT MCMURRAY A","3062697","2016-05-01 05:00","2016","05","01","05:00","3.6","","-6.0","","50","","20","","8","","16.1","","97.60","","","","","","NA"
"-111.22","56.65","FORT MCMURRAY A","3062697","2016-05-01 06:00","2016","05","01","06:00","2.2","","-4.0","","64","","","","0","","16.1","","97.60","","","","","","NA"
"-111.22","56.65","FORT MCMURRAY A","3062697","2016-05-01 07:00","2016","05","01","07:00","4.0","","-3.6","","58","","3","","4","","16.1","","97.59","","","","","","NA"
"-111.22","56.65","FORT MCMURRAY A","3062697","2016-05-01 08:00","2016","05","01","08:00","7.4","","-5.8","","39","","","","0","","16.1","","97.58","","","","","","NA"
"-111.22","56.65","FORT MCMURRAY A","3062697","2016-05-01 09:00","2016","05","01","09:00","11.1","","-3.9","","35","","","M","5","","16.1","","97.55","","","","","","NA"
"-111.22","56.65","FORT MCMURRAY A","3062697","2016-05-01 10:00","2016","05","01","10:00","14.1","","-2.1","","32","","3","","5","","16.1","","97.49","","","","","","NA"
"-111.22","56.65","FORT MCMURRAY A","3062697","2016-05-01 11:00","2016","05","01","11:00","19.6","","-7.4","","15","","24","","13","","16.1","","97.42","","","","","","NA"
"-111.22","56.65","FORT MCMURRAY A","3062697","2016-05-01 12:00","2016","05","01","12:00","20.3","","-4.8","","18","","26","","22","","16.1","","97.36","","","","","","NA"
"-111.22","56.65","FORT MCMURRAY A","3062697","2016-05-01 13:00","2016","05","01","13:00","21.3","","-4.2","","18","","23","","21","","16.1","","97.28","","","","","","NA"
"-111.22","56.65","FORT MCMURRAY A","3062697","2016-05-01 14:00","2016","05","01","14:00","22.0","","-4.5","","16","","23","","11","","16.1","","97.20","","","","","","NA"
"-111.22","56.65","FORT MCMURRAY A","3062697","2016-05-01 15:00","2016","05","01","15:00","23.6","","-2.1","","18","","29","","13","","16.1","","97.12","","","","","","NA"
"-111.22","56.65","FORT MCMURRAY A","3062697","2016-05-01 16:00","2016","05","01","16:00","24.2","","0.0","","20","","30","","21","","16.1","","97.09","","","","","","NA"
"-111.22","56.65","FORT MCMURRAY A","3062697","2016-05-01 17:00","2016","05","01","17:00","24.0","","0.9","","22","","27","","18","","16.1","","97.07","","","","","","NA"
"-111.22","56.65","FORT MCMURRAY A","3062697","2016-05-01 18:00","2016","05","01","18:00","23.1","","1.0","","23","","28","","11","","16.1","","97.06","","","","","","NA"
"-111.22","56.65","FORT MCMURRAY A","3062697","2016-05-01 19:00","2016","05","01","19:00","21.8","","1.4","","26","","26","","8","","16.1","","97.02","","","","","","NA"
"-111.22","56.65","FORT MCMURRAY A","3062697","2016-05-01 20:00","2016","05","01","20:00","21.7","","2.1","","27","","25","","9","","16.1","","97.01","","","","","","NA"
"-111.22","56.65","FORT MCMURRAY A","3062697","2016-05-01 21:00","2016","05","01","21:00","19.8","","2.3","","31","","26","","8","","16.1","","97.04","","","","","","NA"
"-111.22","56.65","FORT MCMURRAY A","3062697","2016-05-01 22:00","2016","05","01","22:00","19.8","","2.3","","31","","30","","9","","16.1","","97.09","","","","","","NA"
"-111.22","56.65","FORT MCMURRAY A","3062697","2016-05-01 23:00","2016","05","01","23:00","12.2","","3.0","","53","","","","0","","12.9","","97.11","","","","","","NA"
"-111.22","56.65","FORT MCMURRAY A","3062697","2016-05-02 00:00","2016","05","02","00:00","10.0","","2.6","","60","","20","","9","","16.1","","97.12","","","","","","NA"
"-111.22","56.65","FORT MCMURRAY A","3062697","2016-05-02 01:00","2016","05","02","01:00","10.5","","2.8","","59","","20","","8","","16.1","","97.12","","","","","","NA"
"-111.22","56.65","FORT MCMURRAY A","3062697","2016-05-02 02:00","2016","05","02","02:00","8.5","","2.3","","65","","20","","5","","16.1","","97.13","","","","","","NA"
"-111.22","56.65","FORT MCMURRAY A","3062697","2016-05-02 03:00","2016","05","02","03:00","7.7","","2.1","","68","","23","","5","","16.1","","97.16","","","","","","NA"
"-111.22","56.65","FORT MCMURRAY A","3062697","2016-05-02 04:00","2016","05","02","04:00","5.8","","1.9","","76","","18","","4","","16.1","","97.21","","","","","","NA"
"-111.22","56.65","FORT MCMURRAY A","3062697","2016-05-02 05:00","2016","05","02","05:00","5.7","","1.4","","74","","17","","8","","16.1","","97.25","","","","","","NA"
"-111.22","56.65","FORT MCMURRAY A","3062697","2016-05-02 06:00","2016","05","02","06:00","5.8","","2.1","","77","","8","","5","","16.1","","97.26","","","","","","NA"
"-111.22","56.65","FORT MCMURRAY A","3062697","2016-05-02 07:00","2016","05","02","07:00","6.8","","2.2","","73","","14","","8","","16.1","","97.31","","","","","","NA"
"-111.22","56.65","FORT MCMURRAY A","3062697","2016-05-02 08:00","2016","05","02","08:00","11.8","","3.5","","56","","","M","4","","16.1","","97.31","","","","","","NA"
"-111.22","56.65","FORT MCMURRAY A","3062697","2016-05-02 09:00","2016","05","02","09:00","15.4","","4.5","","48","","","","0","","16.1","","97.31","","","","","","NA"
"-111.22","56.65","FORT MCMURRAY A","3062697","2016-05-02 10:00","2016","05","02","10:00","18.4","","5.0","","41","","3","","5","","16.1","","97.30","","","","","","NA"
"-111.22","56.65","FORT MCMURRAY A","3062697","2016-05-02 11:00","2016","05","02","11:00","22.7","","5.2","","32","","2","","5","","16.1","","97.28","","","","","","NA"
"-111.22","56.65","FORT MCMURRAY A","3062697","2016-05-02 12:00","2016","05","02","12:00","24.4","","3.5","","25","","","M","8","","16.1","","97.25","","","","","","NA"
"-111.22","56.65","FORT MCMURRAY A","3062697","2016-05-02 13:00","2016","05","02","13:00","26.0","","3.3","","23","","5","","13","","16.1","","97.21","","25","","","","NA"
"-111.22","56.65","FORT MCMURRAY A","3062697","2016-05-02 14:00","2016","05","02","14:00","26.5","","3.1","","22","","3","","11","","16.1","","97.14","","25","","","","NA"
"-111.22","56.65","FORT MCMURRAY A","3062697","2016-05-02 15:00","2016","05","02","15:00","26.4","","3.2","","22","","","M","4","","16.1","","97.08","","25","","","","NA"
"-111.22","56.65","FORT MCMURRAY A","3062697","2016-05-02 16:00","2016","05","02","16:00","26.7","","3.4","","22","","","M","4","","16.1","","97.04","","25","","","","NA"
"-111.22","56.65","FORT MCMURRAY A","3062697","2016-05-02 17:00","2016","05","02","17:00","26.8","","4.0","","23","","5","","9","","16.1","","97.00","","26","","","","NA"
"-111.22","56.65","FORT MCMURRAY A","3062697","2016-05-02 18:00","2016","05","02","18:00","25.7","","5.7","","27","","10","","8","","16.1","","96.95","","25","","","","NA"
"-111.22","56.65","FORT MCMURRAY A","3062697","2016-05-02 19:00","2016","05","02","19:00","24.5","","5.5","","29","","11","","11","","16.1","","96.92","","","","","","NA"
"-111.22","56.65","FORT MCMURRAY A","3062697","2016-05-02 20:00","2016","05","02","20:00","21.6","","5.2","","34","","14","","11","","16.1","","96.91","","","","","","NA"
"-111.22","56.65","FORT MCMURRAY A","3062697","2016-05-02 21:00","2016","05","02","21:00","19.0","","5.3","","40","","13","","15","","16.1","","96.89","","","","","","NA"
"-111.22","56.65","FORT MCMURRAY A","3062697","2016-05-02 22:00","2016","05","02","22:00","16.7","","5.1","","46","","14","","17","","16.1","","96.90","","","","","","NA"
"-111.22","56.65","FORT MCMURRAY A","3062697","2016-05-02 23:00","2016","05","02","23:00","16.1","","4.6","","46","","14","","17","","16.1","","96.90","","","","","","NA"
"-111.22","56.65","FORT MCMURRAY A","3062697","2016-05-03 00:00","2016","05","03","00:00","17.9","","4.4","","40","","11","","21","","16.1","","96.90","","","","","","NA"
"-111.22","56.65","FORT MCMURRAY A","3062697","2016-05-03 01:00","2016","05","03","01:00","15.8","","4.6","","47","","10","","17","","16.1","","96.88","","","","","","NA"
"-111.22","56.65","FORT MCMURRAY A","3062697","2016-05-03 02:00","2016","05","03","02:00","15.7","","4.3","","46","","10","","17","","16.1","","96.90","","","","","","NA"
"-111.22","56.65","FORT MCMURRAY A","3062697","2016-05-03 03:00","2016","05","03","03:00","14.3","","4.4","","51","","10","","17","","16.1","","96.92","","","","","","NA"
"-111.22","56.65","FORT MCMURRAY A","3062697","2016-05-03 04:00","2016","05","03","04:00","13.6","","4.0","","52","","10","","15","","16.1","","96.92","","","","","","NA"
"-111.22","56.65","FORT MCMURRAY A","3062697","2016-05-03 05:00","2016","05","03","05:00","12.3","","4.1","","57","","10","","13","","16.1","","96.92","","","","","","NA"
"-111.22","56.65","FORT MCMURRAY A","3062697","2016-05-03 06:00","2016","05","03","06:00","11.9","","4.1","","58","","10","","13","","16.1","","96.92","","","","","","NA"
"-111.22","56.65","FORT MCMURRAY A","3062697","2016-05-03 07:00","2016","05","03","07:00","12.8","","4.2","","56","","10","","15","","16.1","","96.90","","","","","","NA"
"-111.22","56.65","FORT MCMURRAY A","3062697","2016-05-03 08:00","2016","05","03","08:00","14.2","","4.8","","53","","11","","13","","16.1","","96.89","","","","","","NA"
"-111.22","56.65","FORT MCMURRAY A","3062697","2016-05-03 09:00","2016","05","03","09:00","17.4","","5.5","","45","","10","","11","","16.1","","96.86","","","","","","NA"
"-111.22","56.65","FORT MCMURRAY A","3062697","2016-05-03 10:00","2016","05","03","10:00","19.6","","5.9","","40","","7","","11","","16.1","","96.83","","","","","","NA"
"-111.22","56.65","FORT MCMURRAY A","3062697","2016-05-03 11:00","2016","05","03","11:00","23.6","","6.4","","33","","6","","11","","16.1","","96.79","","","","","","NA"
"-111.22","56.65","FORT MCMURRAY A","3062697","2016-05-03 12:00","2016","05","03","12:00","27.3","","7.0","","27","","8","","13","","16.1","","96.71","","27","","","","NA"
"-111.22","56.65","FORT MCMURRAY A","3062697","2016-05-03 13:00","2016","05","03","13:00","31.0","","1.6","","15","","24","","21","","16.1","","96.64","","29","","","","NA"
"-111.22","56.65","FORT MCMURRAY A","3062697","2016-05-03 14:00","2016","05","03","14:00","30.8","","1.4","","15","","19","","15","","16.1","","96.58","","29","","","","NA"
"-111.22","56.65","FORT MCMURRAY A","3062697","2016-05-03 15:00","2016","05","03","15:00","30.3","","1.1","","15","","20","","13","","16.1","","96.54","","28","","","","NA"
"-111.22","56.65","FORT MCMURRAY A","3062697","2016-05-03 16:00","2016","05","03","16:00","31.8","","0.6","","13","","18","","15","","16.1","","96.47","","30","","","","NA"
"-111.22","56.65","FORT MCMURRAY A","3062697","2016-05-03 17:00","2016","05","03","17:00","31.6","","0.4","","13","","23","","18","","16.1","","96.42","","30","","","","NA"
"-111.22","56.65","FORT MCMURRAY A","3062697","2016-05-03 18:00","2016","05","03","18:00","30.4","","0.6","","14","","23","","13","","16.1","","96.39","","28","","","","NA"
"-111.22","56.65","FORT MCMURRAY A","3062697","2016-05-03 19:00","2016","05","03","19:00","30.9","","0.9","","14","","24","","11","","16.1","","96.33","","29","","","","NA"
"-111.22","56.65","FORT MCMURRAY A","3062697","2016-05-03 20:00","2016","05","03","20:00","29.7","","0.5","","15","","22","","15","","16.1","","96.28","","28","","","","NA"
"-111.22","56.65","FORT MCMURRAY A","3062697","2016-05-03 21:00","2016","05","03","21:00","24.2","","2.0","","23","","18","","18","","16.1","","96.25","","","","","","NA"
"-111.22","56.65","FORT MCMURRAY A","3062697","2016-05-03 22:00","2016","05","03","22:00","21.6","","2.5","","28","","17","","18","","16.1","","96.24","","","","","","NA"
"-111.22","56.65","FORT MCMURRAY A","3062697","2016-05-03 23:00","2016","05","03","23:00","20.4","","2.4","","30","","17","","18","","16.1","","96.21","","","","","","NA"
"-111.22","56.65","FORT MCMURRAY A","3062697","2016-05-04 00:00","2016","05","04","00:00","20.6","","2.6","","30","","17","","17","","16.1","","96.19","","","","","","NA"
"-111.22","56.65","FORT MCMURRAY A","3062697","2016-05-04 01:00","2016","05","04","01:00","18.3","","2.7","","35","","","M","4","","16.1","","96.20","","","","","","NA"
"-111.22","56.65","FORT MCMURRAY A","3062697","2016-05-04 02:00","2016","05","04","02:00","15.4","","3.3","","44","","","","0","","16.1","","96.21","","","","","","NA"
"-111.22","56.65","FORT MCMURRAY A","3062697","2016-05-04 03:00","2016","05","04","03:00","15.2","","3.4","","45","","","M","4","","16.1","","96.19","","","","","","NA"
"-111.22","56.65","FORT MCMURRAY A","3062697","2016-05-04 04:00","2016","05","04","04:00","12.9","","3.4","","52","","","M","4","","16.1","","96.18","","","","","","NA"
"-111.22","56.65","FORT MCMURRAY A","3062697","2016-05-04 05:00","2016","05","04","05:00","11.4","","3.5","","58","","9","","4","","16.1","","96.15","","","","","","NA"
"-111.22","56.65","FORT MCMURRAY A","3062697","2016-05-04 06:00","2016","05","04","06:00","10.5","","2.4","","57","","9","","5","","16.1","","96.13","","","","","","NA"
"-111.22","56.65","FORT MCMURRAY A","3062697","2016-05-04 07:00","2016","05","04","07:00","10.8","","1.9","","54","","26","","9","","16.1","","96.16","","","","","","NA"
"-111.22","56.65","FORT MCMURRAY A","3062697","2016-05-04 08:00","2016","05","04","08:00","16.6","","2.3","","38","","","M","4","","16.1","","96.10","","","","","","NA"
"-111.22","56.65","FORT MCMURRAY A","3062697","2016-05-04 09:00","2016","05","04","09:00","19.7","","3.0","","33","","4","","5","","16.1","","96.04","","","","","","NA"
"-111.22","56.65","FORT MCMURRAY A","3062697","2016-05-04 10:00","2016","05","04","10:00","22.3","","4.3","","30","","34","","5","","16.1","","95.97","","","","","","NA"
"-111.22","56.65","FORT MCMURRAY A","3062697","2016-05-04 11:00","2016","05","04","11:00","25.5","","4.8","","26","","","M","4","","16.1","","95.90","","25","","","","NA"
"-111.22","56.65","FORT MCMURRAY A","3062697","2016-05-04 12:00","2016","05","04","12:00","29.1","","1.9","","17","","26","","9","","16.1","","95.86","","27","","","","NA"
"-111.22","56.65","FORT MCMURRAY A","3062697","2016-05-04 13:00","2016","05","04","13:00","30.3","","0.8","","15","","27","","18","","16.1","","95.81","","28","","","","NA"
"-111.22","56.65","FORT MCMURRAY A","3062697","2016-05-04 14:00","2016","05","04","14:00","30.6","","0.2","","14","","22","","17","","16.1","","95.76","","28","","","","NA"
"-111.22","56.65","FORT MCMURRAY A","3062697","2016-05-04 15:00","2016","05","04","15:00","31.2","","0.9","","14","","24","","28","","16.1","","95.72","","29","","","","NA"
"-111.22","56.65","FORT MCMURRAY A","3062697","2016-05-04 16:00","2016","05","04","16:00","29.6","","0.4","","15","","24","","26","","16.1","","95.71","","28","","","","NA"
"-111.22","56.65","FORT MCMURRAY A","3062697","2016-05-04 17:00","2016","05","04","17:00","28.0","","2.5","","19","","27","","24","","6.4","","95.80","","27","","","","Haze"
"-111.22","56.65","FORT MCMURRAY A","3062697","2016-05-04 18:00","2016","05","04","18:00","26.9","","3.0","","21","","27","","50","","4.0","","95.82","","26","","","","Haze"
"-111.22","56.65","FORT MCMURRAY A","3062697","2016-05-04 19:00","2016","05","04","19:00","25.3","","2.9","","23","","29","","46","","2.4","","95.97","","","","","","Haze"
"-111.22","56.65","FORT MCMURRAY A","3062697","2016-05-04 20:00","2016","05","04","20:00","24.3","","4.3","","27","","29","","28","","1.6","","96.02","","","","","","Haze"
"-111.22","56.65","FORT MCMURRAY A","3062697","2016-05-04 21:00","2016","05","04","21:00","22.7","","3.5","","28","","28","","30","","2.8","","96.08","","","","","","Haze"
"-111.22","56.65","FORT MCMURRAY A","3062697","2016-05-04 22:00","2016","05","04","22:00","21.9","","2.3","","27","","28","","35","","2.8","","96.15","","","","","","Haze"
"-111.22","56.65","FORT MCMURRAY A","3062697","2016-05-04 23:00","2016","05","04","23:00","20.4","","0.9","","27","","29","","22","","3.2","","96.24","","","","","","Haze"
"-111.22","56.65","FORT MCMURRAY A","3062697","2016-05-05 00:00","2016","05","05","00:00","19.0","","-0.3","","27","","29","","26","","2.4","","96.30","","","","","","Haze"
"-111.22","56.65","FORT MCMURRAY A","3062697","2016-05-05 01:00","2016","05","05","01:00","17.7","","-3.0","","24","","28","","28","","2.8","","96.35","","","","","","Haze"
"-111.22","56.65","FORT MCMURRAY A","3062697","2016-05-05 02:00","2016","05","05","02:00","16.9","","-1.2","","29","","32","","21","","2.4","","96.45","","","","","","Haze"
"-111.22","56.65","FORT MCMURRAY A","3062697","2016-05-05 03:00","2016","05","05","03:00","15.5","","0.2","","35","","32","","28","","2.4","","96.52","","","","","","Haze"
"-111.22","56.65","FORT MCMURRAY A","3062697","2016-05-05 04:00","2016","05","05","04:00","13.7","","1.4","","43","","31","","28","","4.8","","96.64","","","","","","Haze"
"-111.22","56.65","FORT MCMURRAY A","3062697","2016-05-05 05:00","2016","05","05","05:00","12.1","","1.8","","49","","31","","21","","8.1","","96.69","","","","","","Haze"
"-111.22","56.65","FORT MCMURRAY A","3062697","2016-05-05 06:00","2016","05","05","06:00","12.0","","1.7","","49","","31","","21","","2.8","","96.78","","","","","","Haze"
"-111.22","56.65","FORT MCMURRAY A","3062697","2016-05-05 07:00","2016","05","05","07:00","11.9","","1.6","","49","","28","","15","","1.6","","96.87","","","","","","Haze"
"-111.22","56.65","FORT MCMURRAY A","3062697","2016-05-05 08:00","2016","05","05","08:00","11.9","","1.5","","49","","29","","11","","1.2","","96.89","","","","","","Haze"
"-111.22","56.65","FORT MCMURRAY A","3062697","2016-05-05 09:00","2016","05","05","09:00","13.2","","0.6","","42","","29","","15","","2.8","","96.93","","","","","","Haze"
"-111.22","56.65","FORT MCMURRAY A","3062697","2016-05-05 10:00","2016","05","05","10:00","14.1","","-0.3","","37","","28","","11","","3.6","","96.96","","","","","","Haze"
"-111.22","56.65","FORT MCMURRAY A","3062697","2016-05-05 11:00","2016","05","05","11:00","15.1","","-2.9","","29","","30","","18","","6.4","","96.98","","","","","","Haze"
"-111.22","56.65","FORT MCMURRAY A","3062697","2016-05-05 12:00","2016","05","05","12:00","16.9","","-5.4","","21","","32","","18","","8.1","","96.97","","","","","","Haze"
"-111.22","56.65","FORT MCMURRAY A","3062697","2016-05-05 13:00","2016","05","05","13:00","17.3","","-5.7","","20","","29","","18","","16.1","","96.94","","","","","","NA"
"-111.22","56.65","FORT MCMURRAY A","3062697","2016-05-05 14:00","2016","05","05","14:00","17.3","","-4.7","","22","","30","","24","","16.1","","96.94","","","","","","NA"
"-111.22","56.65","FORT MCMURRAY A","3062697","2016-05-05 15:00","2016","05","05","15:00","17.5","","-4.5","","22","","30","","26","","11.3","","96.92","","","","","","NA"
"-111.22","56.65","FORT MCMURRAY A","3062697","2016-05-05 16:00","2016","05","05","16:00","16.9","","-6.1","","20","","29","","26","","9.7","","96.93","","","","","","Haze"
"-111.22","56.65","FORT MCMURRAY A","3062697","2016-05-05 17:00","2016","05","05","17:00","17.8","","-6.3","","19","","30","","24","","16.1","","96.89","","","","","","NA"
"-111.22","56.65","FORT MCMURRAY A","3062697","2016-05-05 18:00","2016","05","05","18:00","17.6","","-7.4","","17","","29","","30","","16.1","","96.90","","","","","","NA"
"-111.22","56.65","FORT MCMURRAY A","3062697","2016-05-05 19:00","2016","05","05","19:00","17.0","","-8.2","","17","","30","","21","","16.1","","96.93","","","","","","NA"
"-111.22","56.65","FORT MCMURRAY A","3062697","2016-05-05 20:00","2016","05","05","20:00","16.4","","-8.1","","18","","31","","21","","12.9","","96.98","","","","","","NA"
"-111.22","56.65","FORT MCMURRAY A","3062697","2016-05-05 21:00","2016","05","05","21:00","15.1","","-8.3","","19","","31","","21","","8.1","","97.06","","","","","","Haze"
"-111.22","56.65","FORT MCMURRAY A","3062697","2016-05-05 22:00","2016","05","05","22:00","14.0","","-8.2","","21","","34","","21","","6.4","","97.14","","","","","","Haze"
"-111.22","56.65","FORT MCMURRAY A","3062697","2016-05-05 23:00","2016","05","05","23:00","12.2","","-2.8","","35","","5","","8","","16.1","","97.25","","","","","","NA"
"-111.22","56.65","FORT MCMURRAY A","3062697","2016-05-06 00:00","2016","05","06","00:00","11.8","","-1.6","","39","","32","","9","","8.1","","97.34","","","","","","Haze"
"-111.22","56.65","FORT MCMURRAY A","3062697","2016-05-06 01:00","2016","05","06","01:00","10.4","","-1.0","","45","","35","","4","","2.8","","97.38","","","","","","Haze"
"-111.22","56.65","FORT MCMURRAY A","3062697","2016-05-06 02:00","2016","05","06","02:00","10.3","","-0.7","","46","","2","","4","","2.4","","97.45","","","","","","Haze"
"-111.22","56.65","FORT MCMURRAY A","3062697","2016-05-06 03:00","2016","05","06","03:00","7.1","","0.0","","61","","21","","8","","0.4","","97.48","","","","","","Haze"
"-111.22","56.65","FORT MCMURRAY A","3062697","2016-05-06 04:00","2016","05","06","04:00","5.7","","0.2","","68","","23","","9","","0.6","","97.48","","","","","","Haze"
"-111.22","56.65","FORT MCMURRAY A","3062697","2016-05-06 05:00","2016","05","06","05:00","4.4","","-1.4","","66","","22","","11","","0.2","","97.53","","","","","","Haze"
"-111.22","56.65","FORT MCMURRAY A","3062697","2016-05-06 06:00","2016","05","06","06:00","4.0","","-2.0","","65","","22","","13","","0.4","","97.61","","","","","","Haze"
"-111.22","56.65","FORT MCMURRAY A","3062697","2016-05-06 07:00","2016","05","06","07:00","4.8","","-1.8","","62","","21","","11","","0.2","","97.68","","","","","","Haze"
"-111.22","56.65","FORT MCMURRAY A","3062697","2016-05-06 08:00","2016","05","06","08:00","7.1","","-1.9","","53","","22","","9","","0.6","","97.73","","","","","","Haze"
"-111.22","56.65","FORT MCMURRAY A","3062697","2016-05-06 09:00","2016","05","06","09:00","9.6","","-2.5","","43","","35","","5","","1.0","","97.76","","","","","","Haze"
"-111.22","56.65","FORT MCMURRAY A","3062697","2016-05-06 10:00","2016","05","06","10:00","12.4","","-2.9","","34","","30","","8","","1.2","","97.78","","","","","","Haze"
"-111.22","56.65","FORT MCMURRAY A","3062697","2016-05-06 11:00","2016","05","06","11:00","14.7","","-3.9","","27","","33","","13","","2.0","","97.72","","","","","","Haze"
"-111.22","56.65","FORT MCMURRAY A","3062697","2016-05-06 12:00","2016","05","06","12:00","15.5","","-5.8","","23","","28","","15","","11.3","","97.68","","","","","","NA"
"-111.22","56.65","FORT MCMURRAY A","3062697","2016-05-06 13:00","2016","05","06","13:00","17.3","","-5.8","","20","","33","","11","","16.1","","97.62","","","","","","NA"
"-111.22","56.65","FORT MCMURRAY A","3062697","2016-05-06 14:00","2016","05","06","14:00","17.9","","-7.7","","17","","29","","21","","14.5","","97.54","","","","","","NA"
"-111.22","56.65","FORT MCMURRAY A","3062697","2016-05-06 15:00","2016","05","06","15:00","18.4","","-7.7","","16","","29","","17","","16.1","","97.47","","","","","","NA"
"-111.22","56.65","FORT MCMURRAY A","3062697","2016-05-06 16:00","2016","05","06","16:00","18.8","","-8.3","","15","","28","","22","","14.5","","97.42","","","","","","NA"
"-111.22","56.65","FORT MCMURRAY A","3062697","2016-05-06 17:00","2016","05","06","17:00","18.9","","-6.8","","17","","28","","18","","16.1","","97.35","","","","","","NA"
"-111.22","56.65","FORT MCMURRAY A","3062697","2016-05-06 18:00","2016","05","06","18:00","18.7","","-6.1","","18","","29","","15","","16.1","","97.29","","","","","","NA"
"-111.22","56.65","FORT MCMURRAY A","3062697","2016-05-06 19:00","2016","05","06","19:00","18.8","","-6.1","","18","","30","","11","","16.1","","97.24","","","","","","NA"
"-111.22","56.65","FORT MCMURRAY A","3062697","2016-05-06 20:00","2016","05","06","20:00","14.6","","-3.6","","28","","13","","18","","1.0","","97.20","","","","","","Haze"
"-111.22","56.65","FORT MCMURRAY A","3062697","2016-05-06 21:00","2016","05","06","21:00","12.4","","-3.1","","34","","12","","8","","0.4","","97.18","","","","","","Haze"
"-111.22","56.65","FORT MCMURRAY A","3062697","2016-05-06 22:00","2016","05","06","22:00","11.4","","-3.5","","35","","14","","15","","0.4","","97.13","","","","","","Haze"
"-111.22","56.65","FORT MCMURRAY A","3062697","2016-05-06 23:00","2016","05","06","23:00","11.0","","-3.5","","36","","11","","9","","0.6","","97.08","","","","","","Haze"
"-111.22","56.65","FORT MCMURRAY A","3062697","2016-05-07 00:00","2016","05","07","00:00","9.1","","-3.1","","42","","9","","8","","0.6","","97.02","","","","","","Haze"
"-111.22","56.65","FORT MCMURRAY A","3062697","2016-05-07 01:00","2016","05","07","01:00","8.5","","-1.9","","48","","9","","11","","0.6","","96.97","","","","","","Haze"
"-111.22","56.65","FORT MCMURRAY A","3062697","2016-05-07 02:00","2016","05","07","02:00","8.4","","-1.7","","49","","10","","11","","0.6","","96.89","","","","","","Haze"
"-111.22","56.65","FORT MCMURRAY A","3062697","2016-05-07 03:00","2016","05","07","03:00","9.0","","-1.3","","48","","9","","11","","0.6","","96.78","","","","","","Haze"
"-111.22","56.65","FORT MCMURRAY A","3062697","2016-05-07 04:00","2016","05","07","04:00","8.1","","-1.1","","52","","8","","8","","0.6","","96.73","","","","","","Haze"
"-111.22","56.65","FORT MCMURRAY A","3062697","2016-05-07 05:00","2016","05","07","05:00","8.4","","-1.1","","51","","10","","11","","0.4","","96.65","","","","","","Haze"
"-111.22","56.65","FORT MCMURRAY A","3062697","2016-05-07 06:00","2016","05","07","06:00","8.0","","-0.8","","54","","9","","11","","0.2","","96.55","","","","","","Haze"
"-111.22","56.65","FORT MCMURRAY A","3062697","2016-05-07 07:00","2016","05","07","07:00","7.9","","-0.6","","55","","10","","9","","0.2","","96.49","","","","","","Haze"
"-111.22","56.65","FORT MCMURRAY A","3062697","2016-05-07 08:00","2016","05","07","08:00","8.9","","-0.1","","53","","12","","8","","0.2","","96.43","","","","","","Haze"
"-111.22","56.65","FORT MCMURRAY A","3062697","2016-05-07 09:00","2016","05","07","09:00","11.0","","0.8","","49","","9","","9","","0.2","","96.33","","","","","","Haze"
"-111.22","56.65","FORT MCMURRAY A","3062697","2016-05-07 10:00","2016","05","07","10:00","13.3","","1.8","","45","","6","","8","","0.2","","96.21","","","","","","Haze"
"-111.22","56.65","FORT MCMURRAY A","3062697","2016-05-07 11:00","2016","05","07","11:00","16.2","","2.3","","39","","3","","5","","0.4","","96.16","","","","","","Haze"
"-111.22","56.65","FORT MCMURRAY A","3062697","2016-05-07 12:00","2016","05","07","12:00","19.7","","1.1","","29","","35","","5","","0.8","","96.06","","","","","","Haze"
"-111.22","56.65","FORT MCMURRAY A","3062697","2016-05-07 13:00","2016","05","07","13:00","21.0","","0.4","","25","","35","","9","","1.6","","95.99","","","","","","Haze"
"-111.22","56.65","FORT MCMURRAY A","3062697","2016-05-07 14:00","2016","05","07","14:00","23.3","","0.1","","21","","34","","8","","3.6","","95.91","","","","","","Haze"
"-111.22","56.65","FORT MCMURRAY A","3062697","2016-05-07 15:00","2016","05","07","15:00","25.0","","1.1","","21","","35","","11","","6.4","","95.83","","","","","","Haze"
"-111.22","56.65","FORT MCMURRAY A","3062697","2016-05-07 16:00","2016","05","07","16:00","25.9","","0.8","","19","","27","","30","","6.4","","95.75","","","","","","Haze"
"-111.22","56.65","FORT MCMURRAY A","3062697","2016-05-07 17:00","2016","05","07","17:00","25.3","","1.5","","21","","23","","21","","6.4","","95.70","","","","","","Haze"
"-111.22","56.65","FORT MCMURRAY A","3062697","2016-05-07 18:00","2016","05","07","18:00","25.3","","-0.5","","18","","23","","22","","8.1","","95.62","","","","","","Haze"
"-111.22","56.65","FORT MCMURRAY A","3062697","2016-05-07 19:00","2016","05","07","19:00","25.1","","0.2","","19","","25","","11","","11.3","","95.56","","","","","","NA"
"-111.22","56.65","FORT MCMURRAY A","3062697","2016-05-07 20:00","2016","05","07","20:00","23.1","","2.5","","26","","20","","8","","4.0","","95.48","","","","","","Haze"
"-111.22","56.65","FORT MCMURRAY A","3062697","2016-05-07 21:00","2016","05","07","21:00","20.2","","3.1","","32","","9","","13","","0.8","","95.41","","","","","","Haze"
"-111.22","56.65","FORT MCMURRAY A","3062697","2016-05-07 22:00","2016","05","07","22:00","17.8","","3.2","","37","","10","","13","","1.6","","95.35","","","","","","Haze"
"-111.22","56.65","FORT MCMURRAY A","3062697","2016-05-07 23:00","2016","05","07","23:00","16.3","","2.8","","40","","9","","9","","2.0","","95.27","","","","","","Haze"
"-111.22","56.65","FORT MCMURRAY A","3062697","2016-05-08 00:00","2016","05","08","00:00","14.6","","3.2","","46","","9","","11","","1.6","","95.19","","","","","","Haze"
"-111.22","56.65","FORT MCMURRAY A","3062697","2016-05-08 01:00","2016","05","08","01:00","14.3","","4.0","","50","","11","","9","","2.0","","95.11","","","","","","Haze"
"-111.22","56.65","FORT MCMURRAY A","3062697","2016-05-08 02:00","2016","05","08","02:00","14.8","","4.1","","48","","8","","15","","1.2","","94.96","","","","","","Haze"
"-111.22","56.65","FORT MCMURRAY A","3062697","2016-05-08 03:00","2016","05","08","03:00","15.2","","4.1","","47","","11","","13","","1.6","","94.89","","","","","","Haze"
"-111.22","56.65","FORT MCMURRAY A","3062697","2016-05-08 04:00","2016","05","08","04:00","13.2","","4.4","","55","","31","","18","","1.2","","94.84","","","","","","Haze"
"-111.22","56.65","FORT MCMURRAY A","3062697","2016-05-08 05:00","2016","05","08","05:00","12.9","","4.7","","57","","31","","15","","1.2","","94.83","","","","","","Haze"
"-111.22","56.65","FORT MCMURRAY A","3062697","2016-05-08 06:00","2016","05","08","06:00","13.4","","4.1","","53","","29","","18","","2.0","","94.89","","","","","","Haze"
"-111.22","56.65","FORT MCMURRAY A","3062697","2016-05-08 07:00","2016","05","08","07:00","14.9","","4.9","","51","","28","","18","","16.1","","94.93","","","","","","NA"
"-111.22","56.65","FORT MCMURRAY A","3062697","2016-05-08 08:00","2016","05","08","08:00","14.8","","4.6","","50","","28","","32","","16.1","","94.98","","","","","","NA"
"-111.22","56.65","FORT MCMURRAY A","3062697","2016-05-08 09:00","2016","05","08","09:00","13.2","","5.7","","60","","28","","32","","16.1","","95.04","","","","","","NA"
"-111.22","56.65","FORT MCMURRAY A","3062697","2016-05-08 10:00","2016","05","08","10:00","11.5","","7.3","","75","","29","","24","","14.5","","95.08","","","","","","Rain"
"-111.22","56.65","FORT MCMURRAY A","3062697","2016-05-08 11:00","2016","05","08","11:00","12.1","","6.2","","67","","24","","11","","16.1","","95.05","","","","","","NA"
"-111.22","56.65","FORT MCMURRAY A","3062697","2016-05-08 12:00","2016","05","08","12:00","14.5","","3.2","","46","","24","","21","","9.7","","95.08","","","","","","Haze"
"-111.22","56.65","FORT MCMURRAY A","3062697","2016-05-08 13:00","2016","05","08","13:00","15.5","","-1.0","","32","","25","","30","","6.4","","95.05","","","","","","Haze"
"-111.22","56.65","FORT MCMURRAY A","3062697","2016-05-08 14:00","2016","05","08","14:00","15.4","","-3.2","","28","","26","","26","","16.1","","95.13","","","","","","NA"
"-111.22","56.65","FORT MCMURRAY A","3062697","2016-05-08 15:00","2016","05","08","15:00","16.7","","-4.0","","24","","26","","32","","12.9","","95.14","","","","","","NA"
"-111.22","56.65","FORT MCMURRAY A","3062697","2016-05-08 16:00","2016","05","08","16:00","16.6","","-3.7","","25","","26","","24","","16.1","","95.14","","","","","","NA"
"-111.22","56.65","FORT MCMURRAY A","3062697","2016-05-08 17:00","2016","05","08","17:00","15.4","","-3.3","","27","","25","","34","","6.4","","95.22","","","","","","Haze"
"-111.22","56.65","FORT MCMURRAY A","3062697","2016-05-08 18:00","2016","05","08","18:00","14.4","","-2.5","","31","","24","","35","","4.8","","95.27","","","","","","Haze"
"-111.22","56.65","FORT MCMURRAY A","3062697","2016-05-08 19:00","2016","05","08","19:00","13.1","","-0.8","","38","","24","","34","","4.0","","95.31","","","","","","Haze"
"-111.22","56.65","FORT MCMURRAY A","3062697","2016-05-08 20:00","2016","05","08","20:00","11.6","","1.1","","48","","25","","30","","4.8","","95.41","","","","","","Haze"
"-111.22","56.65","FORT MCMURRAY A","3062697","2016-05-08 21:00","2016","05","08","21:00","9.8","","1.7","","57","","24","","21","","4.8","","95.50","","","","","","Haze"
"-111.22","56.65","FORT MCMURRAY A","3062697","2016-05-08 22:00","2016","05","08","22:00","9.2","","2.1","","61","","24","","15","","2.0","","95.58","","","","","","Haze"
"-111.22","56.65","FORT MCMURRAY A","3062697","2016-05-08 23:00","2016","05","08","23:00","9.5","","2.7","","62","","29","","35","","16.1","","95.68","","","","","","NA"
"-111.22","56.65","FORT MCMURRAY A","3062697","2016-05-09 00:00","2016","05","09","00:00","7.1","","1.0","","65","","31","","30","","16.1","","95.87","","","","","","NA"
"-111.22","56.65","FORT MCMURRAY A","3062697","2016-05-09 01:00","2016","05","09","01:00","5.9","","0.8","","70","","29","","28","","16.1","","96.00","","","","","","NA"
"-111.22","56.65","FORT MCMURRAY A","3062697","2016-05-09 02:00","2016","05","09","02:00","4.9","","1.5","","79","","30","","24","","16.1","","96.12","","","","","","NA"
"-111.22","56.65","FORT MCMURRAY A","3062697","2016-05-09 03:00","2016","05","09","03:00","4.5","","2.3","","86","","29","","17","","16.1","","96.21","","","","","","Rain"
"-111.22","56.65","FORT MCMURRAY A","3062697","2016-05-09 04:00","2016","05","09","04:00","4.2","","1.6","","83","","28","","13","","16.1","","96.26","","","","","","NA"
"-111.22","56.65","FORT MCMURRAY A","3062697","2016-05-09 05:00","2016","05","09","05:00","3.9","","1.5","","84","","26","","17","","2.8","","96.31","","","","","","Fog"
"-111.22","56.65","FORT MCMURRAY A","3062697","2016-05-09 06:00","2016","05","09","06:00","4.7","","1.4","","79","","26","","18","","3.2","","96.42","","","","","","Haze"
"-111.22","56.65","FORT MCMURRAY A","3062697","2016-05-09 07:00","2016","05","09","07:00","4.9","","0.7","","74","","27","","21","","16.1","","96.52","","","","","","NA"
"-111.22","56.65","FORT MCMURRAY A","3062697","2016-05-09 08:00","2016","05","09","08:00","5.2","","0.2","","70","","27","","26","","16.1","","96.60","","","","","","NA"
"-111.22","56.65","FORT MCMURRAY A","3062697","2016-05-09 09:00","2016","05","09","09:00","6.5","","-0.2","","62","","30","","30","","16.1","","96.64","","","","","","NA"
"-111.22","56.65","FORT MCMURRAY A","3062697","2016-05-09 10:00","2016","05","09","10:00","6.9","","-0.5","","59","","29","","24","","16.1","","96.71","","","","","","NA"
"-111.22","56.65","FORT MCMURRAY A","3062697","2016-05-09 11:00","2016","05","09","11:00","7.5","","-0.8","","56","","29","","22","","16.1","","96.79","","","","","","NA"
"-111.22","56.65","FORT MCMURRAY A","3062697","2016-05-09 12:00","2016","05","09","12:00","7.3","","-0.7","","57","","31","","15","","16.1","","96.84","","","","","","NA"
"-111.22","56.65","FORT MCMURRAY A","3062697","2016-05-09 13:00","2016","05","09","13:00","8.3","","-0.6","","54","","32","","26","","16.1","","96.90","","","","","","NA"
"-111.22","56.65","FORT MCMURRAY A","3062697","2016-05-09 14:00","2016","05","09","14:00","8.3","","-0.8","","53","","31","","21","","16.1","","96.96","","","","","","NA"
"-111.22","56.65","FORT MCMURRAY A","3062697","2016-05-09 15:00","2016","05","09","15:00","8.4","","0.0","","55","","33","","21","","16.1","","97.04","","","","","","NA"
"-111.22","56.65","FORT MCMURRAY A","3062697","2016-05-09 16:00","2016","05","09","16:00","8.6","","-0.4","","53","","30","","18","","16.1","","97.12","","","","","","NA"
"-111.22","56.65","FORT MCMURRAY A","3062697","2016-05-09 17:00","2016","05","09","17:00","8.6","","0.0","","55","","33","","17","","16.1","","97.20","","","","","","NA"
"-111.22","56.65","FORT MCMURRAY A","3062697","2016-05-09 18:00","2016","05","09","18:00","8.4","","0.5","","57","","32","","15","","16.1","","97.27","","","","","","NA"
"-111.22","56.65","FORT MCMURRAY A","3062697","2016-05-09 19:00","2016","05","09","19:00","8.1","","0.6","","59","","32","","15","","16.1","","97.33","","","","","","NA"
"-111.22","56.65","FORT MCMURRAY A","3062697","2016-05-09 20:00","2016","05","09","20:00","8.1","","0.4","","58","","31","","17","","16.1","","97.41","","","","","","NA"
"-111.22","56.65","FORT MCMURRAY A","3062697","2016-05-09 21:00","2016","05","09","21:00","7.9","","0.6","","60","","31","","13","","16.1","","97.47","","","","","","NA"
"-111.22","56.65","FORT MCMURRAY A","3062697","2016-05-09 22:00","2016","05","09","22:00","7.6","","0.6","","61","","28","","13","","16.1","","97.51","","","","","","NA"
"-111.22","56.65","FORT MCMURRAY A","3062697","2016-05-09 23:00","2016","05","09","23:00","7.2","","0.7","","63","","28","","11","","16.1","","97.56","","","","","","NA"
"-111.22","56.65","FORT MCMURRAY A","3062697","2016-05-10 00:00","2016","05","10","00:00","6.7","","0.8","","66","","32","","13","","16.1","","97.60","","","","","","NA"
"-111.22","56.65","FORT MCMURRAY A","3062697","2016-05-10 01:00","2016","05","10","01:00","5.9","","1.3","","72","","4","","9","","16.1","","97.67","","","","","","NA"
"-111.22","56.65","FORT MCMURRAY A","3062697","2016-05-10 02:00","2016","05","10","02:00","5.8","","1.2","","72","","","M","4","","16.1","","97.72","","","","","","NA"
"-111.22","56.65","FORT MCMURRAY A","3062697","2016-05-10 03:00","2016","05","10","03:00","2.9","","1.0","","87","","25","","5","","4.0","","97.76","","","","","","Fog"
"-111.22","56.65","FORT MCMURRAY A","3062697","2016-05-10 04:00","2016","05","10","04:00","3.2","","1.0","","86","","26","","8","","2.8","","97.82","","","","","","Fog"
"-111.22","56.65","FORT MCMURRAY A","3062697","2016-05-10 05:00","2016","05","10","05:00","0.9","","0.0","","94","","20","","4","","2.0","","97.84","","","","","","Fog"
"-111.22","56.65","FORT MCMURRAY A","3062697","2016-05-10 06:00","2016","05","10","06:00","0.4","","-0.3","","95","","","M","4","","1.2","","97.91","","","","","","Fog"
"-111.22","56.65","FORT MCMURRAY A","3062697","2016-05-10 07:00","2016","05","10","07:00","2.7","","0.8","","87","","23","","11","","2.0","","97.97","","","","","","Fog"
"-111.22","56.65","FORT MCMURRAY A","3062697","2016-05-10 08:00","2016","05","10","08:00","5.3","","1.0","","74","","28","","8","","4.0","","97.99","","","","","","Haze"
"-111.22","56.65","FORT MCMURRAY A","3062697","2016-05-10 09:00","2016","05","10","09:00","7.0","","0.9","","65","","32","","8","","6.4","","98.03","","","","","","Haze"
"-111.22","56.65","FORT MCMURRAY A","3062697","2016-05-10 10:00","2016","05","10","10:00","9.0","","0.6","","55","","34","","13","","16.1","","98.02","","","","","","NA"
"-111.22","56.65","FORT MCMURRAY A","3062697","2016-05-10 11:00","2016","05","10","11:00","10.1","","-0.4","","48","","33","","18","","16.1","","98.02","","","","","","NA"
"-111.22","56.65","FORT MCMURRAY A","3062697","2016-05-10 12:00","2016","05","10","12:00","11.5","","-0.5","","43","","32","","15","","16.1","","97.98","","","","","","NA"
"-111.22","56.65","FORT MCMURRAY A","3062697","2016-05-10 13:00","2016","05","10","13:00","11.8","","-0.8","","42","","34","","13","","16.1","","97.97","","","","","","NA"
"-111.22","56.65","FORT MCMURRAY A","3062697","2016-05-10 14:00","2016","05","10","14:00","12.3","","-0.7","","41","","","M","8","","16.1","","97.97","","","","","","NA"
"-111.22","56.65","FORT MCMURRAY A","3062697","2016-05-10 15:00","2016","05","10","15:00","13.8","","-1.4","","35","","","M","13","","16.1","","97.95","","","","","","NA"
"-111.22","56.65","FORT MCMURRAY A","3062697","2016-05-10 16:00","2016","05","10","16:00","12.9","","-2.0","","35","","3","","21","","16.1","","97.95","","","","","","NA"
"-111.22","56.65","FORT MCMURRAY A","3062697","2016-05-10 17:00","2016","05","10","17:00","13.1","","-2.3","","34","","2","","21","","16.1","","97.94","","","","","","NA"
"-111.22","56.65","FORT MCMURRAY A","3062697","2016-05-10 18:00","2016","05","10","18:00","13.5","","-1.8","","35","","1","","18","","16.1","","97.95","","","","","","NA"
"-111.22","56.65","FORT MCMURRAY A","3062697","2016-05-10 19:00","2016","05","10","19:00","12.8","","-1.9","","36","","1","","22","","16.1","","97.97","","","","","","NA"
"-111.22","56.65","FORT MCMURRAY A","3062697","2016-05-10 20:00","2016","05","10","20:00","11.4","","-2.0","","39","","4","","22","","16.1","","98.02","","","","","","NA"
"-111.22","56.65","FORT MCMURRAY A","3062697","2016-05-10 21:00","2016","05","10","21:00","9.8","","-1.9","","44","","4","","24","","16.1","","98.09","","","","","","NA"
"-111.22","56.65","FORT MCMURRAY A","3062697","2016-05-10 22:00","2016","05","10","22:00","8.1","","-1.4","","51","","4","","18","","16.1","","98.17","","","","","","NA"
"-111.22","56.65","FORT MCMURRAY A","3062697","2016-05-10 23:00","2016","05","10","23:00","6.3","","-1.4","","58","","7","","17","","16.1","","98.21","","","","","","NA"
"-111.22","56.65","FORT MCMURRAY A","3062697","2016-05-11 00:00","2016","05","11","00:00","4.8","","-1.4","","64","","8","","11","","16.1","","98.26","","","","","","NA"
"-111.22","56.65","FORT MCMURRAY A","3062697","2016-05-11 01:00","2016","05","11","01:00","3.9","","-1.6","","67","","4","","5","","16.1","","98.27","","","","","","NA"
"-111.22","56.65","FORT MCMURRAY A","3062697","2016-05-11 02:00","2016","05","11","02:00","2.0","","-1.8","","76","","","","0","","16.1","","98.28","","","","","","NA"
"-111.22","56.65","FORT MCMURRAY A","3062697","2016-05-11 03:00","2016","05","11","03:00","-0.1","","-2.6","","83","","3","","4","","1.6","","98.30","","","","-1","","Haze"
"-111.22","56.65","FORT MCMURRAY A","3062697","2016-05-11 04:00","2016","05","11","04:00","-2.4","","-4.2","","88","","","","0","","2.0","","98.32","","","","","","Fog"
"-111.22","56.65","FORT MCMURRAY A","3062697","2016-05-11 05:00","2016","05","11","05:00","-2.8","","-3.5","","95","","28","","5","","0.4","","98.33","","","","-5","","Freezing Fog"
"-111.22","56.65","FORT MCMURRAY A","3062697","2016-05-11 06:00","2016","05","11","06:00","0.5","","-2.1","","83","","32","","8","","4.8","","98.38","","","","","","Haze"
"-111.22","56.65","FORT MCMURRAY A","3062697","2016-05-11 07:00","2016","05","11","07:00","1.9","","-0.9","","82","","33","","9","","4.8","","98.38","","","","","","Haze"
"-111.22","56.65","FORT MCMURRAY A","3062697","2016-05-11 08:00","2016","05","11","08:00","2.5","","-0.9","","79","","33","","11","","6.4","","98.40","","","","","","Haze"
"-111.22","56.65","FORT MCMURRAY A","3062697","2016-05-11 09:00","2016","05","11","09:00","5.4","","-1.4","","61","","36","","8","","16.1","","98.39","","","","","","NA"
"-111.22","56.65","FORT MCMURRAY A","3062697","2016-05-11 10:00","2016","05","11","10:00","6.7","","-2.4","","52","","35","","11","","16.1","","98.39","","","","","","NA"
"-111.22","56.65","FORT MCMURRAY A","3062697","2016-05-11 11:00","2016","05","11","11:00","7.9","","-3.4","","45","","36","","17","","16.1","","98.36","","","","","","NA"
"-111.22","56.65","FORT MCMURRAY A","3062697","2016-05-11 12:00","2016","05","11","12:00","10.5","","-3.1","","38","","1","","17","","16.1","","98.32","","","","","","NA"
"-111.22","56.65","FORT MCMURRAY A","3062697","2016-05-11 13:00","2016","05","11","13:00","9.4","","-3.5","","40","","33","","22","","16.1","","98.30","","","","","","NA"
"-111.22","56.65","FORT MCMURRAY A","3062697","2016-05-11 14:00","2016","05","11","14:00","10.5","","-3.8","","36","","35","","15","","16.1","","98.29","","","","","","NA"
"-111.22","56.65","FORT MCMURRAY A","3062697","2016-05-11 15:00","2016","05","11","15:00","10.9","","-3.9","","35","","2","","22","","16.1","","98.27","","","","","","NA"
"-111.22","56.65","FORT MCMURRAY A","3062697","2016-05-11 16:00","2016","05","11","16:00","10.6","","-4.3","","35","","3","","11","","16.1","","98.27","","","","","","NA"
"-111.22","56.65","FORT MCMURRAY A","3062697","2016-05-11 17:00","2016","05","11","17:00","9.9","","-3.9","","38","","36","","18","","16.1","","98.27","","","","","","NA"
"-111.22","56.65","FORT MCMURRAY A","3062697","2016-05-11 18:00","2016","05","11","18:00","11.1","","-4.7","","33","","2","","22","","16.1","","98.26","","","","","","NA"
"-111.22","56.65","FORT MCMURRAY A","3062697","2016-05-11 19:00","2016","05","11","19:00","9.9","","-5.2","","34","","1","","18","","16.1","","98.26","","","","","","NA"
"-111.22","56.65","FORT MCMURRAY A","3062697","2016-05-11 20:00","2016","05","11","20:00","9.5","","-6.3","","32","","2","","24","","16.1","","98.29","","","","","","NA"
"-111.22","56.65","FORT MCMURRAY A","3062697","2016-05-11 21:00","2016","05","11","21:00","8.4","","-5.8","","36","","36","","11","","16.1","","98.32","","","","","","NA"
"-111.22","56.65","FORT MCMURRAY A","3062697","2016-05-11 22:00","2016","05","11","22:00","6.6","","-6.7","","38","","1","","13","","16.1","","98.39","","","","","","NA"
"-111.22","56.65","FORT MCMURRAY A","3062697","2016-05-11 23:00","2016","05","11","23:00","5.5","","-7.4","","39","","2","","17","","16.1","","98.42","","","","","","NA"
"-111.22","56.65","FORT MCMURRAY A","3062697","2016-05-12 00:00","2016","05","12","00:00","4.6","","-7.9","","40","","4","","15","","16.1","","98.43","","","","","","NA"
"-111.22","56.65","FORT MCMURRAY A","3062697","2016-05-12 01:00","2016","05","12","01:00","2.7","","-7.5","","47","","7","","9","","16.1","","98.44","","","","","","NA"
"-111.22","56.65","FORT MCMURRAY A","3062697","2016-05-12 02:00","2016","05","12","02:00","0.3","","-6.9","","59","","3","","4","","3.2","","98.44","","","","","","Haze"
"-111.22","56.65","FORT MCMURRAY A","3062697","2016-05-12 03:00","2016","05","12","03:00","0.3","","-6.2","","62","","33","","5","","1.2","","98.45","","","","","","Haze"
"-111.22","56.65","FORT MCMURRAY A","3062697","2016-05-12 04:00","2016","05","12","04:00","0.3","","-6.6","","60","","32","","9","","4.8","","98.49","","","","","","Haze"
"-111.22","56.65","FORT MCMURRAY A","3062697","2016-05-12 05:00","2016","05","12","05:00","0.5","","-7.1","","57","","31","","9","","6.4","","98.51","","","","","","Haze"
"-111.22","56.65","FORT MCMURRAY A","3062697","2016-05-12 06:00","2016","05","12","06:00","0.6","","-6.1","","61","","32","","8","","9.7","","98.53","","","","","","Haze"
"-111.22","56.65","FORT MCMURRAY A","3062697","2016-05-12 07:00","2016","05","12","07:00","1.3","","-4.4","","66","","32","","9","","6.4","","98.57","","","","","","Haze"
"-111.22","56.65","FORT MCMURRAY A","3062697","2016-05-12 08:00","2016","05","12","08:00","3.8","","-5.4","","51","","31","","5","","8.1","","98.58","","","","","","Haze"
"-111.22","56.65","FORT MCMURRAY A","3062697","2016-05-12 09:00","2016","05","12","09:00","5.4","","-4.6","","48","","29","","5","","11.3","","98.59","","","","","","NA"
"-111.22","56.65","FORT MCMURRAY A","3062697","2016-05-12 10:00","2016","05","12","10:00","8.2","","-5.7","","37","","33","","13","","16.1","","98.58","","","","","","NA"
"-111.22","56.65","FORT MCMURRAY A","3062697","2016-05-12 11:00","2016","05","12","11:00","9.2","","-7.1","","31","","4","","18","","16.1","","98.55","","","","","","NA"
"-111.22","56.65","FORT MCMURRAY A","3062697","2016-05-12 12:00","2016","05","12","12:00","10.2","","-8.3","","26","","6","","21","","16.1","","98.54","","","","","","NA"
"-111.22","56.65","FORT MCMURRAY A","3062697","2016-05-12 13:00","2016","05","12","13:00","11.2","","-8.8","","24","","4","","24","","16.1","","98.52","","","","","","NA"
"-111.22","56.65","FORT MCMURRAY A","3062697","2016-05-12 14:00","2016","05","12","14:00","12.0","","-8.1","","24","","4","","15","","16.1","","98.50","","","","","","NA"
"-111.22","56.65","FORT MCMURRAY A","3062697","2016-05-12 15:00","2016","05","12","15:00","12.4","","-8.2","","23","","35","","17","","16.1","","98.47","","","","","","NA"
"-111.22","56.65","FORT MCMURRAY A","3062697","2016-05-12 16:00","2016","05","12","16:00","11.2","","-7.5","","26","","4","","11","","16.1","","98.47","","","","","","NA"
"-111.22","56.65","FORT MCMURRAY A","3062697","2016-05-12 17:00","2016","05","12","17:00","11.3","","-7.2","","27","","36","","17","","16.1","","98.47","","","","","","NA"
"-111.22","56.65","FORT MCMURRAY A","3062697","2016-05-12 18:00","2016","05","12","18:00","12.4","","-7.0","","25","","2","","21","","16.1","","98.47","","","","","","NA"
"-111.22","56.65","FORT MCMURRAY A","3062697","2016-05-12 19:00","2016","05","12","19:00","11.0","","-7.1","","27","","36","","8","","16.1","","98.49","","","","","","NA"
"-111.22","56.65","FORT MCMURRAY A","3062697","2016-05-12 20:00","2016","05","12","20:00","10.1","","-7.0","","29","","2","","11","","16.1","","98.51","","","","","","NA"
"-111.22","56.65","FORT MCMURRAY A","3062697","2016-05-12 21:00","2016","05","12","21:00","9.8","","-7.0","","30","","5","","8","","16.1","","98.51","","","","","","NA"
"-111.22","56.65","FORT MCMURRAY A","3062697","2016-05-12 22:00","2016","05","12","22:00","8.2","","-6.9","","34","","2","","11","","16.1","","98.55","","","","","","NA"
"-111.22","56.65","FORT MCMURRAY A","3062697","2016-05-12 23:00","2016","05","12","23:00","7.4","","-6.6","","36","","3","","9","","16.1","","98.57","","","","","","NA"
"-111.22","56.65","FORT MCMURRAY A","3062697","2016-05-13 00:00","2016","05","13","00:00","4.7","","-5.5","","48","","","","0","","16.1","","98.57","","","","","","NA"
"-111.22","56.65","FORT MCMURRAY A","3062697","2016-05-13 01:00","2016","05","13","01:00","-0.8","","-5.4","","71","","21","","11","","16.1","","98.59","","","","-5","","NA"
"-111.22","56.65","FORT MCMURRAY A","3062697","2016-05-13 02:00","2016","05","13","02:00","-0.8","","-5.5","","70","","21","","11","","4.8","","98.60","","","","-5","","Haze"
"-111.22","56.65","FORT MCMURRAY A","3062697","2016-05-13 03:00","2016","05","13","03:00","-0.9","","-5.3","","72","","21","","8","","1.2","","98.62","","","","-4","","Haze"
"-111.22","56.65","FORT MCMURRAY A","3062697","2016-05-13 04:00","2016","05","13","04:00","-2.3","","-5.8","","77","","20","","13","","1.2","","98.64","","","","-7","","Haze"
"-111.22","56.65","FORT MCMURRAY A","3062697","2016-05-13 05:00","2016","05","13","05:00","-1.2","","-5.8","","71","","19","","5","","1.2","","98.65","","","","-3","","Haze"
"-111.22","56.65","FORT MCMURRAY A","3062697","2016-05-13 06:00","2016","05","13","06:00","-0.9","","-5.9","","69","","23","","4","","1.2","","98.68","","","","-2","","Haze"
"-111.22","56.65","FORT MCMURRAY A","3062697","2016-05-13 07:00","2016","05","13","07:00","0.5","","-4.7","","68","","20","","8","","1.2","","98.72","","","","","","Haze"
"-111.22","56.65","FORT MCMURRAY A","3062697","2016-05-13 08:00","2016","05","13","08:00","4.0","","-4.2","","55","","23","","8","","0.8","","98.70","","","","","","Haze"
"-111.22","56.65","FORT MCMURRAY A","3062697","2016-05-13 09:00","2016","05","13","09:00","7.8","","-3.8","","44","","","M","4","","1.2","","98.71","","","","","","Haze"
"-111.22","56.65","FORT MCMURRAY A","3062697","2016-05-13 10:00","2016","05","13","10:00","11.3","","-4.0","","34","","33","","9","","4.0","","98.68","","","","","","Haze"
"-111.22","56.65","FORT MCMURRAY A","3062697","2016-05-13 11:00","2016","05","13","11:00","12.8","","-5.2","","28","","33","","15","","16.1","","98.64","","","","","","NA"
"-111.22","56.65","FORT MCMURRAY A","3062697","2016-05-13 12:00","2016","05","13","12:00","13.7","","-5.5","","26","","26","","11","","16.1","","98.60","","","","","","NA"
"-111.22","56.65","FORT MCMURRAY A","3062697","2016-05-13 13:00","2016","05","13","13:00","14.5","","-5.9","","24","","","M","8","","16.1","","98.56","","","","","","NA"
"-111.22","56.65","FORT MCMURRAY A","3062697","2016-05-13 14:00","2016","05","13","14:00","14.8","","-5.8","","24","","","M","4","","16.1","","98.51","","","","","","NA"
"-111.22","56.65","FORT MCMURRAY A","3062697","2016-05-13 15:00","2016","05","13","15:00","14.8","","-5.0","","25","","36","","11","","16.1","","98.46","","","","","","NA"
"-111.22","56.65","FORT MCMURRAY A","3062697","2016-05-13 16:00","2016","05","13","16:00","15.8","","-6.1","","22","","23","","8","","16.1","","98.41","","","","","","NA"
"-111.22","56.65","FORT MCMURRAY A","3062697","2016-05-13 17:00","2016","05","13","17:00","17.0","","-6.3","","20","","","M","17","","16.1","","98.37","","","","","","NA"
"-111.22","56.65","FORT MCMURRAY A","3062697","2016-05-13 18:00","2016","05","13","18:00","17.3","","-5.3","","21","","26","","13","","16.1","","98.33","","","","","","NA"
"-111.22","56.65","FORT MCMURRAY A","3062697","2016-05-13 19:00","2016","05","13","19:00","17.0","","-5.5","","21","","29","","17","","16.1","","98.28","","","","","","NA"
"-111.22","56.65","FORT MCMURRAY A","3062697","2016-05-13 20:00","2016","05","13","20:00","16.0","","-5.1","","23","","33","","11","","16.1","","98.26","","","","","","NA"
"-111.22","56.65","FORT MCMURRAY A","3062697","2016-05-13 21:00","2016","05","13","21:00","15.2","","-5.2","","24","","29","","5","","16.1","","98.23","","","","","","NA"
"-111.22","56.65","FORT MCMURRAY A","3062697","2016-05-13 22:00","2016","05","13","22:00","11.7","","-3.3","","35","","23","","5","","1.6","","98.25","","","","","","Haze"
"-111.22","56.65","FORT MCMURRAY A","3062697","2016-05-13 23:00","2016","05","13","23:00","6.9","","-3.1","","49","","21","","8","","2.4","","98.26","","","","","","Haze"
"-111.22","56.65","FORT MCMURRAY A","3062697","2016-05-14 00:00","2016","05","14","00:00","5.9","","-3.2","","52","","19","","5","","4.0","","98.26","","","","","","Haze"
"-111.22","56.65","FORT MCMURRAY A","3062697","2016-05-14 01:00","2016","05","14","01:00","4.2","","-2.9","","60","","17","","4","","4.0","","98.28","","","","","","Haze"
"-111.22","56.65","FORT MCMURRAY A","3062697","2016-05-14 02:00","2016","05","14","02:00","3.3","","-3.1","","63","","18","","4","","4.0","","98.28","","","","","","Haze"
"-111.22","56.65","FORT MCMURRAY A","3062697","2016-05-14 03:00","2016","05","14","03:00","2.6","","-3.4","","65","","17","","4","","4.0","","98.27","","","","","","Haze"
"-111.22","56.65","FORT MCMURRAY A","3062697","2016-05-14 04:00","2016","05","14","04:00","1.9","","-3.6","","67","","19","","5","","4.0","","98.27","","","","","","Haze"
"-111.22","56.65","FORT MCMURRAY A","3062697","2016-05-14 05:00","2016","05","14","05:00","0.5","","-4.0","","72","","21","","9","","4.8","","98.25","","","","","","Haze"
"-111.22","56.65","FORT MCMURRAY A","3062697","2016-05-14 06:00","2016","05","14","06:00","2.1","","-3.8","","65","","","","0","","4.8","","98.24","","","","","","Haze"
"-111.22","56.65","FORT MCMURRAY A","3062697","2016-05-14 07:00","2016","05","14","07:00","2.5","","-3.5","","65","","","","0","","2.0","","98.23","","","","","","Haze"
"-111.22","56.65","FORT MCMURRAY A","3062697","2016-05-14 08:00","2016","05","14","08:00","4.7","","-2.9","","58","","","M","4","","0.8","","98.23","","","","","","Haze"
"-111.22","56.65","FORT MCMURRAY A","3062697","2016-05-14 09:00","2016","05","14","09:00","7.6","","-1.7","","52","","","","0","","0.6","","98.19","","","","","","Haze"
"-111.22","56.65","FORT MCMURRAY A","3062697","2016-05-14 10:00","2016","05","14","10:00","11.0","","-1.0","","43","","","M","4","","0.6","","98.13","","","","","","Haze"
"-111.22","56.65","FORT MCMURRAY A","3062697","2016-05-14 11:00","2016","05","14","11:00","15.1","","-3.0","","29","","","M","4","","1.2","","98.07","","","","","","Haze"
"-111.22","56.65","FORT MCMURRAY A","3062697","2016-05-14 12:00","2016","05","14","12:00","16.7","","-3.1","","25","","","M","4","","4.0","","98.01","","","","","","Haze"
"-111.22","56.65","FORT MCMURRAY A","3062697","2016-05-14 13:00","2016","05","14","13:00","18.4","","-3.2","","23","","34","","17","","4.8","","97.93","","","","","","Haze"
"-111.22","56.65","FORT MCMURRAY A","3062697","2016-05-14 14:00","2016","05","14","14:00","19.1","","-5.2","","19","","36","","26","","16.1","","97.86","","","","","","NA"
"-111.22","56.65","FORT MCMURRAY A","3062697","2016-05-14 15:00","2016","05","14","15:00","19.5","","-4.2","","20","","2","","11","","16.1","","97.76","","","","","","NA"
"-111.22","56.65","FORT MCMURRAY A","3062697","2016-05-14 16:00","2016","05","14","16:00","20.3","","-4.8","","18","","32","","28","","16.1","","97.69","","","","","","NA"
"-111.22","56.65","FORT MCMURRAY A","3062697","2016-05-14 17:00","2016","05","14","17:00","20.1","","-4.6","","18","","33","","11","","16.1","","97.63","","","","","","NA"
"-111.22","56.65","FORT MCMURRAY A","3062697","2016-05-14 18:00","2016","05","14","18:00","20.2","","-5.4","","17","","32","","17","","16.1","","97.58","","","","","","NA"
"-111.22","56.65","FORT MCMURRAY A","3062697","2016-05-14 19:00","2016","05","14","19:00","19.7","","-3.7","","20","","5","","18","","16.1","","97.52","","","","","","NA"
"-111.22","56.65","FORT MCMURRAY A","3062697","2016-05-14 20:00","2016","05","14","20:00","19.0","","-3.8","","21","","3","","13","","16.1","","97.47","","","","","","NA"
"-111.22","56.65","FORT MCMURRAY A","3062697","2016-05-14 21:00","2016","05","14","21:00","17.7","","-4.1","","22","","5","","9","","16.1","","97.44","","","","","","NA"
"-111.22","56.65","FORT MCMURRAY A","3062697","2016-05-14 22:00","2016","05","14","22:00","13.5","","-2.4","","33","","8","","4","","16.1","","97.46","","","","","","NA"
"-111.22","56.65","FORT MCMURRAY A","3062697","2016-05-14 23:00","2016","05","14","23:00","7.9","","-1.7","","51","","","","0","","16.1","","97.47","","","","","","NA"
"-111.22","56.65","FORT MCMURRAY A","3062697","2016-05-15 00:00","2016","05","15","00:00","5.9","","-1.4","","60","","21","","9","","3.6","","97.46","","","","","","Haze"
"-111.22","56.65","FORT MCMURRAY A","3062697","2016-05-15 01:00","2016","05","15","01:00","5.7","","-1.2","","61","","19","","5","","9.7","","97.45","","","","","","Haze"
"-111.22","56.65","FORT MCMURRAY A","3062697","2016-05-15 02:00","2016","05","15","02:00","5.9","","-1.5","","59","","19","","4","","8.1","","97.45","","","","","","Haze"
"-111.22","56.65","FORT MCMURRAY A","3062697","2016-05-15 03:00","2016","05","15","03:00","5.0","","-1.9","","61","","21","","5","","2.8","","97.44","","","","","","Haze"
"-111.22","56.65","FORT MCMURRAY A","3062697","2016-05-15 04:00","2016","05","15","04:00","2.2","","-2.5","","71","","21","","9","","8.1","","97.43","","","","","","Haze"
"-111.22","56.65","FORT MCMURRAY A","3062697","2016-05-15 05:00","2016","05","15","05:00","3.6","","-2.1","","66","","13","","5","","2.8","","97.41","","","","","","Haze"
"-111.22","56.65","FORT MCMURRAY A","3062697","2016-05-15 06:00","2016","05","15","06:00","3.1","","-2.0","","69","","13","","5","","4.8","","97.41","","","","","","Haze"
"-111.22","56.65","FORT MCMURRAY A","3062697","2016-05-15 07:00","2016","05","15","07:00","3.7","","-1.7","","68","","13","","5","","2.0","","97.40","","","","","","Haze"
"-111.22","56.65","FORT MCMURRAY A","3062697","2016-05-15 08:00","2016","05","15","08:00","7.0","","-0.8","","58","","","","0","","2.0","","97.38","","","","","","Haze"
"-111.22","56.65","FORT MCMURRAY A","3062697","2016-05-15 09:00","2016","05","15","09:00","10.0","","-0.3","","49","","","","0","","0.4","","97.35","","","","","","Haze"
"-111.22","56.65","FORT MCMURRAY A","3062697","2016-05-15 10:00","2016","05","15","10:00","14.4","","0.2","","38","","","","0","","0.4","","97.31","","","","","","Haze"
"-111.22","56.65","FORT MCMURRAY A","3062697","2016-05-15 11:00","2016","05","15","11:00","18.9","","0.1","","28","","34","","5","","1.0","","97.26","","","","","","Haze"
"-111.22","56.65","FORT MCMURRAY A","3062697","2016-05-15 12:00","2016","05","15","12:00","20.1","","-1.1","","24","","","M","4","","2.8","","97.21","","","","","","Haze"
"-111.22","56.65","FORT MCMURRAY A","3062697","2016-05-15 13:00","2016","05","15","13:00","21.3","","-0.9","","22","","3","","9","","6.4","","97.16","","","","","","Haze"
"-111.22","56.65","FORT MCMURRAY A","3062697","2016-05-15 14:00","2016","05","15","14:00","22.2","","-2.5","","19","","19","","8","","9.7","","97.10","","","","","","Haze"
"-111.22","56.65","FORT MCMURRAY A","3062697","2016-05-15 15:00","2016","05","15","15:00","22.4","","-3.4","","17","","11","","11","","9.7","","97.05","","","","","","Haze"
"-111.22","56.65","FORT MCMURRAY A","3062697","2016-05-15 16:00","2016","05","15","16:00","22.9","","-3.0","","17","","9","","9","","9.7","","97.01","","","","","","Haze"
"-111.22","56.65","FORT MCMURRAY A","3062697","2016-05-15 17:00","2016","05","15","17:00","22.1","","-3.0","","18","","21","","5","","8.1","","96.97","","","","","","Haze"
"-111.22","56.65","FORT MCMURRAY A","3062697","2016-05-15 18:00","2016","05","15","18:00","20.8","","-0.5","","24","","","","0","","4.0","","96.92","","","","","","Haze"
"-111.22","56.65","FORT MCMURRAY A","3062697","2016-05-15 19:00","2016","05","15","19:00","18.5","","3.0","","35","","9","","4","","4.0","","96.89","","","","","","Haze"
"-111.22","56.65","FORT MCMURRAY A","3062697","2016-05-15 20:00","2016","05","15","20:00","16.6","","1.3","","35","","13","","9","","2.8","","96.88","","","","","","Haze"
"-111.22","56.65","FORT MCMURRAY A","3062697","2016-05-15 21:00","2016","05","15","21:00","15.4","","0.9","","37","","14","","17","","1.2","","96.86","","","","","","Haze"
"-111.22","56.65","FORT MCMURRAY A","3062697","2016-05-15 22:00","2016","05","15","22:00","14.0","","0.4","","39","","14","","17","","1.2","","96.87","","","","","","Haze"
"-111.22","56.65","FORT MCMURRAY A","3062697","2016-05-15 23:00","2016","05","15","23:00","13.3","","0.3","","41","","15","","17","","1.2","","96.85","","","","","","Haze"
"-111.22","56.65","FORT MCMURRAY A","3062697","2016-05-16 00:00","2016","05","16","00:00","13.2","","0.0","","40","","15","","18","","1.6","","96.85","","","","","","Haze"
"-111.22","56.65","FORT MCMURRAY A","3062697","2016-05-16 01:00","2016","05","16","01:00","12.3","","-0.2","","42","","16","","17","","4.0","","96.85","","","","","","Haze"
"-111.22","56.65","FORT MCMURRAY A","3062697","2016-05-16 02:00","2016","05","16","02:00","11.9","","-0.9","","41","","22","","8","","4.8","","96.89","","","","","","Haze"
"-111.22","56.65","FORT MCMURRAY A","3062697","2016-05-16 03:00","2016","05","16","03:00","9.6","","0.4","","52","","","M","4","","6.4","","96.91","","","","","","Haze"
"-111.22","56.65","FORT MCMURRAY A","3062697","2016-05-16 04:00","2016","05","16","04:00","8.5","","-1.2","","51","","","","0","","9.7","","96.92","","","","","","Haze"
"-111.22","56.65","FORT MCMURRAY A","3062697","2016-05-16 05:00","2016","05","16","05:00","9.2","","-0.7","","50","","","M","4","","8.1","","96.96","","","","","","Haze"
"-111.22","56.65","FORT MCMURRAY A","3062697","2016-05-16 06:00","2016","05","16","06:00","8.1","","-0.4","","55","","2","","4","","4.8","","96.97","","","","","","Haze"
"-111.22","56.65","FORT MCMURRAY A","3062697","2016-05-16 07:00","2016","05","16","07:00","10.8","","0.8","","50","","3","","5","","2.4","","96.98","","","","","","Haze"
"-111.22","56.65","FORT MCMURRAY A","3062697","2016-05-16 08:00","2016","05","16","08:00","13.7","","0.7","","41","","6","","5","","2.0","","97.00","","","","","","Haze"
"-111.22","56.65","FORT MCMURRAY A","3062697","2016-05-16 09:00","2016","05","16","09:00","18.8","","-0.2","","28","","23","","15","","6.4","","97.00","","","","","","Haze"
"-111.22","56.65","FORT MCMURRAY A","3062697","2016-05-16 10:00","2016","05","16","10:00","20.9","","-0.6","","24","","22","","18","","3.6","","96.97","","","","","","Haze"
"-111.22","56.65","FORT MCMURRAY A","3062697","2016-05-16 11:00","2016","05","16","11:00","22.3","","-1.2","","21","","21","","21","","6.4","","96.94","","","","","","Haze"
"-111.22","56.65","FORT MCMURRAY A","3062697","2016-05-16 12:00","2016","05","16","12:00","23.0","","-1.5","","19","","25","","24","","16.1","","96.89","","","","","","NA"
"-111.22","56.65","FORT MCMURRAY A","3062697","2016-05-16 13:00","2016","05","16","13:00","23.8","","-1.7","","18","","20","","15","","14.5","","96.84","","","","","","NA"
"-111.22","56.65","FORT MCMURRAY A","3062697","2016-05-16 14:00","2016","05","16","14:00","24.9","","-1.4","","17","","16","","26","","16.1","","96.76","","","","","","NA"
"-111.22","56.65","FORT MCMURRAY A","3062697","2016-05-16 15:00","2016","05","16","15:00","24.7","","-1.8","","17","","18","","26","","14.5","","96.72","","","","","","NA"
"-111.22","56.65","FORT MCMURRAY A","3062697","2016-05-16 16:00","2016","05","16","16:00","24.6","","-2.3","","16","","22","","32","","4.8","","96.68","","","","","","Haze"
"-111.22","56.65","FORT MCMURRAY A","3062697","2016-05-16 17:00","2016","05","16","17:00","24.4","","-1.2","","18","","20","","26","","16.1","","96.65","","","","","","NA"
"-111.22","56.65","FORT MCMURRAY A","3062697","2016-05-16 18:00","2016","05","16","18:00","25.1","","-2.3","","16","","21","","21","","12.9","","96.61","","","","","","NA"
"-111.22","56.65","FORT MCMURRAY A","3062697","2016-05-16 19:00","2016","05","16","19:00","24.4","","-2.0","","17","","19","","21","","4.0","","96.59","","","","","","Haze"
"-111.22","56.65","FORT MCMURRAY A","3062697","2016-05-16 20:00","2016","05","16","20:00","23.8","","-1.0","","19","","19","","17","","16.1","","96.57","","","","","","NA"
"-111.22","56.65","FORT MCMURRAY A","3062697","2016-05-16 21:00","2016","05","16","21:00","21.2","","0.0","","24","","17","","13","","16.1","","96.56","","","","","","NA"
"-111.22","56.65","FORT MCMURRAY A","3062697","2016-05-16 22:00","2016","05","16","22:00","18.5","","0.3","","29","","16","","17","","16.1","","96.57","","","","","","NA"
"-111.22","56.65","FORT MCMURRAY A","3062697","2016-05-16 23:00","2016","05","16","23:00","18.0","","-0.7","","28","","16","","17","","16.1","","96.56","","","","","","NA"
"-111.22","56.65","FORT MCMURRAY A","3062697","2016-05-17 00:00","2016","05","17","00:00","16.7","","-0.9","","30","","16","","18","","16.1","","96.54","","","","","","NA"
"-111.22","56.65","FORT MCMURRAY A","3062697","2016-05-17 01:00","2016","05","17","01:00","15.3","","-0.4","","34","","18","","11","","16.1","","96.54","","","","","","NA"
"-111.22","56.65","FORT MCMURRAY A","3062697","2016-05-17 02:00","2016","05","17","02:00","13.8","","-0.1","","38","","5","","8","","12.9","","96.57","","","","","","NA"
"-111.22","56.65","FORT MCMURRAY A","3062697","2016-05-17 03:00","2016","05","17","03:00","11.6","","0.2","","45","","","","0","","9.7","","96.59","","","","","","Haze"
"-111.22","56.65","FORT MCMURRAY A","3062697","2016-05-17 04:00","2016","05","17","04:00","9.6","","0.0","","51","","11","","5","","4.8","","96.62","","","","","","Haze"
"-111.22","56.65","FORT MCMURRAY A","3062697","2016-05-17 05:00","2016","05","17","05:00","14.7","","1.9","","42","","23","","13","","1.6","","96.65","","","","","","Haze"
"-111.22","56.65","FORT MCMURRAY A","3062697","2016-05-17 06:00","2016","05","17","06:00","14.9","","3.5","","46","","23","","13","","1.6","","96.70","","","","","","Haze"
"-111.22","56.65","FORT MCMURRAY A","3062697","2016-05-17 07:00","2016","05","17","07:00","15.6","","4.5","","47","","23","","13","","1.6","","96.72","","","","","","Haze"
"-111.22","56.65","FORT MCMURRAY A","3062697","2016-05-17 08:00","2016","05","17","08:00","18.2","","4.3","","39","","26","","17","","4.8","","96.73","","","","","","Haze"
"-111.22","56.65","FORT MCMURRAY A","3062697","2016-05-17 09:00","2016","05","17","09:00","18.7","","3.5","","36","","28","","26","","6.4","","96.70","","","","","","Haze"
"-111.22","56.65","FORT MCMURRAY A","3062697","2016-05-17 10:00","2016","05","17","10:00","20.6","","4.1","","33","","26","","9","","4.8","","96.70","","","","","","Haze"
"-111.22","56.65","FORT MCMURRAY A","3062697","2016-05-17 11:00","2016","05","17","11:00","22.2","","3.9","","30","","24","","13","","4.0","","96.71","","","","","","Haze"
"-111.22","56.65","FORT MCMURRAY A","3062697","2016-05-17 12:00","2016","05","17","12:00","23.2","","4.7","","30","","27","","17","","2.8","","96.71","","","","","","Haze"
"-111.22","56.65","FORT MCMURRAY A","3062697","2016-05-17 13:00","2016","05","17","13:00","24.5","","4.1","","26","","27","","18","","3.6","","96.69","","","","","","Haze"
"-111.22","56.65","FORT MCMURRAY A","3062697","2016-05-17 14:00","2016","05","17","14:00","25.0","","3.8","","25","","26","","17","","3.2","","96.66","","","","","","Haze"
"-111.22","56.65","FORT MCMURRAY A","3062697","2016-05-17 15:00","2016","05","17","15:00","25.5","","3.8","","24","","29","","21","","4.8","","96.64","","","","","","Haze"
"-111.22","56.65","FORT MCMURRAY A","3062697","2016-05-17 16:00","2016","05","17","16:00","25.2","","3.6","","24","","30","","13","","4.8","","96.63","","","","","","Haze"
"-111.22","56.65","FORT MCMURRAY A","3062697","2016-05-17 17:00","2016","05","17","17:00","24.7","","3.6","","25","","29","","17","","4.8","","96.62","","","","","","Haze"
"-111.22","56.65","FORT MCMURRAY A","3062697","2016-05-17 18:00","2016","05","17","18:00","23.8","","4.0","","27","","34","","8","","3.6","","96.62","","","","","","Haze"
"-111.22","56.65","FORT MCMURRAY A","3062697","2016-05-17 19:00","2016","05","17","19:00","22.9","","5.5","","32","","13","","9","","2.8","","96.60","","","","","","Haze"
"-111.22","56.65","FORT MCMURRAY A","3062697","2016-05-17 20:00","2016","05","17","20:00","21.9","","5.5","","34","","13","","13","","1.2","","96.60","","","","","","Haze"
"-111.22","56.65","FORT MCMURRAY A","3062697","2016-05-17 21:00","2016","05","17","21:00","19.9","","6.5","","41","","15","","13","","1.2","","96.62","","","","","","Haze"
"-111.22","56.65","FORT MCMURRAY A","3062697","2016-05-17 22:00","2016","05","17","22:00","19.5","","5.8","","40","","21","","18","","9.7","","96.65","","","","","","Haze"
"-111.22","56.65","FORT MCMURRAY A","3062697","2016-05-17 23:00","2016","05","17","23:00","17.4","","5.8","","46","","21","","17","","14.5","","96.63","","","","","","NA"
"-111.22","56.65","FORT MCMURRAY A","3062697","2016-05-18 00:00","2016","05","18","00:00","16.0","","5.8","","50","","","","0","","9.7","","96.63","","","","","","Haze"
"-111.22","56.65","FORT MCMURRAY A","3062697","2016-05-18 01:00","2016","05","18","01:00","14.0","","5.2","","55","","21","","15","","4.8","","96.61","","","","","","Haze"
"-111.22","56.65","FORT MCMURRAY A","3062697","2016-05-18 02:00","2016","05","18","02:00","14.3","","4.0","","50","","23","","13","","1.6","","96.59","","","","","","Haze"
"-111.22","56.65","FORT MCMURRAY A","3062697","2016-05-18 03:00","2016","05","18","03:00","13.1","","3.5","","52","","22","","13","","1.6","","96.56","","","","","","Haze"
"-111.22","56.65","FORT MCMURRAY A","3062697","2016-05-18 04:00","2016","05","18","04:00","11.6","","3.7","","58","","17","","8","","1.6","","96.57","","","","","","Haze"
"-111.22","56.65","FORT MCMURRAY A","3062697","2016-05-18 05:00","2016","05","18","05:00","10.0","","3.5","","64","","20","","8","","1.6","","96.56","","","","","","Haze"
"-111.22","56.65","FORT MCMURRAY A","3062697","2016-05-18 06:00","2016","05","18","06:00","11.2","","3.9","","61","","18","","5","","2.0","","96.55","","","","","","Haze"
"-111.22","56.65","FORT MCMURRAY A","3062697","2016-05-18 07:00","2016","05","18","07:00","12.9","","4.2","","55","","21","","5","","2.0","","96.54","","","","","","Haze"
"-111.22","56.65","FORT MCMURRAY A","3062697","2016-05-18 08:00","2016","05","18","08:00","15.0","","4.1","","48","","22","","15","","2.8","","96.53","","","","","","Haze"
"-111.22","56.65","FORT MCMURRAY A","3062697","2016-05-18 09:00","2016","05","18","09:00","16.3","","4.8","","46","","24","","15","","4.0","","96.52","","","","","","Haze"
"-111.22","56.65","FORT MCMURRAY A","3062697","2016-05-18 10:00","2016","05","18","10:00","17.5","","5.3","","44","","24","","21","","4.8","","96.50","","","","","","Haze"
"-111.22","56.65","FORT MCMURRAY A","3062697","2016-05-18 11:00","2016","05","18","11:00","18.8","","5.8","","42","","26","","21","","9.7","","96.47","","","","","","Haze"
"-111.22","56.65","FORT MCMURRAY A","3062697","2016-05-18 12:00","2016","05","18","12:00","21.1","","4.5","","33","","24","","24","","9.7","","96.43","","","","","","Haze"
"-111.22","56.65","FORT MCMURRAY A","3062697","2016-05-18 13:00","2016","05","18","13:00","22.1","","5.2","","33","","26","","24","","4.8","","96.41","","","","","","Haze"
"-111.22","56.65","FORT MCMURRAY A","3062697","2016-05-18 14:00","2016","05","18","14:00","22.7","","4.0","","29","","25","","28","","4.0","","96.38","","","","","","Haze"
"-111.22","56.65","FORT MCMURRAY A","3062697","2016-05-18 15:00","2016","05","18","15:00","21.3","","3.2","","30","","25","","21","","4.8","","96.39","","","","","","Haze"
"-111.22","56.65","FORT MCMURRAY A","3062697","2016-05-18 16:00","2016","05","18","16:00","21.2","","2.3","","28","","28","","18","","4.8","","96.38","","","","","","Haze"
"-111.22","56.65","FORT MCMURRAY A","3062697","2016-05-18 17:00","2016","05","18","17:00","21.6","","3.0","","29","","25","","15","","3.2","","96.33","","","","","","Haze"
"-111.22","56.65","FORT MCMURRAY A","3062697","2016-05-18 18:00","2016","05","18","18:00","22.1","","0.8","","24","","28","","13","","4.8","","96.32","","","","","","Haze"
"-111.22","56.65","FORT MCMURRAY A","3062697","2016-05-18 19:00","2016","05","18","19:00","22.0","","1.4","","25","","27","","15","","9.7","","96.31","","","","","","Haze"
"-111.22","56.65","FORT MCMURRAY A","3062697","2016-05-18 20:00","2016","05","18","20:00","19.7","","2.7","","32","","25","","5","","6.4","","96.31","","","","","","Haze"
"-111.22","56.65","FORT MCMURRAY A","3062697","2016-05-18 21:00","2016","05","18","21:00","17.9","","4.6","","41","","22","","9","","4.8","","96.33","","","","","","Haze"
"-111.22","56.65","FORT MCMURRAY A","3062697","2016-05-18 22:00","2016","05","18","22:00","17.0","","4.6","","44","","10","","4","","4.8","","96.35","","","","","","Haze"
"-111.22","56.65","FORT MCMURRAY A","3062697","2016-05-18 23:00","2016","05","18","23:00","16.5","","7.4","","55","","4","","13","","8.1","","96.39","","","","","","Haze"
"-111.22","56.65","FORT MCMURRAY A","3062697","2016-05-19 00:00","2016","05","19","00:00","15.8","","7.9","","59","","2","","22","","4.8","","96.44","","","","","","Haze"
"-111.22","56.65","FORT MCMURRAY A","3062697","2016-05-19 01:00","2016","05","19","01:00","12.3","","8.8","","79","","32","","18","","8.1","","96.54","","","","","","Haze"
"-111.22","56.65","FORT MCMURRAY A","3062697","2016-05-19 02:00","2016","05","19","02:00","10.7","","8.0","","83","","33","","13","","8.1","","96.60","","","","","","Haze"
"-111.22","56.65","FORT MCMURRAY A","3062697","2016-05-19 03:00","2016","05","19","03:00","9.7","","7.0","","83","","34","","13","","6.4","","96.66","","","","","","Haze"
"-111.22","56.65","FORT MCMURRAY A","3062697","2016-05-19 04:00","2016","05","19","04:00","9.1","","6.2","","82","","34","","15","","4.8","","96.69","","","","","","Haze"
"-111.22","56.65","FORT MCMURRAY A","3062697","2016-05-19 05:00","2016","05","19","05:00","9.1","","6.0","","81","","35","","15","","4.8","","96.73","","","","","","Haze"
"-111.22","56.65","FORT MCMURRAY A","3062697","2016-05-19 06:00","2016","05","19","06:00","9.6","","5.9","","78","","33","","18","","6.4","","96.78","","","","","","Haze"
"-111.22","56.65","FORT MCMURRAY A","3062697","2016-05-19 07:00","2016","05","19","07:00","8.9","","4.9","","76","","35","","22","","12.9","","96.80","","","","","","NA"
"-111.22","56.65","FORT MCMURRAY A","3062697","2016-05-19 08:00","2016","05","19","08:00","8.3","","5.4","","82","","2","","15","","8.1","","96.78","","","","","","Rain"
"-111.22","56.65","FORT MCMURRAY A","3062697","2016-05-19 09:00","2016","05","19","09:00","8.1","","4.4","","77","","1","","28","","9.7","","96.80","","","","","","Haze"
"-111.22","56.65","FORT MCMURRAY A","3062697","2016-05-19 10:00","2016","05","19","10:00","8.0","","3.7","","74","","2","","24","","16.1","","96.85","","","","","","NA"
"-111.22","56.65","FORT MCMURRAY A","3062697","2016-05-19 11:00","2016","05","19","11:00","7.9","","3.6","","74","","1","","24","","16.1","","96.88","","","","","","NA"
"-111.22","56.65","FORT MCMURRAY A","3062697","2016-05-19 12:00","2016","05","19","12:00","7.7","","3.6","","75","","1","","22","","14.5","","96.91","","","","","","NA"
"-111.22","56.65","FORT MCMURRAY A","3062697","2016-05-19 13:00","2016","05","19","13:00","7.4","","3.7","","77","","1","","22","","12.9","","96.93","","","","","","NA"
"-111.22","56.65","FORT MCMURRAY A","3062697","2016-05-19 14:00","2016","05","19","14:00","7.0","","3.3","","77","","2","","30","","12.9","","97.03","","","","","","NA"
"-111.22","56.65","FORT MCMURRAY A","3062697","2016-05-19 15:00","2016","05","19","15:00","6.4","","3.2","","80","","35","","17","","16.1","","97.10","","","","","","NA"
"-111.22","56.65","FORT MCMURRAY A","3062697","2016-05-19 16:00","2016","05","19","16:00","5.9","","3.3","","83","","1","","24","","14.5","","97.09","","","","","","Rain"
"-111.22","56.65","FORT MCMURRAY A","3062697","2016-05-19 17:00","2016","05","19","17:00","6.3","","3.6","","83","","2","","26","","16.1","","97.10","","","","","","Rain"
"-111.22","56.65","FORT MCMURRAY A","3062697","2016-05-19 18:00","2016","05","19","18:00","7.0","","2.9","","75","","1","","32","","16.1","","97.12","","","","","","NA"
"-111.22","56.65","FORT MCMURRAY A","3062697","2016-05-19 19:00","2016","05","19","19:00","7.0","","2.3","","72","","1","","26","","16.1","","97.13","","","","","","NA"
"-111.22","56.65","FORT MCMURRAY A","3062697","2016-05-19 20:00","2016","05","19","20:00","7.2","","2.1","","70","","2","","24","","16.1","","97.17","","","","","","NA"
"-111.22","56.65","FORT MCMURRAY A","3062697","2016-05-19 21:00","2016","05","19","21:00","6.3","","1.6","","72","","1","","17","","16.1","","97.22","","","","","","NA"
"-111.22","56.65","FORT MCMURRAY A","3062697","2016-05-19 22:00","2016","05","19","22:00","5.6","","1.2","","73","","1","","21","","16.1","","97.30","","","","","","NA"
"-111.22","56.65","FORT MCMURRAY A","3062697","2016-05-19 23:00","2016","05","19","23:00","4.6","","0.6","","75","","35","","13","","14.5","","97.32","","","","","","NA"
"-111.22","56.65","FORT MCMURRAY A","3062697","2016-05-20 00:00","2016","05","20","00:00","4.1","","0.4","","77","","36","","13","","14.5","","97.33","","","","","","NA"
"-111.22","56.65","FORT MCMURRAY A","3062697","2016-05-20 01:00","2016","05","20","01:00","3.7","","0.5","","80","","1","","9","","11.3","","97.34","","","","","","NA"
"-111.22","56.65","FORT MCMURRAY A","3062697","2016-05-20 02:00","2016","05","20","02:00","3.3","","0.5","","82","","2","","15","","8.1","","97.36","","","","","","Fog"
"-111.22","56.65","FORT MCMURRAY A","3062697","2016-05-20 03:00","2016","05","20","03:00","3.9","","0.8","","80","","2","","11","","16.1","","97.37","","","","","","NA"
"-111.22","56.65","FORT MCMURRAY A","3062697","2016-05-20 04:00","2016","05","20","04:00","4.3","","0.8","","78","","1","","15","","14.5","","97.37","","","","","","NA"
"-111.22","56.65","FORT MCMURRAY A","3062697","2016-05-20 05:00","2016","05","20","05:00","4.4","","1.1","","79","","4","","13","","14.5","","97.41","","","","","","NA"
"-111.22","56.65","FORT MCMURRAY A","3062697","2016-05-20 06:00","2016","05","20","06:00","5.0","","1.3","","77","","7","","11","","16.1","","97.40","","","","","","NA"
"-111.22","56.65","FORT MCMURRAY A","3062697","2016-05-20 07:00","2016","05","20","07:00","5.3","","1.4","","76","","6","","15","","16.1","","97.40","","","","","","NA"
"-111.22","56.65","FORT MCMURRAY A","3062697","2016-05-20 08:00","2016","05","20","08:00","5.8","","1.5","","74","","7","","21","","16.1","","97.40","","","","","","NA"
"-111.22","56.65","FORT MCMURRAY A","3062697","2016-05-20 09:00","2016","05","20","09:00","6.5","","1.6","","71","","7","","24","","16.1","","97.40","","","","","","NA"
"-111.22","56.65","FORT MCMURRAY A","3062697","2016-05-20 10:00","2016","05","20","10:00","7.4","","2.2","","69","","10","","17","","12.9","","97.44","","","","","","NA"
"-111.22","56.65","FORT MCMURRAY A","3062697","2016-05-20 11:00","2016","05","20","11:00","9.5","","2.6","","62","","9","","17","","9.7","","97.40","","","","","","Haze"
"-111.22","56.65","FORT MCMURRAY A","3062697","2016-05-20 12:00","2016","05","20","12:00","11.7","","3.3","","56","","9","","11","","11.3","","97.36","","","","","","NA"
"-111.22","56.65","FORT MCMURRAY A","3062697","2016-05-20 13:00","2016","05","20","13:00","14.1","","3.8","","50","","12","","13","","16.1","","97.30","","","","","","NA"
"-111.22","56.65","FORT MCMURRAY A","3062697","2016-05-20 14:00","2016","05","20","14:00","15.0","","4.1","","48","","6","","15","","9.7","","97.23","","","","","","Haze"
"-111.22","56.65","FORT MCMURRAY A","3062697","2016-05-20 15:00","2016","05","20","15:00","16.3","","5.2","","47","","8","","9","","8.1","","97.19","","","","","","Rain"
"-111.22","56.65","FORT MCMURRAY A","3062697","2016-05-20 16:00","2016","05","20","16:00","17.7","","4.7","","42","","10","","17","","4.8","","97.18","","","","","","Haze"
"-111.22","56.65","FORT MCMURRAY A","3062697","2016-05-20 17:00","2016","05","20","17:00","17.2","","5.3","","45","","11","","13","","3.6","","97.19","","","","","","Haze"
"-111.22","56.65","FORT MCMURRAY A","3062697","2016-05-20 18:00","2016","05","20","18:00","17.6","","5.9","","46","","13","","13","","4.8","","97.23","","","","","","Haze"
"-111.22","56.65","FORT MCMURRAY A","3062697","2016-05-20 19:00","2016","05","20","19:00","17.5","","5.9","","46","","11","","8","","16.1","","97.20","","","","","","NA"
"-111.22","56.65","FORT MCMURRAY A","3062697","2016-05-20 20:00","2016","05","20","20:00","15.5","","5.6","","51","","32","","18","","11.3","","97.18","","","","","","NA"
"-111.22","56.65","FORT MCMURRAY A","3062697","2016-05-20 21:00","2016","05","20","21:00","13.3","","4.5","","55","","33","","17","","16.1","","97.15","","","","","","NA"
"-111.22","56.65","FORT MCMURRAY A","3062697","2016-05-20 22:00","2016","05","20","22:00","12.4","","4.4","","58","","30","","11","","16.1","","97.19","","","","","","NA"
"-111.22","56.65","FORT MCMURRAY A","3062697","2016-05-20 23:00","2016","05","20","23:00","11.3","","4.4","","62","","31","","11","","16.1","","97.16","","","","","","NA"
"-111.22","56.65","FORT MCMURRAY A","3062697","2016-05-21 00:00","2016","05","21","00:00","10.3","","4.2","","66","","29","","13","","9.7","","97.19","","","","","","Haze"
"-111.22","56.65","FORT MCMURRAY A","3062697","2016-05-21 01:00","2016","05","21","01:00","9.5","","3.9","","68","","32","","13","","9.7","","97.14","","","","","","Haze"
"-111.22","56.65","FORT MCMURRAY A","3062697","2016-05-21 02:00","2016","05","21","02:00","8.8","","3.9","","71","","31","","13","","16.1","","97.10","","","","","","NA"
"-111.22","56.65","FORT MCMURRAY A","3062697","2016-05-21 03:00","2016","05","21","03:00","8.2","","3.8","","74","","32","","13","","16.1","","97.05","","","","","","NA"
"-111.22","56.65","FORT MCMURRAY A","3062697","2016-05-21 04:00","2016","05","21","04:00","7.9","","3.6","","74","","32","","8","","16.1","","97.02","","","","","","NA"
"-111.22","56.65","FORT MCMURRAY A","3062697","2016-05-21 05:00","2016","05","21","05:00","6.8","","5.3","","90","","29","","5","","4.8","","97.02","","","","","","Moderate Rain,Fog"
"-111.22","56.65","FORT MCMURRAY A","3062697","2016-05-21 06:00","2016","05","21","06:00","6.3","","5.1","","92","","34","","8","","8.1","","96.95","","","","","","Fog"
"-111.22","56.65","FORT MCMURRAY A","3062697","2016-05-21 07:00","2016","05","21","07:00","7.3","","5.8","","90","","29","","9","","11.3","","96.93","","","","","","NA"
"-111.22","56.65","FORT MCMURRAY A","3062697","2016-05-21 08:00","2016","05","21","08:00","7.5","","6.1","","91","","28","","5","","11.3","","96.91","","","","","","NA"
"-111.22","56.65","FORT MCMURRAY A","3062697","2016-05-21 09:00","2016","05","21","09:00","8.3","","6.9","","91","","31","","9","","8.1","","96.85","","","","","","Fog"
"-111.22","56.65","FORT MCMURRAY A","3062697","2016-05-21 10:00","2016","05","21","10:00","7.8","","6.6","","92","","31","","15","","8.1","","96.81","","","","","","Fog"
"-111.22","56.65","FORT MCMURRAY A","3062697","2016-05-21 11:00","2016","05","21","11:00","9.6","","7.7","","88","","29","","9","","4.8","","96.77","","","","","","Fog"
"-111.22","56.65","FORT MCMURRAY A","3062697","2016-05-21 12:00","2016","05","21","12:00","11.8","","8.8","","82","","31","","17","","9.7","","96.67","","","","","","Haze"
"-111.22","56.65","FORT MCMURRAY A","3062697","2016-05-21 13:00","2016","05","21","13:00","13.4","","9.4","","77","","32","","15","","11.3","","96.63","","","","","","NA"
"-111.22","56.65","FORT MCMURRAY A","3062697","2016-05-21 14:00","2016","05","21","14:00","12.9","","8.7","","75","","29","","17","","16.1","","96.58","","","","","","NA"
"-111.22","56.65","FORT MCMURRAY A","3062697","2016-05-21 15:00","2016","05","21","15:00","12.5","","8.5","","76","","31","","15","","16.1","","96.54","","","","","","NA"
"-111.22","56.65","FORT MCMURRAY A","3062697","2016-05-21 16:00","2016","05","21","16:00","12.6","","8.4","","75","","32","","18","","16.1","","96.51","","","","","","NA"
"-111.22","56.65","FORT MCMURRAY A","3062697","2016-05-21 17:00","2016","05","21","17:00","11.5","","8.7","","83","","32","","17","","16.1","","96.49","","","","","","Rain"
"-111.22","56.65","FORT MCMURRAY A","3062697","2016-05-21 18:00","2016","05","21","18:00","10.4","","8.1","","86","","33","","21","","16.1","","96.49","","","","","","NA"
"-111.22","56.65","FORT MCMURRAY A","3062697","2016-05-21 19:00","2016","05","21","19:00","8.9","","7.2","","89","","33","","18","","16.1","","96.51","","","","","","Rain"
"-111.22","56.65","FORT MCMURRAY A","3062697","2016-05-21 20:00","2016","05","21","20:00","8.5","","7.0","","90","","32","","17","","16.1","","96.49","","","","","","NA"
"-111.22","56.65","FORT MCMURRAY A","3062697","2016-05-21 21:00","2016","05","21","21:00","8.4","","7.0","","91","","32","","13","","16.1","","96.47","","","","","","NA"
"-111.22","56.65","FORT MCMURRAY A","3062697","2016-05-21 22:00","2016","05","21","22:00","8.3","","6.8","","90","","33","","15","","16.1","","96.46","","","","","","NA"
"-111.22","56.65","FORT MCMURRAY A","3062697","2016-05-21 23:00","2016","05","21","23:00","8.1","","6.7","","91","","36","","13","","16.1","","96.43","","","","","","NA"
"-111.22","56.65","FORT MCMURRAY A","3062697","2016-05-22 00:00","2016","05","22","00:00","7.9","","6.7","","92","","32","","13","","16.1","","96.37","","","","","","NA"
"-111.22","56.65","FORT MCMURRAY A","3062697","2016-05-22 01:00","2016","05","22","01:00","7.9","","6.5","","91","","32","","9","","12.9","","96.42","","","","","","Rain"
"-111.22","56.65","FORT MCMURRAY A","3062697","2016-05-22 02:00","2016","05","22","02:00","7.3","","6.7","","96","","34","","13","","4.0","","96.35","","","","","","Rain,Fog"
"-111.22","56.65","FORT MCMURRAY A","3062697","2016-05-22 03:00","2016","05","22","03:00","7.2","","6.8","","97","","33","","13","","11.3","","96.35","","","","","","NA"
"-111.22","56.65","FORT MCMURRAY A","3062697","2016-05-22 04:00","2016","05","22","04:00","7.1","","6.6","","97","","34","","11","","16.1","","96.29","","","","","","NA"
"-111.22","56.65","FORT MCMURRAY A","3062697","2016-05-22 05:00","2016","05","22","05:00","7.1","","6.4","","95","","34","","13","","16.1","","96.22","","","","","","NA"
"-111.22","56.65","FORT MCMURRAY A","3062697","2016-05-22 06:00","2016","05","22","06:00","7.2","","6.2","","93","","35","","22","","16.1","","96.14","","","","","","NA"
"-111.22","56.65","FORT MCMURRAY A","3062697","2016-05-22 07:00","2016","05","22","07:00","7.5","","6.0","","90","","1","","18","","16.1","","96.14","","","","","","NA"
"-111.22","56.65","FORT MCMURRAY A","3062697","2016-05-22 08:00","2016","05","22","08:00","7.8","","6.0","","88","","1","","15","","16.1","","96.15","","","","","","NA"
"-111.22","56.65","FORT MCMURRAY A","3062697","2016-05-22 09:00","2016","05","22","09:00","7.8","","5.5","","85","","36","","24","","16.1","","96.11","","","","","","NA"
"-111.22","56.65","FORT MCMURRAY A","3062697","2016-05-22 10:00","2016","05","22","10:00","7.8","","5.4","","85","","3","","22","","16.1","","96.13","","","","","","NA"
"-111.22","56.65","FORT MCMURRAY A","3062697","2016-05-22 11:00","2016","05","22","11:00","7.8","","5.5","","85","","36","","21","","16.1","","96.12","","","","","","NA"
"-111.22","56.65","FORT MCMURRAY A","3062697","2016-05-22 12:00","2016","05","22","12:00","8.1","","5.2","","82","","1","","22","","16.1","","96.11","","","","","","NA"
"-111.22","56.65","FORT MCMURRAY A","3062697","2016-05-22 13:00","2016","05","22","13:00","8.2","","5.0","","80","","1","","21","","16.1","","96.08","","","","","","NA"
"-111.22","56.65","FORT MCMURRAY A","3062697","2016-05-22 14:00","2016","05","22","14:00","9.2","","5.3","","76","","35","","11","","16.1","","96.02","","","","","","NA"
"-111.22","56.65","FORT MCMURRAY A","3062697","2016-05-22 15:00","2016","05","22","15:00","10.0","","6.3","","78","","35","","17","","16.1","","95.96","","","","","","Rain"
"-111.22","56.65","FORT MCMURRAY A","3062697","2016-05-22 16:00","2016","05","22","16:00","11.3","","6.4","","72","","34","","17","","16.1","","95.91","","","","","","Rain"
"-111.22","56.65","FORT MCMURRAY A","3062697","2016-05-22 17:00","2016","05","22","17:00","12.5","","6.2","","65","","34","","11","","16.1","","95.88","","","","","","NA"
"-111.22","56.65","FORT MCMURRAY A","3062697","2016-05-22 18:00","2016","05","22","18:00","13.5","","5.6","","59","","36","","15","","16.1","","95.86","","","","","","NA"
"-111.22","56.65","FORT MCMURRAY A","3062697","2016-05-22 19:00","2016","05","22","19:00","14.0","","5.3","","56","","2","","13","","16.1","","95.86","","","","","","NA"
"-111.22","56.65","FORT MCMURRAY A","3062697","2016-05-22 20:00","2016","05","22","20:00","14.0","","3.8","","50","","2","","18","","16.1","","95.92","","","","","","NA"
"-111.22","56.65","FORT MCMURRAY A","3062697","2016-05-22 21:00","2016","05","22","21:00","13.1","","3.3","","51","","1","","17","","16.1","","95.93","","","","","","NA"
"-111.22","56.65","FORT MCMURRAY A","3062697","2016-05-22 22:00","2016","05","22","22:00","11.8","","2.3","","52","","2","","18","","16.1","","95.98","","","","","","NA"
"-111.22","56.65","FORT MCMURRAY A","3062697","2016-05-22 23:00","2016","05","22","23:00","10.7","","2.4","","56","","2","","18","","16.1","","95.99","","","","","","NA"
"-111.22","56.65","FORT MCMURRAY A","3062697","2016-05-23 00:00","2016","05","23","00:00","8.9","","2.4","","64","","34","","9","","16.1","","95.99","","","","","","NA"
"-111.22","56.65","FORT MCMURRAY A","3062697","2016-05-23 01:00","2016","05","23","01:00","7.7","","1.9","","67","","1","","9","","16.1","","96.04","","","","","","NA"
"-111.22","56.65","FORT MCMURRAY A","3062697","2016-05-23 02:00","2016","05","23","02:00","6.2","","1.4","","71","","2","","11","","16.1","","96.07","","","","","","NA"
"-111.22","56.65","FORT MCMURRAY A","3062697","2016-05-23 03:00","2016","05","23","03:00","6.0","","0.8","","69","","5","","8","","16.1","","96.09","","","","","","NA"
"-111.22","56.65","FORT MCMURRAY A","3062697","2016-05-23 04:00","2016","05","23","04:00","4.3","","1.0","","79","","1","","13","","16.1","","96.09","","","","","","NA"
"-111.22","56.65","FORT MCMURRAY A","3062697","2016-05-23 05:00","2016","05","23","05:00","3.3","","0.6","","83","","35","","9","","16.1","","96.14","","","","","","NA"
"-111.22","56.65","FORT MCMURRAY A","3062697","2016-05-23 06:00","2016","05","23","06:00","3.9","","1.3","","83","","2","","4","","16.1","","96.22","","","","","","NA"
"-111.22","56.65","FORT MCMURRAY A","3062697","2016-05-23 07:00","2016","05","23","07:00","4.4","","1.4","","81","","33","","13","","16.1","","96.27","","","","","","NA"
"-111.22","56.65","FORT MCMURRAY A","3062697","2016-05-23 08:00","2016","05","23","08:00","6.6","","2.1","","73","","30","","9","","16.1","","96.29","","","","","","NA"
"-111.22","56.65","FORT MCMURRAY A","3062697","2016-05-23 09:00","2016","05","23","09:00","8.9","","2.4","","64","","33","","8","","16.1","","96.31","","","","","","NA"
"-111.22","56.65","FORT MCMURRAY A","3062697","2016-05-23 10:00","2016","05","23","10:00","11.7","","2.1","","52","","31","","13","","16.1","","96.31","","","","","","NA"
"-111.22","56.65","FORT MCMURRAY A","3062697","2016-05-23 11:00","2016","05","23","11:00","15.0","","-3.1","","29","","6","","22","","16.1","","96.31","","","","","","NA"
"-111.22","56.65","FORT MCMURRAY A","3062697","2016-05-23 12:00","2016","05","23","12:00","16.9","","-4.5","","23","","4","","28","","16.1","","96.29","","","","","","NA"
"-111.22","56.65","FORT MCMURRAY A","3062697","2016-05-23 13:00","2016","05","23","13:00","18.4","","-4.7","","20","","5","","22","","16.1","","96.29","","","","","","NA"
"-111.22","56.65","FORT MCMURRAY A","3062697","2016-05-23 14:00","2016","05","23","14:00","18.1","","-3.4","","23","","7","","17","","9.7","","96.30","","","","","","Haze"
"-111.22","56.65","FORT MCMURRAY A","3062697","2016-05-23 15:00","2016","05","23","15:00","18.5","","-3.0","","23","","6","","17","","6.4","","96.33","","","","","","Haze"
"-111.22","56.65","FORT MCMURRAY A","3062697","2016-05-23 16:00","2016","05","23","16:00","18.9","","-2.2","","24","","6","","11","","3.2","","96.35","","","","","","Haze"
"-111.22","56.65","FORT MCMURRAY A","3062697","2016-05-23 17:00","2016","05","23","17:00","19.1","","-1.9","","24","","8","","13","","3.6","","96.36","","","","","","Haze"
"-111.22","56.65","FORT MCMURRAY A","3062697","2016-05-23 18:00","2016","05","23","18:00","19.3","","-2.0","","23","","7","","17","","3.2","","96.38","","","","","","Haze"
"-111.22","56.65","FORT MCMURRAY A","3062697","2016-05-23 19:00","2016","05","23","19:00","19.0","","-1.3","","25","","7","","11","","4.0","","96.42","","","","","","Haze"
"-111.22","56.65","FORT MCMURRAY A","3062697","2016-05-23 20:00","2016","05","23","20:00","17.5","","-0.7","","29","","13","","15","","16.1","","96.47","","","","","","NA"
"-111.22","56.65","FORT MCMURRAY A","3062697","2016-05-23 21:00","2016","05","23","21:00","15.3","","-0.7","","33","","13","","13","","16.1","","96.53","","","","","","NA"
"-111.22","56.65","FORT MCMURRAY A","3062697","2016-05-23 22:00","2016","05","23","22:00","13.4","","-0.2","","39","","13","","13","","16.1","","96.59","","","","","","NA"
"-111.22","56.65","FORT MCMURRAY A","3062697","2016-05-23 23:00","2016","05","23","23:00","11.1","","-0.3","","45","","14","","15","","16.1","","96.64","","","","","","NA"
"-111.22","56.65","FORT MCMURRAY A","3062697","2016-05-24 00:00","2016","05","24","00:00","11.2","","2.3","","54","","16","","17","","16.1","","96.71","","","","","","NA"
"-111.22","56.65","FORT MCMURRAY A","3062697","2016-05-24 01:00","2016","05","24","01:00","9.7","","2.6","","61","","17","","8","","16.1","","96.75","","","","","","NA"
"-111.22","56.65","FORT MCMURRAY A","3062697","2016-05-24 02:00","2016","05","24","02:00","8.6","","2.2","","64","","10","","5","","16.1","","96.78","","","","","","NA"
"-111.22","56.65","FORT MCMURRAY A","3062697","2016-05-24 03:00","2016","05","24","03:00","5.9","","0.7","","69","","9","","8","","16.1","","96.79","","","","","","NA"
"-111.22","56.65","FORT MCMURRAY A","3062697","2016-05-24 04:00","2016","05","24","04:00","2.2","","-0.2","","84","","","M","4","","8.1","","96.82","","","","","","Fog"
"-111.22","56.65","FORT MCMURRAY A","3062697","2016-05-24 05:00","2016","05","24","05:00","2.5","","-0.6","","80","","11","","5","","16.1","","96.83","","","","","","NA"
"-111.22","56.65","FORT MCMURRAY A","3062697","2016-05-24 06:00","2016","05","24","06:00","5.5","","0.8","","72","","11","","5","","9.7","","96.84","","","","","","Haze"
"-111.22","56.65","FORT MCMURRAY A","3062697","2016-05-24 07:00","2016","05","24","07:00","8.7","","1.9","","62","","11","","11","","8.1","","96.85","","","","","","Haze"
"-111.22","56.65","FORT MCMURRAY A","3062697","2016-05-24 08:00","2016","05","24","08:00","11.5","","2.9","","55","","11","","9","","12.9","","96.84","","","","","","NA"
"-111.22","56.65","FORT MCMURRAY A","3062697","2016-05-24 09:00","2016","05","24","09:00","14.0","","2.7","","46","","12","","13","","16.1","","96.83","","","","","","NA"
"-111.22","56.65","FORT MCMURRAY A","3062697","2016-05-24 10:00","2016","05","24","10:00","16.7","","0.2","","32","","16","","21","","16.1","","96.80","","","","","","NA"
"-111.22","56.65","FORT MCMURRAY A","3062697","2016-05-24 11:00","2016","05","24","11:00","18.2","","-0.7","","28","","13","","30","","16.1","","96.76","","","","","","NA"
"-111.22","56.65","FORT MCMURRAY A","3062697","2016-05-24 12:00","2016","05","24","12:00","19.3","","-0.6","","26","","12","","32","","16.1","","96.71","","","","","","NA"
"-111.22","56.65","FORT MCMURRAY A","3062697","2016-05-24 13:00","2016","05","24","13:00","19.5","","-0.9","","25","","14","","21","","16.1","","96.67","","","","","","NA"
"-111.22","56.65","FORT MCMURRAY A","3062697","2016-05-24 14:00","2016","05","24","14:00","20.7","","2.0","","29","","17","","17","","16.1","","96.61","","","","","","NA"
"-111.22","56.65","FORT MCMURRAY A","3062697","2016-05-24 15:00","2016","05","24","15:00","21.1","","0.5","","25","","20","","22","","16.1","","96.56","","","","","","NA"
"-111.22","56.65","FORT MCMURRAY A","3062697","2016-05-24 16:00","2016","05","24","16:00","21.5","","3.8","","31","","14","","22","","16.1","","96.51","","","","","","NA"
"-111.22","56.65","FORT MCMURRAY A","3062697","2016-05-24 17:00","2016","05","24","17:00","22.0","","5.0","","33","","16","","24","","16.1","","96.45","","","","","","NA"
"-111.22","56.65","FORT MCMURRAY A","3062697","2016-05-24 18:00","2016","05","24","18:00","21.0","","4.7","","34","","16","","18","","16.1","","96.45","","","","","","NA"
"-111.22","56.65","FORT MCMURRAY A","3062697","2016-05-24 19:00","2016","05","24","19:00","21.5","","5.4","","35","","19","","21","","16.1","","96.43","","","","","","NA"
"-111.22","56.65","FORT MCMURRAY A","3062697","2016-05-24 20:00","2016","05","24","20:00","19.4","","5.6","","40","","19","","24","","16.1","","96.45","","","","","","NA"
"-111.22","56.65","FORT MCMURRAY A","3062697","2016-05-24 21:00","2016","05","24","21:00","17.3","","5.9","","47","","20","","17","","16.1","","96.48","","","","","","NA"
"-111.22","56.65","FORT MCMURRAY A","3062697","2016-05-24 22:00","2016","05","24","22:00","14.7","","5.9","","55","","20","","15","","16.1","","96.55","","","","","","NA"
"-111.22","56.65","FORT MCMURRAY A","3062697","2016-05-24 23:00","2016","05","24","23:00","12.2","","5.9","","65","","17","","13","","16.1","","96.58","","","","","","NA"
"-111.22","56.65","FORT MCMURRAY A","3062697","2016-05-25 00:00","2016","05","25","00:00","10.9","","5.7","","70","","16","","15","","16.1","","96.56","","","","","","NA"
"-111.22","56.65","FORT MCMURRAY A","3062697","2016-05-25 01:00","2016","05","25","01:00","9.9","","5.9","","76","","15","","15","","16.1","","96.56","","","","","","NA"
"-111.22","56.65","FORT MCMURRAY A","3062697","2016-05-25 02:00","2016","05","25","02:00","9.1","","6.3","","82","","17","","17","","16.1","","96.57","","","","","","NA"
"-111.22","56.65","FORT MCMURRAY A","3062697","2016-05-25 03:00","2016","05","25","03:00","8.5","","6.0","","84","","16","","13","","16.1","","96.57","","","","","","NA"
"-111.22","56.65","FORT MCMURRAY A","3062697","2016-05-25 04:00","2016","05","25","04:00","9.2","","6.1","","81","","8","","4","","16.1","","96.61","","","","","","NA"
"-111.22","56.65","FORT MCMURRAY A","3062697","2016-05-25 05:00","2016","05","25","05:00","5.7","","4.1","","90","","11","","5","","12.9","","96.61","","","","","","NA"
"-111.22","56.65","FORT MCMURRAY A","3062697","2016-05-25 06:00","2016","05","25","06:00","5.4","","4.0","","91","","12","","5","","6.4","","96.63","","","","","","Fog"
"-111.22","56.65","FORT MCMURRAY A","3062697","2016-05-25 07:00","2016","05","25","07:00","9.1","","6.5","","83","","","","0","","4.8","","96.63","","","","","","Haze"
"-111.22","56.65","FORT MCMURRAY A","3062697","2016-05-25 08:00","2016","05","25","08:00","11.2","","6.9","","75","","","M","4","","4.0","","96.65","","","","","","Haze"
"-111.22","56.65","FORT MCMURRAY A","3062697","2016-05-25 09:00","2016","05","25","09:00","13.5","","7.6","","67","","","","0","","8.1","","96.66","","","","","","Haze"
"-111.22","56.65","FORT MCMURRAY A","3062697","2016-05-25 10:00","2016","05","25","10:00","16.3","","8.2","","58","","2","","5","","12.9","","96.65","","","","","","NA"
"-111.22","56.65","FORT MCMURRAY A","3062697","2016-05-25 11:00","2016","05","25","11:00","18.1","","8.0","","51","","","","0","","9.7","","96.65","","","","","","Haze"
"-111.22","56.65","FORT MCMURRAY A","3062697","2016-05-25 12:00","2016","05","25","12:00","20.9","","6.5","","39","","28","","5","","11.3","","96.64","","","","","","NA"
"-111.22","56.65","FORT MCMURRAY A","3062697","2016-05-25 13:00","2016","05","25","13:00","22.5","","5.7","","33","","","M","4","","12.9","","96.61","","","","","","NA"
"-111.22","56.65","FORT MCMURRAY A","3062697","2016-05-25 14:00","2016","05","25","14:00","23.2","","3.1","","26","","11","","9","","14.5","","96.59","","","","","","NA"
"-111.22","56.65","FORT MCMURRAY A","3062697","2016-05-25 15:00","2016","05","25","15:00","23.7","","5.4","","30","","","M","5","","12.9","","96.58","","","","","","NA"
"-111.22","56.65","FORT MCMURRAY A","3062697","2016-05-25 16:00","2016","05","25","16:00","22.7","","6.0","","33","","1","","9","","6.4","","96.58","","","","","","Haze"
"-111.22","56.65","FORT MCMURRAY A","3062697","2016-05-25 17:00","2016","05","25","17:00","23.3","","5.3","","31","","32","","5","","6.4","","96.58","","","","","","Haze"
"-111.22","56.65","FORT MCMURRAY A","3062697","2016-05-25 18:00","2016","05","25","18:00","22.2","","7.8","","39","","6","","22","","8.1","","96.62","","","","","","Thunderstorms,Haze"
"-111.22","56.65","FORT MCMURRAY A","3062697","2016-05-25 19:00","2016","05","25","19:00","15.6","","11.3","","75","","6","","30","","8.1","","96.70","","","","","","Moderate Rain"
"-111.22","56.65","FORT MCMURRAY A","3062697","2016-05-25 20:00","2016","05","25","20:00","17.2","","11.3","","68","","12","","11","","8.1","","96.69","","","","","","Haze"
"-111.22","56.65","FORT MCMURRAY A","3062697","2016-05-25 21:00","2016","05","25","21:00","16.8","","10.5","","66","","2","","8","","8.1","","96.70","","","","","","Haze"
"-111.22","56.65","FORT MCMURRAY A","3062697","2016-05-25 22:00","2016","05","25","22:00","16.6","","9.1","","61","","2","","8","","2.0","","96.74","","","","","","Haze"
"-111.22","56.65","FORT MCMURRAY A","3062697","2016-05-25 23:00","2016","05","25","23:00","15.0","","8.9","","67","","34","","11","","4.0","","96.79","","","","","","Haze"
"-111.22","56.65","FORT MCMURRAY A","3062697","2016-05-26 00:00","2016","05","26","00:00","14.7","","7.8","","63","","2","","11","","3.2","","96.79","","","","","","Haze"
"-111.22","56.65","FORT MCMURRAY A","3062697","2016-05-26 01:00","2016","05","26","01:00","13.2","","7.8","","70","","36","","11","","3.2","","96.78","","","","","","Haze"
"-111.22","56.65","FORT MCMURRAY A","3062697","2016-05-26 02:00","2016","05","26","02:00","12.4","","7.9","","74","","33","","11","","3.2","","96.80","","","","","","Haze"
"-111.22","56.65","FORT MCMURRAY A","3062697","2016-05-26 03:00","2016","05","26","03:00","11.1","","7.3","","77","","32","","11","","4.0","","96.82","","","","","","Haze"
"-111.22","56.65","FORT MCMURRAY A","3062697","2016-05-26 04:00","2016","05","26","04:00","10.2","","6.0","","75","","32","","18","","9.7","","96.85","","","","","","Haze"
"-111.22","56.65","FORT MCMURRAY A","3062697","2016-05-26 05:00","2016","05","26","05:00","8.8","","4.6","","75","","33","","15","","16.1","","96.90","","","","","","NA"
"-111.22","56.65","FORT MCMURRAY A","3062697","2016-05-26 06:00","2016","05","26","06:00","8.2","","4.2","","76","","34","","15","","16.1","","96.92","","","","","","NA"
"-111.22","56.65","FORT MCMURRAY A","3062697","2016-05-26 07:00","2016","05","26","07:00","8.7","","4.5","","75","","34","","11","","16.1","","96.91","","","","","","NA"
"-111.22","56.65","FORT MCMURRAY A","3062697","2016-05-26 08:00","2016","05","26","08:00","9.6","","5.3","","74","","3","","4","","8.1","","96.88","","","","","","Haze"
"-111.22","56.65","FORT MCMURRAY A","3062697","2016-05-26 09:00","2016","05","26","09:00","10.8","","6.7","","76","","4","","9","","8.1","","96.86","","","","","","Haze"
"-111.22","56.65","FORT MCMURRAY A","3062697","2016-05-26 10:00","2016","05","26","10:00","11.9","","7.3","","73","","","M","4","","8.1","","96.85","","","","","","Haze"
"-111.22","56.65","FORT MCMURRAY A","3062697","2016-05-26 11:00","2016","05","26","11:00","12.8","","7.4","","70","","5","","5","","6.4","","96.84","","","","","","Haze"
"-111.22","56.65","FORT MCMURRAY A","3062697","2016-05-26 12:00","2016","05","26","12:00","15.5","","7.9","","60","","30","","13","","8.1","","96.85","","","","","","Haze"
"-111.22","56.65","FORT MCMURRAY A","3062697","2016-05-26 13:00","2016","05","26","13:00","15.7","","8.3","","61","","31","","13","","16.1","","96.85","","","","","","NA"
"-111.22","56.65","FORT MCMURRAY A","3062697","2016-05-26 14:00","2016","05","26","14:00","17.0","","8.3","","56","","32","","24","","14.5","","96.82","","","","","","NA"
"-111.22","56.65","FORT MCMURRAY A","3062697","2016-05-26 15:00","2016","05","26","15:00","16.7","","8.3","","57","","36","","18","","16.1","","96.81","","","","","","NA"
"-111.22","56.65","FORT MCMURRAY A","3062697","2016-05-26 16:00","2016","05","26","16:00","17.9","","8.6","","54","","32","","15","","14.5","","96.79","","","","","","NA"
"-111.22","56.65","FORT MCMURRAY A","3062697","2016-05-26 17:00","2016","05","26","17:00","15.0","","9.0","","67","","32","","15","","16.1","","96.81","","","","","","Rain"
"-111.22","56.65","FORT MCMURRAY A","3062697","2016-05-26 18:00","2016","05","26","18:00","13.9","","8.6","","70","","32","","17","","16.1","","96.84","","","","","","NA"
"-111.22","56.65","FORT MCMURRAY A","3062697","2016-05-26 19:00","2016","05","26","19:00","13.3","","8.7","","73","","32","","11","","16.1","","96.82","","","","","","Rain"
"-111.22","56.65","FORT MCMURRAY A","3062697","2016-05-26 20:00","2016","05","26","20:00","13.7","","8.9","","72","","32","","11","","16.1","","96.81","","","","","","NA"
"-111.22","56.65","FORT MCMURRAY A","3062697","2016-05-26 21:00","2016","05","26","21:00","13.1","","8.8","","75","","33","","11","","16.1","","96.80","","","","","","NA"
"-111.22","56.65","FORT MCMURRAY A","3062697","2016-05-26 22:00","2016","05","26","22:00","12.0","","8.5","","79","","34","","11","","16.1","","96.84","","","","","","NA"
"-111.22","56.65","FORT MCMURRAY A","3062697","2016-05-26 23:00","2016","05","26","23:00","10.9","","8.2","","83","","32","","13","","16.1","","96.81","","","","","","NA"
"-111.22","56.65","FORT MCMURRAY A","3062697","2016-05-27 00:00","2016","05","27","00:00","10.0","","7.6","","85","","32","","9","","16.1","","96.80","","","","","","NA"
"-111.22","56.65","FORT MCMURRAY A","3062697","2016-05-27 01:00","2016","05","27","01:00","9.4","","7.2","","86","","33","","9","","16.1","","96.81","","","","","","NA"
"-111.22","56.65","FORT MCMURRAY A","3062697","2016-05-27 02:00","2016","05","27","02:00","9.1","","7.2","","88","","33","","9","","16.1","","96.77","","","","","","NA"
"-111.22","56.65","FORT MCMURRAY A","3062697","2016-05-27 03:00","2016","05","27","03:00","8.8","","7.3","","90","","33","","8","","11.3","","96.76","","","","","","NA"
"-111.22","56.65","FORT MCMURRAY A","3062697","2016-05-27 04:00","2016","05","27","04:00","8.9","","8.0","","94","","","M","4","","9.7","","96.74","","","","","","Rain,Fog"
"-111.22","56.65","FORT MCMURRAY A","3062697","2016-05-27 05:00","2016","05","27","05:00","11.9","","9.8","","87","","10","","21","","14.5","","96.71","","","","","","NA"
"-111.22","56.65","FORT MCMURRAY A","3062697","2016-05-27 06:00","2016","05","27","06:00","11.5","","8.3","","81","","10","","22","","16.1","","96.71","","","","","","NA"
"-111.22","56.65","FORT MCMURRAY A","3062697","2016-05-27 07:00","2016","05","27","07:00","11.5","","7.7","","77","","11","","22","","16.1","","96.73","","","","","","NA"
"-111.22","56.65","FORT MCMURRAY A","3062697","2016-05-27 08:00","2016","05","27","08:00","11.4","","7.5","","77","","11","","18","","16.1","","96.77","","","","","","NA"
"-111.22","56.65","FORT MCMURRAY A","3062697","2016-05-27 09:00","2016","05","27","09:00","11.5","","8.0","","79","","12","","17","","16.1","","96.77","","","","","","Rain"
"-111.22","56.65","FORT MCMURRAY A","3062697","2016-05-27 10:00","2016","05","27","10:00","12.7","","8.5","","75","","10","","17","","16.1","","96.74","","","","","","NA"
"-111.22","56.65","FORT MCMURRAY A","3062697","2016-05-27 11:00","2016","05","27","11:00","12.8","","10.0","","83","","9","","13","","16.1","","96.76","","","","","","Rain"
"-111.22","56.65","FORT MCMURRAY A","3062697","2016-05-27 12:00","2016","05","27","12:00","16.1","","10.3","","68","","10","","22","","16.1","","96.72","","","","","","NA"
"-111.22","56.65","FORT MCMURRAY A","3062697","2016-05-27 13:00","2016","05","27","13:00","19.3","","10.8","","57","","9","","24","","16.1","","96.68","","","","","","NA"
"-111.22","56.65","FORT MCMURRAY A","3062697","2016-05-27 14:00","2016","05","27","14:00","20.9","","10.4","","51","","11","","28","","16.1","","96.59","","","","","","NA"
"-111.22","56.65","FORT MCMURRAY A","3062697","2016-05-27 15:00","2016","05","27","15:00","19.4","","10.5","","56","","10","","30","","16.1","","96.56","","","","","","NA"
"-111.22","56.65","FORT MCMURRAY A","3062697","2016-05-27 16:00","2016","05","27","16:00","18.0","","10.8","","63","","9","","15","","16.1","","96.64","","","","","","NA"
"-111.22","56.65","FORT MCMURRAY A","3062697","2016-05-27 17:00","2016","05","27","17:00","15.8","","10.3","","69","","24","","46","","9.7","","96.74","","","","","","Moderate Rain"
"-111.22","56.65","FORT MCMURRAY A","3062697","2016-05-27 18:00","2016","05","27","18:00","12.3","","10.6","","89","","13","","9","","8.1","","96.85","","","","","","Rain,Fog"
"-111.22","56.65","FORT MCMURRAY A","3062697","2016-05-27 19:00","2016","05","27","19:00","11.9","","11.1","","95","","8","","11","","4.8","","96.83","","","","","","Moderate Rain,Fog"
"-111.22","56.65","FORT MCMURRAY A","3062697","2016-05-27 20:00","2016","05","27","20:00","12.1","","11.2","","94","","6","","9","","16.1","","96.67","","","","","","Rain"
"-111.22","56.65","FORT MCMURRAY A","3062697","2016-05-27 21:00","2016","05","27","21:00","12.1","","11.2","","94","","12","","9","","16.1","","96.70","","","","","","NA"
"-111.22","56.65","FORT MCMURRAY A","3062697","2016-05-27 22:00","2016","05","27","22:00","11.9","","11.1","","95","","14","","18","","16.1","","96.80","","","","","","NA"
"-111.22","56.65","FORT MCMURRAY A","3062697","2016-05-27 23:00","2016","05","27","23:00","12.2","","11.0","","92","","11","","13","","16.1","","96.76","","","","","","Rain"
"-111.22","56.65","FORT MCMURRAY A","3062697","2016-05-28 00:00","2016","05","28","00:00","12.0","","11.1","","94","","10","","15","","16.1","","96.71","","","","","","NA"
"-111.22","56.65","FORT MCMURRAY A","3062697","2016-05-28 01:00","2016","05","28","01:00","11.6","","10.7","","94","","13","","13","","16.1","","96.77","","","","","","NA"
"-111.22","56.65","FORT MCMURRAY A","3062697","2016-05-28 02:00","2016","05","28","02:00","11.1","","10.3","","95","","10","","15","","16.1","","96.72","","","","","","NA"
"-111.22","56.65","FORT MCMURRAY A","3062697","2016-05-28 03:00","2016","05","28","03:00","11.0","","9.3","","89","","11","","18","","16.1","","96.68","","","","","","NA"
"-111.22","56.65","FORT MCMURRAY A","3062697","2016-05-28 04:00","2016","05","28","04:00","10.7","","8.5","","86","","11","","24","","16.1","","96.63","","","","","","NA"
"-111.22","56.65","FORT MCMURRAY A","3062697","2016-05-28 05:00","2016","05","28","05:00","10.4","","8.4","","87","","11","","26","","16.1","","96.65","","","","","","NA"
"-111.22","56.65","FORT MCMURRAY A","3062697","2016-05-28 06:00","2016","05","28","06:00","10.5","","8.4","","87","","11","","21","","16.1","","96.68","","","","","","NA"
"-111.22","56.65","FORT MCMURRAY A","3062697","2016-05-28 07:00","2016","05","28","07:00","10.8","","8.6","","86","","12","","17","","16.1","","96.70","","","","","","NA"
"-111.22","56.65","FORT MCMURRAY A","3062697","2016-05-28 08:00","2016","05","28","08:00","11.7","","9.0","","84","","11","","21","","16.1","","96.71","","","","","","NA"
"-111.22","56.65","FORT MCMURRAY A","3062697","2016-05-28 09:00","2016","05","28","09:00","13.4","","10.1","","80","","14","","18","","16.1","","96.70","","","","","","NA"
"-111.22","56.65","FORT MCMURRAY A","3062697","2016-05-28 10:00","2016","05","28","10:00","14.5","","11.2","","81","","14","","21","","16.1","","96.71","","","","","","NA"
"-111.22","56.65","FORT MCMURRAY A","3062697","2016-05-28 11:00","2016","05","28","11:00","16.0","","11.5","","74","","11","","15","","16.1","","96.69","","","","","","NA"
"-111.22","56.65","FORT MCMURRAY A","3062697","2016-05-28 12:00","2016","05","28","12:00","16.7","","11.9","","73","","13","","21","","16.1","","96.66","","","","","","NA"
"-111.22","56.65","FORT MCMURRAY A","3062697","2016-05-28 13:00","2016","05","28","13:00","17.6","","12.1","","70","","16","","24","","16.1","","96.65","","","","","","NA"
"-111.22","56.65","FORT MCMURRAY A","3062697","2016-05-28 14:00","2016","05","28","14:00","16.7","","11.6","","72","","18","","28","","16.1","","96.65","","","","","","Rain"
"-111.22","56.65","FORT MCMURRAY A","3062697","2016-05-28 15:00","2016","05","28","15:00","16.5","","11.3","","71","","18","","15","","16.1","","96.69","","","","","","NA"
"-111.22","56.65","FORT MCMURRAY A","3062697","2016-05-28 16:00","2016","05","28","16:00","17.6","","11.2","","66","","16","","18","","16.1","","96.69","","","","","","NA"
"-111.22","56.65","FORT MCMURRAY A","3062697","2016-05-28 17:00","2016","05","28","17:00","18.1","","10.3","","60","","15","","24","","16.1","","96.68","","","","","","NA"
"-111.22","56.65","FORT MCMURRAY A","3062697","2016-05-28 18:00","2016","05","28","18:00","17.3","","10.6","","64","","17","","18","","16.1","","96.67","","","","","","NA"
"-111.22","56.65","FORT MCMURRAY A","3062697","2016-05-28 19:00","2016","05","28","19:00","16.8","","10.2","","65","","19","","15","","16.1","","96.66","","","","","","NA"
"-111.22","56.65","FORT MCMURRAY A","3062697","2016-05-28 20:00","2016","05","28","20:00","16.8","","10.0","","64","","22","","15","","16.1","","96.67","","","","","","NA"
"-111.22","56.65","FORT MCMURRAY A","3062697","2016-05-28 21:00","2016","05","28","21:00","15.9","","9.5","","66","","22","","11","","16.1","","96.71","","","","","","NA"
"-111.22","56.65","FORT MCMURRAY A","3062697","2016-05-28 22:00","2016","05","28","22:00","14.5","","9.4","","71","","20","","8","","16.1","","96.72","","","","","","NA"
"-111.22","56.65","FORT MCMURRAY A","3062697","2016-05-28 23:00","2016","05","28","23:00","13.3","","9.9","","80","","16","","9","","16.1","","96.74","","","","","","NA"
"-111.22","56.65","FORT MCMURRAY A","3062697","2016-05-29 00:00","2016","05","29","00:00","13.0","","10.1","","82","","10","","5","","16.1","","96.76","","","","","","NA"
"-111.22","56.65","FORT MCMURRAY A","3062697","2016-05-29 01:00","2016","05","29","01:00","12.7","","9.7","","82","","","","0","","16.1","","96.76","","","","","","Rain"
"-111.22","56.65","FORT MCMURRAY A","3062697","2016-05-29 02:00","2016","05","29","02:00","12.0","","10.8","","92","","12","","9","","16.1","","96.79","","","","","","Rain"
"-111.22","56.65","FORT MCMURRAY A","3062697","2016-05-29 03:00","2016","05","29","03:00","11.1","","10.5","","96","","19","","5","","12.9","","96.79","","","","","","NA"
"-111.22","56.65","FORT MCMURRAY A","3062697","2016-05-29 04:00","2016","05","29","04:00","10.5","","9.4","","93","","27","","18","","14.5","","96.81","","","","","","Rain"
"-111.22","56.65","FORT MCMURRAY A","3062697","2016-05-29 05:00","2016","05","29","05:00","10.0","","9.1","","94","","24","","9","","16.1","","96.82","","","","","","NA"
"-111.22","56.65","FORT MCMURRAY A","3062697","2016-05-29 06:00","2016","05","29","06:00","9.6","","9.0","","96","","24","","4","","16.1","","96.84","","","","","","NA"
"-111.22","56.65","FORT MCMURRAY A","3062697","2016-05-29 07:00","2016","05","29","07:00","9.8","","9.2","","96","","21","","5","","11.3","","96.84","","","","","","NA"
"-111.22","56.65","FORT MCMURRAY A","3062697","2016-05-29 08:00","2016","05","29","08:00","10.4","","9.6","","95","","23","","8","","16.1","","96.87","","","","","","Rain"
"-111.22","56.65","FORT MCMURRAY A","3062697","2016-05-29 09:00","2016","05","29","09:00","10.7","","9.6","","93","","24","","9","","16.1","","96.89","","","","","","Rain"
"-111.22","56.65","FORT MCMURRAY A","3062697","2016-05-29 10:00","2016","05","29","10:00","10.8","","9.5","","91","","25","","11","","14.5","","96.92","","","","","","Rain"
"-111.22","56.65","FORT MCMURRAY A","3062697","2016-05-29 11:00","2016","05","29","11:00","10.9","","9.8","","93","","23","","9","","16.1","","96.94","","","","","","Rain"
"-111.22","56.65","FORT MCMURRAY A","3062697","2016-05-29 12:00","2016","05","29","12:00","11.5","","9.8","","89","","28","","9","","16.1","","96.93","","","","","","NA"
"-111.22","56.65","FORT MCMURRAY A","3062697","2016-05-29 13:00","2016","05","29","13:00","12.5","","10.1","","85","","30","","5","","16.1","","96.94","","","","","","NA"
"-111.22","56.65","FORT MCMURRAY A","3062697","2016-05-29 14:00","2016","05","29","14:00","13.2","","9.8","","80","","26","","9","","16.1","","96.95","","","","","","NA"
"-111.22","56.65","FORT MCMURRAY A","3062697","2016-05-29 15:00","2016","05","29","15:00","14.4","","10.8","","79","","31","","9","","16.1","","96.93","","","","","","Rain"
"-111.22","56.65","FORT MCMURRAY A","3062697","2016-05-29 16:00","2016","05","29","16:00","15.0","","10.1","","72","","7","","15","","16.1","","96.94","","","","","","NA"
"-111.22","56.65","FORT MCMURRAY A","3062697","2016-05-29 17:00","2016","05","29","17:00","14.5","","9.6","","72","","5","","8","","16.1","","96.94","","","","","","NA"
"-111.22","56.65","FORT MCMURRAY A","3062697","2016-05-29 18:00","2016","05","29","18:00","15.7","","9.5","","66","","36","","11","","16.1","","96.95","","","","","","NA"
"-111.22","56.65","FORT MCMURRAY A","3062697","2016-05-29 19:00","2016","05","29","19:00","16.0","","10.3","","68","","35","","8","","16.1","","96.95","","","","","","NA"
"-111.22","56.65","FORT MCMURRAY A","3062697","2016-05-29 20:00","2016","05","29","20:00","15.4","","9.7","","69","","3","","11","","16.1","","96.97","","","","","","NA"
"-111.22","56.65","FORT MCMURRAY A","3062697","2016-05-29 21:00","2016","05","29","21:00","14.8","","9.3","","69","","2","","13","","16.1","","96.97","","","","","","NA"
"-111.22","56.65","FORT MCMURRAY A","3062697","2016-05-29 22:00","2016","05","29","22:00","14.2","","8.9","","70","","5","","8","","16.1","","97.03","","","","","","NA"
"-111.22","56.65","FORT MCMURRAY A","3062697","2016-05-29 23:00","2016","05","29","23:00","13.4","","9.6","","78","","1","","8","","16.1","","97.06","","","","","","NA"
"-111.22","56.65","FORT MCMURRAY A","3062697","2016-05-30 00:00","2016","05","30","00:00","12.6","","9.3","","80","","34","","5","","16.1","","97.07","","","","","","NA"
"-111.22","56.65","FORT MCMURRAY A","3062697","2016-05-30 01:00","2016","05","30","01:00","12.0","","9.6","","85","","35","","9","","16.1","","97.09","","","","","","NA"
"-111.22","56.65","FORT MCMURRAY A","3062697","2016-05-30 02:00","2016","05","30","02:00","11.9","","9.7","","86","","35","","11","","16.1","","97.12","","","","","","NA"
"-111.22","56.65","FORT MCMURRAY A","3062697","2016-05-30 03:00","2016","05","30","03:00","11.7","","9.8","","88","","33","","9","","16.1","","97.16","","","","","","NA"
"-111.22","56.65","FORT MCMURRAY A","3062697","2016-05-30 04:00","2016","05","30","04:00","11.4","","10.3","","93","","32","","11","","16.1","","97.19","","","","","","NA"
"-111.22","56.65","FORT MCMURRAY A","3062697","2016-05-30 05:00","2016","05","30","05:00","11.2","","10.3","","94","","32","","11","","16.1","","97.23","","","","","","NA"
"-111.22","56.65","FORT MCMURRAY A","3062697","2016-05-30 06:00","2016","05","30","06:00","11.2","","10.1","","93","","31","","11","","16.1","","97.28","","","","","","NA"
"-111.22","56.65","FORT MCMURRAY A","3062697","2016-05-30 07:00","2016","05","30","07:00","11.4","","9.6","","89","","32","","9","","16.1","","97.30","","","","","","NA"
"-111.22","56.65","FORT MCMURRAY A","3062697","2016-05-30 08:00","2016","05","30","08:00","11.7","","9.3","","85","","32","","13","","16.1","","97.33","","","","","","NA"
"-111.22","56.65","FORT MCMURRAY A","3062697","2016-05-30 09:00","2016","05","30","09:00","12.2","","9.3","","82","","32","","11","","16.1","","97.37","","","","","","NA"
"-111.22","56.65","FORT MCMURRAY A","3062697","2016-05-30 10:00","2016","05","30","10:00","12.1","","9.7","","85","","33","","15","","16.1","","97.41","","","","","","NA"
"-111.22","56.65","FORT MCMURRAY A","3062697","2016-05-30 11:00","2016","05","30","11:00","11.5","","9.8","","89","","32","","17","","14.5","","97.47","","","","","","Rain"
"-111.22","56.65","FORT MCMURRAY A","3062697","2016-05-30 12:00","2016","05","30","12:00","13.5","","10.2","","80","","31","","15","","16.1","","97.49","","","","","","NA"
"-111.22","56.65","FORT MCMURRAY A","3062697","2016-05-30 13:00","2016","05","30","13:00","14.5","","10.0","","74","","30","","18","","16.1","","97.50","","","","","","NA"
"-111.22","56.65","FORT MCMURRAY A","3062697","2016-05-30 14:00","2016","05","30","14:00","15.5","","9.3","","66","","1","","21","","16.1","","97.53","","","","","","NA"
"-111.22","56.65","FORT MCMURRAY A","3062697","2016-05-30 15:00","2016","05","30","15:00","16.3","","9.6","","64","","34","","21","","16.1","","97.56","","","","","","NA"
"-111.22","56.65","FORT MCMURRAY A","3062697","2016-05-30 16:00","2016","05","30","16:00","15.8","","9.9","","68","","35","","17","","16.1","","97.56","","","","","","NA"
"-111.22","56.65","FORT MCMURRAY A","3062697","2016-05-30 17:00","2016","05","30","17:00","15.0","","9.0","","67","","33","","21","","16.1","","97.59","","","","","","NA"
"-111.22","56.65","FORT MCMURRAY A","3062697","2016-05-30 18:00","2016","05","30","18:00","14.4","","9.9","","74","","31","","18","","16.1","","97.63","","","","","","Rain"
"-111.22","56.65","FORT MCMURRAY A","3062697","2016-05-30 19:00","2016","05","30","19:00","15.1","","8.4","","64","","32","","21","","16.1","","97.67","","","","","","NA"
"-111.22","56.65","FORT MCMURRAY A","3062697","2016-05-30 20:00","2016","05","30","20:00","14.4","","9.5","","72","","34","","11","","16.1","","97.69","","","","","","NA"
"-111.22","56.65","FORT MCMURRAY A","3062697","2016-05-30 21:00","2016","05","30","21:00","14.2","","9.2","","72","","35","","15","","16.1","","97.72","","","","","","NA"
"-111.22","56.65","FORT MCMURRAY A","3062697","2016-05-30 22:00","2016","05","30","22:00","13.6","","8.6","","72","","33","","9","","16.1","","97.76","","","","","","NA"
"-111.22","56.65","FORT MCMURRAY A","3062697","2016-05-30 23:00","2016","05","30","23:00","12.3","","8.0","","75","","34","","11","","16.1","","97.79","","","","","","NA"
"-111.22","56.65","FORT MCMURRAY A","3062697","2016-05-31 00:00","2016","05","31","00:00","11.1","","7.8","","80","","32","","11","","16.1","","97.80","","","","","","NA"
"-111.22","56.65","FORT MCMURRAY A","3062697","2016-05-31 01:00","2016","05","31","01:00","10.1","","7.5","","84","","33","","11","","16.1","","97.80","","","","","","NA"
"-111.22","56.65","FORT MCMURRAY A","3062697","2016-05-31 02:00","2016","05","31","02:00","9.4","","7.7","","89","","31","","11","","16.1","","97.81","","","","","","NA"
"-111.22","56.65","FORT MCMURRAY A","3062697","2016-05-31 03:00","2016","05","31","03:00","9.8","","7.9","","88","","32","","9","","16.1","","97.83","","","","","","NA"
"-111.22","56.65","FORT MCMURRAY A","3062697","2016-05-31 04:00","2016","05","31","04:00","8.8","","7.5","","91","","29","","5","","11.3","","97.84","","","","","","NA"
"-111.22","56.65","FORT MCMURRAY A","3062697","2016-05-31 05:00","2016","05","31","05:00","7.1","","6.5","","96","","24","","8","","1.6","","97.84","","","","","","Fog"
"-111.22","56.65","FORT MCMURRAY A","3062697","2016-05-31 06:00","2016","05","31","06:00","8.3","","7.6","","95","","","","0","","4.8","","97.86","","","","","","Fog"
"-111.22","56.65","FORT MCMURRAY A","3062697","2016-05-31 07:00","2016","05","31","07:00","9.4","","8.3","","93","","22","","4","","14.5","","97.85","","","","","","NA"
"-111.22","56.65","FORT MCMURRAY A","3062697","2016-05-31 08:00","2016","05","31","08:00","10.7","","8.2","","84","","33","","8","","16.1","","97.84","","","","","","NA"
"-111.22","56.65","FORT MCMURRAY A","3062697","2016-05-31 09:00","2016","05","31","09:00","12.6","","8.3","","75","","32","","9","","16.1","","97.81","","","","","","NA"
"-111.22","56.65","FORT MCMURRAY A","3062697","2016-05-31 10:00","2016","05","31","10:00","13.8","","8.5","","70","","33","","13","","16.1","","97.79","","","","","","NA"
"-111.22","56.65","FORT MCMURRAY A","3062697","2016-05-31 11:00","2016","05","31","11:00","14.1","","7.7","","65","","4","","8","","16.1","","97.75","","","","","","NA"
"-111.22","56.65","FORT MCMURRAY A","3062697","2016-05-31 12:00","2016","05","31","12:00","15.4","","5.6","","52","","","M","4","","16.1","","97.69","","","","","","NA"
"-111.22","56.65","FORT MCMURRAY A","3062697","2016-05-31 13:00","2016","05","31","13:00","17.0","","5.1","","45","","35","","11","","16.1","","97.65","","","","","","NA"
"-111.22","56.65","FORT MCMURRAY A","3062697","2016-05-31 14:00","2016","05","31","14:00","17.8","","2.2","","35","","32","","9","","16.1","","97.58","","","","","","NA"
"-111.22","56.65","FORT MCMURRAY A","3062697","2016-05-31 15:00","2016","05","31","15:00","18.7","","4.3","","38","","","M","13","","16.1","","97.51","","","","","","NA"
"-111.22","56.65","FORT MCMURRAY A","3062697","2016-05-31 16:00","2016","05","31","16:00","18.3","","1.2","","32","","","M","4","","16.1","","97.44","","","","","","NA"
"-111.22","56.65","FORT MCMURRAY A","3062697","2016-05-31 17:00","2016","05","31","17:00","19.4","","2.6","","32","","30","","8","","16.1","","97.39","","","","","","NA"
"-111.22","56.65","FORT MCMURRAY A","3062697","2016-05-31 18:00","2016","05","31","18:00","18.9","","1.9","","32","","18","","5","","16.1","","97.31","","","","","","NA"
"-111.22","56.65","FORT MCMURRAY A","3062697","2016-05-31 19:00","2016","05","31","19:00","19.6","","1.8","","30","","","","0","","16.1","","97.24","","","","","","NA"
"-111.22","56.65","FORT MCMURRAY A","3062697","2016-05-31 20:00","2016","05","31","20:00","19.2","","1.0","","29","","8","","5","","16.1","","97.20","","","","","","NA"
"-111.22","56.65","FORT MCMURRAY A","3062697","2016-05-31 21:00","2016","05","31","21:00","18.4","","1.5","","32","","18","","8","","16.1","","97.15","","","","","","NA"
"-111.22","56.65","FORT MCMURRAY A","3062697","2016-05-31 22:00","2016","05","31","22:00","15.3","","2.6","","42","","15","","11","","16.1","","97.12","","","","","","NA"
"-111.22","56.65","FORT MCMURRAY A","3062697","2016-05-31 23:00","2016","05","31","23:00","12.4","","2.9","","52","","15","","15","","16.1","","97.09","","","","","","NA"
