"Longitude (x)","Latitude (y)","Station Name","Climate ID","Date/Time","Year","Month","Day","Time","Temp (°C)","Temp Flag","Dew Point Temp (°C)","Dew Point Temp Flag","Rel Hum (%)","Rel Hum Flag","Wind Dir (10s deg)","Wind Dir Flag","Wind Spd (km/h)","Wind Spd Flag","Visibility (km)","Visibility Flag","Stn Press (kPa)","Stn Press Flag","Hmdx","Hmdx Flag","Wind Chill","Wind Chill Flag","Weather"
"-111.21","56.65","FORT MCMURRAY CS","3062696","2016-06-01 00:00","2016","06","01","00:00","10.1","","2.7","","60","","16","","14","","","","96.93","","","","","","NA"
"-111.21","56.65","FORT MCMURRAY CS","3062696","2016-06-01 01:00","2016","06","01","01:00","9.8","","3.3","","64","","10","","5","","","","96.90","","","","","","NA"
"-111.21","56.65","FORT MCMURRAY CS","3062696","2016-06-01 02:00","2016","06","01","02:00","8.5","","3.9","","73","","10","","6","","","","96.85","","","","","","NA"
"-111.21","56.65","FORT MCMURRAY CS","3062696","2016-06-01 03:00","2016","06","01","03:00","6.9","","3.7","","80","","10","","7","","","","96.79","","","","","","NA"
"-111.21","56.65","FORT MCMURRAY CS","3062696","2016-06-01 04:00","2016","06","01","04:00","7.1","","3.6","","79","","11","","8","","","","96.75","","","","","","NA"
"-111.21","56.65","FORT MCMURRAY CS","3062696","2016-06-01 05:00","2016","06","01","05:00","8.1","","3.8","","74","","10","","10","","","","96.74","","","","","","NA"
"-111.21","56.65","FORT MCMURRAY CS","3062696","2016-06-01 06:00","2016","06","01","06:00","9.3","","4.1","","70","","10","","7","","","","96.72","","","","","","NA"
"-111.21","56.65","FORT MCMURRAY CS","3062696","2016-06-01 07:00","2016","06","01","07:00","11.2","","5.3","","67","","10","","9","","","","96.67","","","","","","NA"
"-111.21","56.65","FORT MCMURRAY CS","3062696","2016-06-01 08:00","2016","06","01","08:00","13.2","","6.2","","62","","4","","7","","","","96.63","","","","","","NA"
"-111.21","56.65","FORT MCMURRAY CS","3062696","2016-06-01 09:00","2016","06","01","09:00","14.3","","7.2","","62","","9","","9","","","","96.59","","","","","","NA"
"-111.21","56.65","FORT MCMURRAY CS","3062696","2016-06-01 10:00","2016","06","01","10:00","16.9","","7.3","","53","","10","","4","","","","96.57","","","","","","NA"
"-111.21","56.65","FORT MCMURRAY CS","3062696","2016-06-01 11:00","2016","06","01","11:00","18.0","","6.4","","47","","24","","9","","","","96.51","","","","","","NA"
"-111.21","56.65","FORT MCMURRAY CS","3062696","2016-06-01 12:00","2016","06","01","12:00","18.5","","6.2","","45","","14","","4","","","","96.46","","","","","","NA"
"-111.21","56.65","FORT MCMURRAY CS","3062696","2016-06-01 13:00","2016","06","01","13:00","19.2","","5.9","","42","","34","","5","","","","96.39","","","","","","NA"
"-111.21","56.65","FORT MCMURRAY CS","3062696","2016-06-01 14:00","2016","06","01","14:00","14.1","","10.0","","76","","21","","25","","","","96.50","","","","","","NA"
"-111.21","56.65","FORT MCMURRAY CS","3062696","2016-06-01 15:00","2016","06","01","15:00","13.4","","10.1","","80","","23","","7","","","","96.45","","","","","","NA"
"-111.21","56.65","FORT MCMURRAY CS","3062696","2016-06-01 16:00","2016","06","01","16:00","14.2","","10.2","","77","","5","","8","","","","96.37","","","","","","NA"
"-111.21","56.65","FORT MCMURRAY CS","3062696","2016-06-01 17:00","2016","06","01","17:00","15.6","","10.7","","72","","11","","6","","","","96.34","","","","","","NA"
"-111.21","56.65","FORT MCMURRAY CS","3062696","2016-06-01 18:00","2016","06","01","18:00","17.0","","9.0","","59","","16","","8","","","","96.31","","","","","","NA"
"-111.21","56.65","FORT MCMURRAY CS","3062696","2016-06-01 19:00","2016","06","01","19:00","17.0","","9.0","","59","","13","","13","","","","96.28","","","","","","NA"
"-111.21","56.65","FORT MCMURRAY CS","3062696","2016-06-01 20:00","2016","06","01","20:00","14.9","","8.9","","67","","12","","10","","","","96.30","","","","","","NA"
"-111.21","56.65","FORT MCMURRAY CS","3062696","2016-06-01 21:00","2016","06","01","21:00","13.3","","9.2","","76","","13","","10","","","","96.28","","","","","","NA"
"-111.21","56.65","FORT MCMURRAY CS","3062696","2016-06-01 22:00","2016","06","01","22:00","12.2","","8.7","","79","","12","","9","","","","96.26","","","","","","NA"
"-111.21","56.65","FORT MCMURRAY CS","3062696","2016-06-01 23:00","2016","06","01","23:00","11.6","","9.2","","85","","12","","11","","","","96.23","","","","","","NA"
"-111.21","56.65","FORT MCMURRAY CS","3062696","2016-06-02 00:00","2016","06","02","00:00","9.6","","8.2","","91","","16","","10","","","","96.24","","","","","","NA"
"-111.21","56.65","FORT MCMURRAY CS","3062696","2016-06-02 01:00","2016","06","02","01:00","9.5","","8.8","","95","","10","","3","","","","96.22","","","","","","NA"
"-111.21","56.65","FORT MCMURRAY CS","3062696","2016-06-02 02:00","2016","06","02","02:00","6.1","","5.2","","94","","15","","3","","","","96.21","","","","","","NA"
"-111.21","56.65","FORT MCMURRAY CS","3062696","2016-06-02 03:00","2016","06","02","03:00","5.5","","5.1","","98","","14","","2","","","","96.21","","","","","","NA"
"-111.21","56.65","FORT MCMURRAY CS","3062696","2016-06-02 04:00","2016","06","02","04:00","5.2","","4.9","","98","","15","","6","","","","96.22","","","","","","NA"
"-111.21","56.65","FORT MCMURRAY CS","3062696","2016-06-02 05:00","2016","06","02","05:00","5.8","","5.5","","98","","14","","5","","","","96.21","","","","","","NA"
"-111.21","56.65","FORT MCMURRAY CS","3062696","2016-06-02 06:00","2016","06","02","06:00","7.7","","6.6","","93","","13","","9","","","","96.21","","","","","","NA"
"-111.21","56.65","FORT MCMURRAY CS","3062696","2016-06-02 07:00","2016","06","02","07:00","9.9","","7.4","","85","","9","","7","","","","96.21","","","","","","NA"
"-111.21","56.65","FORT MCMURRAY CS","3062696","2016-06-02 08:00","2016","06","02","08:00","11.5","","8.8","","83","","7","","9","","","","96.20","","","","","","NA"
"-111.21","56.65","FORT MCMURRAY CS","3062696","2016-06-02 09:00","2016","06","02","09:00","13.4","","7.8","","69","","7","","6","","","","96.18","","","","","","NA"
"-111.21","56.65","FORT MCMURRAY CS","3062696","2016-06-02 10:00","2016","06","02","10:00","14.7","","6.9","","60","","6","","6","","","","96.14","","","","","","NA"
"-111.21","56.65","FORT MCMURRAY CS","3062696","2016-06-02 11:00","2016","06","02","11:00","19.9","","10.3","","54","","4","","7","","","","96.10","","","","","","NA"
"-111.21","56.65","FORT MCMURRAY CS","3062696","2016-06-02 12:00","2016","06","02","12:00","21.6","","6.9","","39","","10","","10","","","","96.06","","","","","","NA"
"-111.21","56.65","FORT MCMURRAY CS","3062696","2016-06-02 13:00","2016","06","02","13:00","21.8","","6.7","","38","","11","","9","","","","96.01","","","","","","NA"
"-111.21","56.65","FORT MCMURRAY CS","3062696","2016-06-02 14:00","2016","06","02","14:00","23.5","","6.3","","33","","12","","10","","","","95.96","","","","","","NA"
"-111.21","56.65","FORT MCMURRAY CS","3062696","2016-06-02 15:00","2016","06","02","15:00","22.0","","5.8","","35","","9","","5","","","","95.95","","","","","","NA"
"-111.21","56.65","FORT MCMURRAY CS","3062696","2016-06-02 16:00","2016","06","02","16:00","14.3","","11.0","","81","","27","","26","","","","96.19","","","","","","NA"
"-111.21","56.65","FORT MCMURRAY CS","3062696","2016-06-02 17:00","2016","06","02","17:00","13.5","","11.8","","89","","13","","2","","","","96.23","","","","","","NA"
"-111.21","56.65","FORT MCMURRAY CS","3062696","2016-06-02 18:00","2016","06","02","18:00","13.6","","11.8","","89","","34","","6","","","","96.14","","","","","","NA"
"-111.21","56.65","FORT MCMURRAY CS","3062696","2016-06-02 19:00","2016","06","02","19:00","14.5","","11.1","","80","","1","","8","","","","96.09","","","","","","NA"
"-111.21","56.65","FORT MCMURRAY CS","3062696","2016-06-02 20:00","2016","06","02","20:00","13.8","","11.9","","89","","16","","6","","","","96.15","","","","","","NA"
"-111.21","56.65","FORT MCMURRAY CS","3062696","2016-06-02 21:00","2016","06","02","21:00","13.0","","11.8","","93","","18","","9","","","","96.22","","","","","","NA"
"-111.21","56.65","FORT MCMURRAY CS","3062696","2016-06-02 22:00","2016","06","02","22:00","12.9","","11.7","","93","","21","","3","","","","96.24","","","","","","NA"
"-111.21","56.65","FORT MCMURRAY CS","3062696","2016-06-02 23:00","2016","06","02","23:00","12.5","","11.4","","93","","13","","6","","","","96.23","","","","","","NA"
"-111.21","56.65","FORT MCMURRAY CS","3062696","2016-06-03 00:00","2016","06","03","00:00","11.6","","10.7","","95","","17","","6","","","","96.26","","","","","","NA"
"-111.21","56.65","FORT MCMURRAY CS","3062696","2016-06-03 01:00","2016","06","03","01:00","10.3","","9.4","","94","","23","","6","","","","96.32","","","","","","NA"
"-111.21","56.65","FORT MCMURRAY CS","3062696","2016-06-03 02:00","2016","06","03","02:00","10.8","","10.1","","95","","20","","8","","","","96.37","","","","","","NA"
"-111.21","56.65","FORT MCMURRAY CS","3062696","2016-06-03 03:00","2016","06","03","03:00","11.2","","10.4","","95","","23","","10","","","","96.39","","","","","","NA"
"-111.21","56.65","FORT MCMURRAY CS","3062696","2016-06-03 04:00","2016","06","03","04:00","11.0","","10.0","","94","","23","","7","","","","96.40","","","","","","NA"
"-111.21","56.65","FORT MCMURRAY CS","3062696","2016-06-03 05:00","2016","06","03","05:00","11.7","","10.3","","91","","23","","12","","","","96.45","","","","","","NA"
"-111.21","56.65","FORT MCMURRAY CS","3062696","2016-06-03 06:00","2016","06","03","06:00","12.2","","10.4","","89","","23","","12","","","","96.50","","","","","","NA"
"-111.21","56.65","FORT MCMURRAY CS","3062696","2016-06-03 07:00","2016","06","03","07:00","13.1","","10.9","","87","","24","","16","","","","96.54","","","","","","NA"
"-111.21","56.65","FORT MCMURRAY CS","3062696","2016-06-03 08:00","2016","06","03","08:00","14.3","","11.1","","81","","25","","18","","","","96.56","","","","","","NA"
"-111.21","56.65","FORT MCMURRAY CS","3062696","2016-06-03 09:00","2016","06","03","09:00","15.7","","11.4","","76","","25","","15","","","","96.58","","","","","","NA"
"-111.21","56.65","FORT MCMURRAY CS","3062696","2016-06-03 10:00","2016","06","03","10:00","17.3","","11.5","","69","","25","","20","","","","96.62","","","","","","NA"
"-111.21","56.65","FORT MCMURRAY CS","3062696","2016-06-03 11:00","2016","06","03","11:00","19.6","","9.6","","52","","25","","25","","","","96.62","","","","","","NA"
"-111.21","56.65","FORT MCMURRAY CS","3062696","2016-06-03 12:00","2016","06","03","12:00","21.3","","9.5","","47","","27","","18","","","","96.59","","","","","","NA"
"-111.21","56.65","FORT MCMURRAY CS","3062696","2016-06-03 13:00","2016","06","03","13:00","22.2","","6.7","","37","","24","","22","","","","96.59","","","","","","NA"
"-111.21","56.65","FORT MCMURRAY CS","3062696","2016-06-03 14:00","2016","06","03","14:00","22.8","","6.5","","35","","26","","26","","","","96.61","","","","","","NA"
"-111.21","56.65","FORT MCMURRAY CS","3062696","2016-06-03 15:00","2016","06","03","15:00","23.4","","6.0","","33","","26","","24","","","","96.61","","","","","","NA"
"-111.21","56.65","FORT MCMURRAY CS","3062696","2016-06-03 16:00","2016","06","03","16:00","23.2","","4.4","","30","","27","","27","","","","96.63","","","","","","NA"
"-111.21","56.65","FORT MCMURRAY CS","3062696","2016-06-03 17:00","2016","06","03","17:00","21.1","","6.2","","38","","36","","19","","","","96.68","","","","","","NA"
"-111.21","56.65","FORT MCMURRAY CS","3062696","2016-06-03 18:00","2016","06","03","18:00","22.5","","5.9","","34","","30","","5","","","","96.69","","","","","","NA"
"-111.21","56.65","FORT MCMURRAY CS","3062696","2016-06-03 19:00","2016","06","03","19:00","21.2","","7.2","","41","","36","","8","","","","96.71","","","","","","NA"
"-111.21","56.65","FORT MCMURRAY CS","3062696","2016-06-03 20:00","2016","06","03","20:00","21.4","","4.8","","34","","28","","14","","","","96.73","","","","","","NA"
"-111.21","56.65","FORT MCMURRAY CS","3062696","2016-06-03 21:00","2016","06","03","21:00","19.4","","3.5","","35","","25","","15","","","","96.78","","","","","","NA"
"-111.21","56.65","FORT MCMURRAY CS","3062696","2016-06-03 22:00","2016","06","03","22:00","16.0","","8.0","","59","","13","","5","","","","96.83","","","","","","NA"
"-111.21","56.65","FORT MCMURRAY CS","3062696","2016-06-03 23:00","2016","06","03","23:00","12.7","","7.4","","70","","18","","12","","","","96.84","","","","","","NA"
"-111.21","56.65","FORT MCMURRAY CS","3062696","2016-06-04 00:00","2016","06","04","00:00","11.2","","4.5","","64","","22","","15","","","","96.82","","","","","","NA"
"-111.21","56.65","FORT MCMURRAY CS","3062696","2016-06-04 01:00","2016","06","04","01:00","13.6","","4.5","","54","","23","","16","","","","96.82","","","","","","NA"
"-111.21","56.65","FORT MCMURRAY CS","3062696","2016-06-04 02:00","2016","06","04","02:00","13.2","","4.7","","57","","23","","16","","","","96.84","","","","","","NA"
"-111.21","56.65","FORT MCMURRAY CS","3062696","2016-06-04 03:00","2016","06","04","03:00","12.7","","5.1","","59","","24","","18","","","","96.87","","","","","","NA"
"-111.21","56.65","FORT MCMURRAY CS","3062696","2016-06-04 04:00","2016","06","04","04:00","12.9","","5.3","","60","","24","","19","","","","96.88","","","","","","NA"
"-111.21","56.65","FORT MCMURRAY CS","3062696","2016-06-04 05:00","2016","06","04","05:00","13.8","","4.6","","54","","25","","21","","","","96.92","","","","","","NA"
"-111.21","56.65","FORT MCMURRAY CS","3062696","2016-06-04 06:00","2016","06","04","06:00","15.6","","4.9","","49","","26","","23","","","","96.95","","","","","","NA"
"-111.21","56.65","FORT MCMURRAY CS","3062696","2016-06-04 07:00","2016","06","04","07:00","17.1","","4.8","","44","","28","","27","","","","96.95","","","","","","NA"
"-111.21","56.65","FORT MCMURRAY CS","3062696","2016-06-04 08:00","2016","06","04","08:00","18.5","","4.9","","41","","29","","26","","","","96.98","","","","","","NA"
"-111.21","56.65","FORT MCMURRAY CS","3062696","2016-06-04 09:00","2016","06","04","09:00","19.6","","5.5","","40","","30","","21","","","","96.99","","","","","","NA"
"-111.21","56.65","FORT MCMURRAY CS","3062696","2016-06-04 10:00","2016","06","04","10:00","21.4","","4.7","","34","","29","","22","","","","96.99","","","","","","NA"
"-111.21","56.65","FORT MCMURRAY CS","3062696","2016-06-04 11:00","2016","06","04","11:00","22.4","","3.4","","29","","32","","23","","","","96.98","","","","","","NA"
"-111.21","56.65","FORT MCMURRAY CS","3062696","2016-06-04 12:00","2016","06","04","12:00","23.0","","2.2","","25","","31","","25","","","","96.94","","","","","","NA"
"-111.21","56.65","FORT MCMURRAY CS","3062696","2016-06-04 13:00","2016","06","04","13:00","22.5","","2.9","","28","","33","","17","","","","96.97","","","","","","NA"
"-111.21","56.65","FORT MCMURRAY CS","3062696","2016-06-04 14:00","2016","06","04","14:00","21.3","","2.4","","29","","34","","19","","","","96.98","","","","","","NA"
"-111.21","56.65","FORT MCMURRAY CS","3062696","2016-06-04 15:00","2016","06","04","15:00","20.7","","3.8","","33","","1","","20","","","","97.00","","","","","","NA"
"-111.21","56.65","FORT MCMURRAY CS","3062696","2016-06-04 16:00","2016","06","04","16:00","23.1","","4.1","","29","","33","","13","","","","96.96","","","","","","NA"
"-111.21","56.65","FORT MCMURRAY CS","3062696","2016-06-04 17:00","2016","06","04","17:00","22.4","","2.0","","26","","31","","18","","","","96.96","","","","","","NA"
"-111.21","56.65","FORT MCMURRAY CS","3062696","2016-06-04 18:00","2016","06","04","18:00","20.8","","3.9","","33","","32","","13","","","","97.02","","","","","","NA"
"-111.21","56.65","FORT MCMURRAY CS","3062696","2016-06-04 19:00","2016","06","04","19:00","21.7","","1.7","","27","","32","","21","","","","97.05","","","","","","NA"
"-111.21","56.65","FORT MCMURRAY CS","3062696","2016-06-04 20:00","2016","06","04","20:00","21.0","","0.4","","25","","32","","17","","","","97.06","","","","","","NA"
"-111.21","56.65","FORT MCMURRAY CS","3062696","2016-06-04 21:00","2016","06","04","21:00","19.2","","0.6","","29","","31","","15","","","","97.11","","","","","","NA"
"-111.21","56.65","FORT MCMURRAY CS","3062696","2016-06-04 22:00","2016","06","04","22:00","16.5","","1.1","","35","","29","","10","","","","97.15","","","","","","NA"
"-111.21","56.65","FORT MCMURRAY CS","3062696","2016-06-04 23:00","2016","06","04","23:00","16.1","","1.2","","36","","33","","7","","","","97.19","","","","","","NA"
"-111.21","56.65","FORT MCMURRAY CS","3062696","2016-06-05 00:00","2016","06","05","00:00","10.3","","2.8","","60","","27","","9","","","","97.19","","","","","","NA"
"-111.21","56.65","FORT MCMURRAY CS","3062696","2016-06-05 01:00","2016","06","05","01:00","10.5","","1.8","","55","","24","","10","","","","97.19","","","","","","NA"
"-111.21","56.65","FORT MCMURRAY CS","3062696","2016-06-05 02:00","2016","06","05","02:00","7.3","","1.5","","67","","26","","7","","","","97.24","","","","","","NA"
"-111.21","56.65","FORT MCMURRAY CS","3062696","2016-06-05 03:00","2016","06","05","03:00","7.5","","2.2","","69","","25","","5","","","","97.26","","","","","","NA"
"-111.21","56.65","FORT MCMURRAY CS","3062696","2016-06-05 04:00","2016","06","05","04:00","6.0","","1.9","","75","","22","","11","","","","97.26","","","","","","NA"
"-111.21","56.65","FORT MCMURRAY CS","3062696","2016-06-05 05:00","2016","06","05","05:00","8.6","","2.7","","67","","22","","9","","","","97.31","","","","","","NA"
"-111.21","56.65","FORT MCMURRAY CS","3062696","2016-06-05 06:00","2016","06","05","06:00","11.3","","3.0","","56","","25","","6","","","","97.35","","","","","","NA"
"-111.21","56.65","FORT MCMURRAY CS","3062696","2016-06-05 07:00","2016","06","05","07:00","14.5","","3.2","","47","","29","","6","","","","97.37","","","","","","NA"
"-111.21","56.65","FORT MCMURRAY CS","3062696","2016-06-05 08:00","2016","06","05","08:00","17.5","","4.7","","43","","30","","8","","","","97.36","","","","","","NA"
"-111.21","56.65","FORT MCMURRAY CS","3062696","2016-06-05 09:00","2016","06","05","09:00","19.6","","4.7","","37","","32","","16","","","","97.34","","","","","","NA"
"-111.21","56.65","FORT MCMURRAY CS","3062696","2016-06-05 10:00","2016","06","05","10:00","20.4","","3.7","","33","","33","","16","","","","97.32","","","","","","NA"
"-111.21","56.65","FORT MCMURRAY CS","3062696","2016-06-05 11:00","2016","06","05","11:00","21.6","","3.4","","30","","30","","23","","","","97.31","","","","","","NA"
"-111.21","56.65","FORT MCMURRAY CS","3062696","2016-06-05 12:00","2016","06","05","12:00","22.6","","2.8","","27","","31","","18","","","","97.30","","","","","","NA"
"-111.21","56.65","FORT MCMURRAY CS","3062696","2016-06-05 13:00","2016","06","05","13:00","23.3","","4.2","","29","","32","","20","","","","97.30","","","","","","NA"
"-111.21","56.65","FORT MCMURRAY CS","3062696","2016-06-05 14:00","2016","06","05","14:00","24.2","","3.0","","25","","31","","19","","","","97.25","","","","","","NA"
"-111.21","56.65","FORT MCMURRAY CS","3062696","2016-06-05 15:00","2016","06","05","15:00","23.8","","3.1","","26","","35","","15","","","","97.24","","","","","","NA"
"-111.21","56.65","FORT MCMURRAY CS","3062696","2016-06-05 16:00","2016","06","05","16:00","24.3","","1.9","","23","","29","","19","","","","97.21","","","","","","NA"
"-111.21","56.65","FORT MCMURRAY CS","3062696","2016-06-05 17:00","2016","06","05","17:00","23.9","","3.4","","26","","29","","11","","","","97.22","","","","","","NA"
"-111.21","56.65","FORT MCMURRAY CS","3062696","2016-06-05 18:00","2016","06","05","18:00","23.6","","2.4","","25","","1","","11","","","","97.22","","","","","","NA"
"-111.21","56.65","FORT MCMURRAY CS","3062696","2016-06-05 19:00","2016","06","05","19:00","23.2","","2.5","","26","","7","","5","","","","97.19","","","","","","NA"
"-111.21","56.65","FORT MCMURRAY CS","3062696","2016-06-05 20:00","2016","06","05","20:00","21.5","","2.1","","28","","9","","9","","","","97.20","","","","","","NA"
"-111.21","56.65","FORT MCMURRAY CS","3062696","2016-06-05 21:00","2016","06","05","21:00","18.8","","4.6","","39","","10","","12","","","","97.22","","","","","","NA"
"-111.21","56.65","FORT MCMURRAY CS","3062696","2016-06-05 22:00","2016","06","05","22:00","17.5","","7.8","","53","","12","","17","","","","97.23","","","","","","NA"
"-111.21","56.65","FORT MCMURRAY CS","3062696","2016-06-05 23:00","2016","06","05","23:00","16.2","","8.4","","60","","12","","18","","","","97.24","","","","","","NA"
"-111.21","56.65","FORT MCMURRAY CS","3062696","2016-06-06 00:00","2016","06","06","00:00","15.3","","8.3","","63","","13","","15","","","","97.22","","","","","","NA"
"-111.21","56.65","FORT MCMURRAY CS","3062696","2016-06-06 01:00","2016","06","06","01:00","14.4","","8.0","","65","","12","","15","","","","97.21","","","","","","NA"
"-111.21","56.65","FORT MCMURRAY CS","3062696","2016-06-06 02:00","2016","06","06","02:00","13.6","","7.8","","68","","11","","11","","","","97.18","","","","","","NA"
"-111.21","56.65","FORT MCMURRAY CS","3062696","2016-06-06 03:00","2016","06","06","03:00","13.0","","7.5","","69","","10","","12","","","","97.14","","","","","","NA"
"-111.21","56.65","FORT MCMURRAY CS","3062696","2016-06-06 04:00","2016","06","06","04:00","12.2","","7.4","","73","","9","","13","","","","97.10","","","","","","NA"
"-111.21","56.65","FORT MCMURRAY CS","3062696","2016-06-06 05:00","2016","06","06","05:00","12.7","","7.4","","70","","10","","11","","","","97.08","","","","","","NA"
"-111.21","56.65","FORT MCMURRAY CS","3062696","2016-06-06 06:00","2016","06","06","06:00","13.7","","7.8","","67","","10","","14","","","","97.05","","","","","","NA"
"-111.21","56.65","FORT MCMURRAY CS","3062696","2016-06-06 07:00","2016","06","06","07:00","15.3","","8.2","","62","","10","","11","","","","97.02","","","","","","NA"
"-111.21","56.65","FORT MCMURRAY CS","3062696","2016-06-06 08:00","2016","06","06","08:00","17.7","","8.2","","54","","11","","12","","","","96.98","","","","","","NA"
"-111.21","56.65","FORT MCMURRAY CS","3062696","2016-06-06 09:00","2016","06","06","09:00","19.7","","8.2","","47","","11","","14","","","","96.91","","","","","","NA"
"-111.21","56.65","FORT MCMURRAY CS","3062696","2016-06-06 10:00","2016","06","06","10:00","21.6","","8.5","","43","","11","","15","","","","96.82","","","","","","NA"
"-111.21","56.65","FORT MCMURRAY CS","3062696","2016-06-06 11:00","2016","06","06","11:00","25.4","","6.4","","30","","11","","17","","","","96.71","","25","","","","NA"
"-111.21","56.65","FORT MCMURRAY CS","3062696","2016-06-06 12:00","2016","06","06","12:00","27.2","","5.2","","25","","14","","19","","","","96.61","","27","","","","NA"
"-111.21","56.65","FORT MCMURRAY CS","3062696","2016-06-06 13:00","2016","06","06","13:00","28.5","","4.3","","21","","17","","25","","","","96.52","","28","","","","NA"
"-111.21","56.65","FORT MCMURRAY CS","3062696","2016-06-06 14:00","2016","06","06","14:00","29.0","","3.4","","19","","17","","21","","","","96.42","","28","","","","NA"
"-111.21","56.65","FORT MCMURRAY CS","3062696","2016-06-06 15:00","2016","06","06","15:00","29.4","","3.6","","19","","16","","22","","","","96.33","","28","","","","NA"
"-111.21","56.65","FORT MCMURRAY CS","3062696","2016-06-06 16:00","2016","06","06","16:00","29.3","","3.1","","19","","17","","23","","","","96.24","","28","","","","NA"
"-111.21","56.65","FORT MCMURRAY CS","3062696","2016-06-06 17:00","2016","06","06","17:00","28.1","","4.4","","22","","17","","21","","","","96.21","","27","","","","NA"
"-111.21","56.65","FORT MCMURRAY CS","3062696","2016-06-06 18:00","2016","06","06","18:00","27.3","","5.0","","24","","18","","19","","","","96.17","","27","","","","NA"
"-111.21","56.65","FORT MCMURRAY CS","3062696","2016-06-06 19:00","2016","06","06","19:00","26.4","","5.1","","26","","17","","22","","","","96.14","","26","","","","NA"
"-111.21","56.65","FORT MCMURRAY CS","3062696","2016-06-06 20:00","2016","06","06","20:00","24.9","","5.6","","29","","13","","19","","","","96.00","","","","","","NA"
"-111.21","56.65","FORT MCMURRAY CS","3062696","2016-06-06 21:00","2016","06","06","21:00","23.6","","6.0","","32","","16","","24","","","","95.98","","","","","","NA"
"-111.21","56.65","FORT MCMURRAY CS","3062696","2016-06-06 22:00","2016","06","06","22:00","22.5","","5.9","","34","","16","","22","","","","95.91","","","","","","NA"
"-111.21","56.65","FORT MCMURRAY CS","3062696","2016-06-06 23:00","2016","06","06","23:00","20.8","","6.7","","40","","20","","13","","","","95.91","","","","","","NA"
"-111.21","56.65","FORT MCMURRAY CS","3062696","2016-06-07 00:00","2016","06","07","00:00","21.3","","8.3","","43","","22","","20","","","","95.91","","","","","","NA"
"-111.21","56.65","FORT MCMURRAY CS","3062696","2016-06-07 01:00","2016","06","07","01:00","19.3","","9.2","","52","","22","","17","","","","95.91","","","","","","NA"
"-111.21","56.65","FORT MCMURRAY CS","3062696","2016-06-07 02:00","2016","06","07","02:00","17.9","","9.2","","57","","22","","14","","","","95.90","","","","","","NA"
"-111.21","56.65","FORT MCMURRAY CS","3062696","2016-06-07 03:00","2016","06","07","03:00","17.4","","9.4","","59","","30","","4","","","","95.91","","","","","","NA"
"-111.21","56.65","FORT MCMURRAY CS","3062696","2016-06-07 04:00","2016","06","07","04:00","16.6","","10.1","","65","","23","","16","","","","95.91","","","","","","NA"
"-111.21","56.65","FORT MCMURRAY CS","3062696","2016-06-07 05:00","2016","06","07","05:00","17.3","","10.2","","63","","23","","10","","","","95.95","","","","","","NA"
"-111.21","56.65","FORT MCMURRAY CS","3062696","2016-06-07 06:00","2016","06","07","06:00","19.1","","9.8","","55","","24","","14","","","","95.96","","","","","","NA"
"-111.21","56.65","FORT MCMURRAY CS","3062696","2016-06-07 07:00","2016","06","07","07:00","20.4","","8.3","","46","","26","","18","","","","95.98","","","","","","NA"
"-111.21","56.65","FORT MCMURRAY CS","3062696","2016-06-07 08:00","2016","06","07","08:00","21.9","","7.2","","39","","29","","12","","","","95.99","","","","","","NA"
"-111.21","56.65","FORT MCMURRAY CS","3062696","2016-06-07 09:00","2016","06","07","09:00","23.6","","6.8","","34","","28","","10","","","","95.99","","","","","","NA"
"-111.21","56.65","FORT MCMURRAY CS","3062696","2016-06-07 10:00","2016","06","07","10:00","25.2","","6.8","","31","","33","","17","","","","96.01","","25","","","","NA"
"-111.21","56.65","FORT MCMURRAY CS","3062696","2016-06-07 11:00","2016","06","07","11:00","26.7","","6.7","","28","","32","","14","","","","95.98","","27","","","","NA"
"-111.21","56.65","FORT MCMURRAY CS","3062696","2016-06-07 12:00","2016","06","07","12:00","25.4","","6.1","","29","","32","","10","","","","95.97","","25","","","","NA"
"-111.21","56.65","FORT MCMURRAY CS","3062696","2016-06-07 13:00","2016","06","07","13:00","28.5","","4.3","","21","","26","","27","","","","95.95","","28","","","","NA"
"-111.21","56.65","FORT MCMURRAY CS","3062696","2016-06-07 14:00","2016","06","07","14:00","26.3","","6.6","","29","","36","","19","","","","95.99","","26","","","","NA"
"-111.21","56.65","FORT MCMURRAY CS","3062696","2016-06-07 15:00","2016","06","07","15:00","25.9","","5.7","","27","","34","","16","","","","96.00","","25","","","","NA"
"-111.21","56.65","FORT MCMURRAY CS","3062696","2016-06-07 16:00","2016","06","07","16:00","26.1","","6.5","","29","","34","","21","","","","96.05","","26","","","","NA"
"-111.21","56.65","FORT MCMURRAY CS","3062696","2016-06-07 17:00","2016","06","07","17:00","26.3","","6.8","","29","","32","","11","","","","96.03","","26","","","","NA"
"-111.21","56.65","FORT MCMURRAY CS","3062696","2016-06-07 18:00","2016","06","07","18:00","26.1","","6.7","","29","","34","","12","","","","96.06","","26","","","","NA"
"-111.21","56.65","FORT MCMURRAY CS","3062696","2016-06-07 19:00","2016","06","07","19:00","24.8","","5.3","","28","","35","","19","","","","96.12","","","","","","NA"
"-111.21","56.65","FORT MCMURRAY CS","3062696","2016-06-07 20:00","2016","06","07","20:00","23.6","","5.1","","30","","1","","14","","","","96.18","","","","","","NA"
"-111.21","56.65","FORT MCMURRAY CS","3062696","2016-06-07 21:00","2016","06","07","21:00","21.8","","5.5","","35","","35","","9","","","","96.23","","","","","","NA"
"-111.21","56.65","FORT MCMURRAY CS","3062696","2016-06-07 22:00","2016","06","07","22:00","19.9","","6.8","","42","","33","","10","","","","96.27","","","","","","NA"
"-111.21","56.65","FORT MCMURRAY CS","3062696","2016-06-07 23:00","2016","06","07","23:00","19.4","","3.9","","36","","35","","8","","","","96.32","","","","","","NA"
"-111.21","56.65","FORT MCMURRAY CS","3062696","2016-06-08 00:00","2016","06","08","00:00","18.4","","3.2","","36","","8","","9","","","","96.37","","","","","","NA"
"-111.21","56.65","FORT MCMURRAY CS","3062696","2016-06-08 01:00","2016","06","08","01:00","17.4","","4.4","","42","","4","","9","","","","96.38","","","","","","NA"
"-111.21","56.65","FORT MCMURRAY CS","3062696","2016-06-08 02:00","2016","06","08","02:00","16.1","","5.3","","49","","36","","6","","","","96.41","","","","","","NA"
"-111.21","56.65","FORT MCMURRAY CS","3062696","2016-06-08 03:00","2016","06","08","03:00","12.0","","6.1","","67","","2","","1","","","","96.42","","","","","","NA"
"-111.21","56.65","FORT MCMURRAY CS","3062696","2016-06-08 04:00","2016","06","08","04:00","9.6","","5.6","","76","","21","","7","","","","96.44","","","","","","NA"
"-111.21","56.65","FORT MCMURRAY CS","3062696","2016-06-08 05:00","2016","06","08","05:00","12.0","","6.5","","69","","24","","5","","","","96.47","","","","","","NA"
"-111.21","56.65","FORT MCMURRAY CS","3062696","2016-06-08 06:00","2016","06","08","06:00","14.5","","8.1","","65","","32","","6","","","","96.46","","","","","","NA"
"-111.21","56.65","FORT MCMURRAY CS","3062696","2016-06-08 07:00","2016","06","08","07:00","15.9","","7.3","","57","","33","","4","","","","96.48","","","","","","NA"
"-111.21","56.65","FORT MCMURRAY CS","3062696","2016-06-08 08:00","2016","06","08","08:00","17.2","","7.2","","52","","33","","6","","","","96.49","","","","","","NA"
"-111.21","56.65","FORT MCMURRAY CS","3062696","2016-06-08 09:00","2016","06","08","09:00","17.6","","7.2","","50","","32","","3","","","","96.51","","","","","","NA"
"-111.21","56.65","FORT MCMURRAY CS","3062696","2016-06-08 10:00","2016","06","08","10:00","18.6","","7.4","","48","","33","","6","","","","96.46","","","","","","NA"
"-111.21","56.65","FORT MCMURRAY CS","3062696","2016-06-08 11:00","2016","06","08","11:00","20.0","","8.0","","46","","31","","7","","","","96.45","","","","","","NA"
"-111.21","56.65","FORT MCMURRAY CS","3062696","2016-06-08 12:00","2016","06","08","12:00","21.5","","6.9","","39","","35","","4","","","","96.42","","","","","","NA"
"-111.21","56.65","FORT MCMURRAY CS","3062696","2016-06-08 13:00","2016","06","08","13:00","22.9","","3.6","","28","","4","","10","","","","96.40","","","","","","NA"
"-111.21","56.65","FORT MCMURRAY CS","3062696","2016-06-08 14:00","2016","06","08","14:00","23.5","","2.3","","25","","4","","9","","","","96.36","","","","","","NA"
"-111.21","56.65","FORT MCMURRAY CS","3062696","2016-06-08 15:00","2016","06","08","15:00","21.3","","4.7","","34","","17","","18","","","","96.40","","","","","","NA"
"-111.21","56.65","FORT MCMURRAY CS","3062696","2016-06-08 16:00","2016","06","08","16:00","19.3","","8.8","","51","","18","","17","","","","96.42","","","","","","NA"
"-111.21","56.65","FORT MCMURRAY CS","3062696","2016-06-08 17:00","2016","06","08","17:00","16.5","","10.6","","68","","11","","11","","","","96.36","","","","","","NA"
"-111.21","56.65","FORT MCMURRAY CS","3062696","2016-06-08 18:00","2016","06","08","18:00","16.6","","11.5","","72","","10","","7","","","","96.30","","","","","","NA"
"-111.21","56.65","FORT MCMURRAY CS","3062696","2016-06-08 19:00","2016","06","08","19:00","17.0","","11.3","","69","","7","","7","","","","96.28","","","","","","NA"
"-111.21","56.65","FORT MCMURRAY CS","3062696","2016-06-08 20:00","2016","06","08","20:00","17.0","","10.9","","67","","7","","7","","","","96.22","","","","","","NA"
"-111.21","56.65","FORT MCMURRAY CS","3062696","2016-06-08 21:00","2016","06","08","21:00","16.8","","10.4","","66","","6","","7","","","","96.22","","","","","","NA"
"-111.21","56.65","FORT MCMURRAY CS","3062696","2016-06-08 22:00","2016","06","08","22:00","16.3","","10.3","","68","","11","","10","","","","96.22","","","","","","NA"
"-111.21","56.65","FORT MCMURRAY CS","3062696","2016-06-08 23:00","2016","06","08","23:00","15.4","","11.4","","77","","3","","7","","","","96.21","","","","","","NA"
"-111.21","56.65","FORT MCMURRAY CS","3062696","2016-06-09 00:00","2016","06","09","00:00","14.0","","11.9","","87","","5","","13","","","","96.18","","","","","","NA"
"-111.21","56.65","FORT MCMURRAY CS","3062696","2016-06-09 01:00","2016","06","09","01:00","13.8","","11.0","","84","","4","","12","","","","96.09","","","","","","NA"
"-111.21","56.65","FORT MCMURRAY CS","3062696","2016-06-09 02:00","2016","06","09","02:00","13.9","","10.8","","82","","6","","11","","","","96.03","","","","","","NA"
"-111.21","56.65","FORT MCMURRAY CS","3062696","2016-06-09 03:00","2016","06","09","03:00","14.2","","10.3","","77","","7","","14","","","","95.98","","","","","","NA"
"-111.21","56.65","FORT MCMURRAY CS","3062696","2016-06-09 04:00","2016","06","09","04:00","14.4","","10.8","","79","","6","","17","","","","95.89","","","","","","NA"
"-111.21","56.65","FORT MCMURRAY CS","3062696","2016-06-09 05:00","2016","06","09","05:00","14.6","","11.7","","83","","5","","17","","","","95.88","","","","","","NA"
"-111.21","56.65","FORT MCMURRAY CS","3062696","2016-06-09 06:00","2016","06","09","06:00","13.9","","12.6","","92","","5","","16","","","","95.81","","","","","","NA"
"-111.21","56.65","FORT MCMURRAY CS","3062696","2016-06-09 07:00","2016","06","09","07:00","13.5","","12.3","","92","","4","","20","","","","95.75","","","","","","NA"
"-111.21","56.65","FORT MCMURRAY CS","3062696","2016-06-09 08:00","2016","06","09","08:00","13.5","","12.0","","91","","5","","20","","","","95.71","","","","","","NA"
"-111.21","56.65","FORT MCMURRAY CS","3062696","2016-06-09 09:00","2016","06","09","09:00","12.9","","11.2","","89","","5","","18","","","","95.72","","","","","","NA"
"-111.21","56.65","FORT MCMURRAY CS","3062696","2016-06-09 10:00","2016","06","09","10:00","12.6","","11.1","","91","","5","","19","","","","95.72","","","","","","NA"
"-111.21","56.65","FORT MCMURRAY CS","3062696","2016-06-09 11:00","2016","06","09","11:00","12.2","","10.8","","91","","5","","24","","","","95.64","","","","","","NA"
"-111.21","56.65","FORT MCMURRAY CS","3062696","2016-06-09 12:00","2016","06","09","12:00","11.8","","10.1","","90","","6","","26","","","","95.70","","","","","","NA"
"-111.21","56.65","FORT MCMURRAY CS","3062696","2016-06-09 13:00","2016","06","09","13:00","11.6","","10.2","","91","","6","","26","","","","95.73","","","","","","NA"
"-111.21","56.65","FORT MCMURRAY CS","3062696","2016-06-09 14:00","2016","06","09","14:00","11.6","","10.1","","91","","4","","24","","","","95.75","","","","","","NA"
"-111.21","56.65","FORT MCMURRAY CS","3062696","2016-06-09 15:00","2016","06","09","15:00","11.6","","10.2","","91","","3","","20","","","","95.83","","","","","","NA"
"-111.21","56.65","FORT MCMURRAY CS","3062696","2016-06-09 16:00","2016","06","09","16:00","11.5","","10.3","","92","","1","","20","","","","95.88","","","","","","NA"
"-111.21","56.65","FORT MCMURRAY CS","3062696","2016-06-09 17:00","2016","06","09","17:00","11.1","","10.0","","93","","1","","24","","","","95.94","","","","","","NA"
"-111.21","56.65","FORT MCMURRAY CS","3062696","2016-06-09 18:00","2016","06","09","18:00","10.9","","9.4","","91","","1","","25","","","","96.02","","","","","","NA"
"-111.21","56.65","FORT MCMURRAY CS","3062696","2016-06-09 19:00","2016","06","09","19:00","10.6","","9.4","","92","","1","","19","","","","96.09","","","","","","NA"
"-111.21","56.65","FORT MCMURRAY CS","3062696","2016-06-09 20:00","2016","06","09","20:00","10.5","","9.2","","92","","36","","17","","","","96.16","","","","","","NA"
"-111.21","56.65","FORT MCMURRAY CS","3062696","2016-06-09 21:00","2016","06","09","21:00","10.2","","9.1","","93","","35","","15","","","","96.25","","","","","","NA"
"-111.21","56.65","FORT MCMURRAY CS","3062696","2016-06-09 22:00","2016","06","09","22:00","10.1","","9.0","","93","","33","","12","","","","96.30","","","","","","NA"
"-111.21","56.65","FORT MCMURRAY CS","3062696","2016-06-09 23:00","2016","06","09","23:00","10.3","","9.2","","93","","34","","14","","","","96.36","","","","","","NA"
"-111.21","56.65","FORT MCMURRAY CS","3062696","2016-06-10 00:00","2016","06","10","00:00","10.0","","8.9","","93","","34","","12","","","","96.41","","","","","","NA"
"-111.21","56.65","FORT MCMURRAY CS","3062696","2016-06-10 01:00","2016","06","10","01:00","9.2","","8.3","","94","","33","","9","","","","96.48","","","","","","NA"
"-111.21","56.65","FORT MCMURRAY CS","3062696","2016-06-10 02:00","2016","06","10","02:00","9.0","","8.0","","94","","32","","11","","","","96.54","","","","","","NA"
"-111.21","56.65","FORT MCMURRAY CS","3062696","2016-06-10 03:00","2016","06","10","03:00","8.6","","7.7","","94","","29","","7","","","","96.62","","","","","","NA"
"-111.21","56.65","FORT MCMURRAY CS","3062696","2016-06-10 04:00","2016","06","10","04:00","8.5","","7.6","","94","","29","","6","","","","96.69","","","","","","NA"
"-111.21","56.65","FORT MCMURRAY CS","3062696","2016-06-10 05:00","2016","06","10","05:00","8.6","","7.3","","92","","24","","6","","","","96.75","","","","","","NA"
"-111.21","56.65","FORT MCMURRAY CS","3062696","2016-06-10 06:00","2016","06","10","06:00","9.9","","8.2","","89","","25","","5","","","","96.81","","","","","","NA"
"-111.21","56.65","FORT MCMURRAY CS","3062696","2016-06-10 07:00","2016","06","10","07:00","11.8","","9.4","","85","","28","","7","","","","96.86","","","","","","NA"
"-111.21","56.65","FORT MCMURRAY CS","3062696","2016-06-10 08:00","2016","06","10","08:00","13.6","","10.2","","80","","29","","8","","","","96.91","","","","","","NA"
"-111.21","56.65","FORT MCMURRAY CS","3062696","2016-06-10 09:00","2016","06","10","09:00","15.1","","10.2","","73","","33","","11","","","","96.93","","","","","","NA"
"-111.21","56.65","FORT MCMURRAY CS","3062696","2016-06-10 10:00","2016","06","10","10:00","17.0","","10.8","","67","","32","","12","","","","96.94","","","","","","NA"
"-111.21","56.65","FORT MCMURRAY CS","3062696","2016-06-10 11:00","2016","06","10","11:00","18.0","","10.1","","60","","35","","19","","","","96.96","","","","","","NA"
"-111.21","56.65","FORT MCMURRAY CS","3062696","2016-06-10 12:00","2016","06","10","12:00","18.4","","6.9","","47","","3","","15","","","","96.95","","","","","","NA"
"-111.21","56.65","FORT MCMURRAY CS","3062696","2016-06-10 13:00","2016","06","10","13:00","20.1","","4.4","","36","","34","","10","","","","96.97","","","","","","NA"
"-111.21","56.65","FORT MCMURRAY CS","3062696","2016-06-10 14:00","2016","06","10","14:00","19.4","","3.8","","36","","34","","17","","","","96.97","","","","","","NA"
"-111.21","56.65","FORT MCMURRAY CS","3062696","2016-06-10 15:00","2016","06","10","15:00","21.0","","3.7","","32","","34","","16","","","","96.99","","","","","","NA"
"-111.21","56.65","FORT MCMURRAY CS","3062696","2016-06-10 16:00","2016","06","10","16:00","21.0","","3.9","","32","","7","","11","","","","96.98","","","","","","NA"
"-111.21","56.65","FORT MCMURRAY CS","3062696","2016-06-10 17:00","2016","06","10","17:00","21.0","","3.0","","30","","4","","3","","","","97.00","","","","","","NA"
"-111.21","56.65","FORT MCMURRAY CS","3062696","2016-06-10 18:00","2016","06","10","18:00","21.1","","2.6","","29","","5","","9","","","","97.00","","","","","","NA"
"-111.21","56.65","FORT MCMURRAY CS","3062696","2016-06-10 19:00","2016","06","10","19:00","21.0","","-0.8","","23","","16","","2","","","","97.00","","","","","","NA"
"-111.21","56.65","FORT MCMURRAY CS","3062696","2016-06-10 20:00","2016","06","10","20:00","20.3","","-0.8","","24","","10","","3","","","","97.00","","","","","","NA"
"-111.21","56.65","FORT MCMURRAY CS","3062696","2016-06-10 21:00","2016","06","10","21:00","18.0","","3.5","","38","","5","","5","","","","97.01","","","","","","NA"
"-111.21","56.65","FORT MCMURRAY CS","3062696","2016-06-10 22:00","2016","06","10","22:00","14.4","","8.4","","67","","7","","6","","","","97.03","","","","","","NA"
"-111.21","56.65","FORT MCMURRAY CS","3062696","2016-06-10 23:00","2016","06","10","23:00","13.4","","6.7","","64","","11","","10","","","","97.06","","","","","","NA"
"-111.21","56.65","FORT MCMURRAY CS","3062696","2016-06-11 00:00","2016","06","11","00:00","12.9","","5.6","","61","","13","","16","","","","97.10","","","","","","NA"
"-111.21","56.65","FORT MCMURRAY CS","3062696","2016-06-11 01:00","2016","06","11","01:00","13.3","","4.9","","57","","11","","13","","","","97.12","","","","","","NA"
"-111.21","56.65","FORT MCMURRAY CS","3062696","2016-06-11 02:00","2016","06","11","02:00","11.4","","5.0","","65","","12","","13","","","","97.14","","","","","","NA"
"-111.21","56.65","FORT MCMURRAY CS","3062696","2016-06-11 03:00","2016","06","11","03:00","10.2","","5.9","","75","","10","","9","","","","97.16","","","","","","NA"
"-111.21","56.65","FORT MCMURRAY CS","3062696","2016-06-11 04:00","2016","06","11","04:00","10.1","","6.2","","77","","9","","11","","","","97.13","","","","","","NA"
"-111.21","56.65","FORT MCMURRAY CS","3062696","2016-06-11 05:00","2016","06","11","05:00","10.9","","7.1","","77","","12","","13","","","","97.17","","","","","","NA"
"-111.21","56.65","FORT MCMURRAY CS","3062696","2016-06-11 06:00","2016","06","11","06:00","12.3","","7.4","","72","","9","","8","","","","97.18","","","","","","NA"
"-111.21","56.65","FORT MCMURRAY CS","3062696","2016-06-11 07:00","2016","06","11","07:00","13.0","","8.2","","73","","11","","12","","","","97.19","","","","","","NA"
"-111.21","56.65","FORT MCMURRAY CS","3062696","2016-06-11 08:00","2016","06","11","08:00","14.1","","8.5","","69","","14","","16","","","","97.24","","","","","","NA"
"-111.21","56.65","FORT MCMURRAY CS","3062696","2016-06-11 09:00","2016","06","11","09:00","14.2","","8.6","","69","","12","","14","","","","97.20","","","","","","NA"
"-111.21","56.65","FORT MCMURRAY CS","3062696","2016-06-11 10:00","2016","06","11","10:00","14.3","","8.2","","67","","13","","14","","","","97.17","","","","","","NA"
"-111.21","56.65","FORT MCMURRAY CS","3062696","2016-06-11 11:00","2016","06","11","11:00","15.3","","7.9","","61","","13","","17","","","","97.14","","","","","","NA"
"-111.21","56.65","FORT MCMURRAY CS","3062696","2016-06-11 12:00","2016","06","11","12:00","16.8","","6.2","","49","","14","","25","","","","97.16","","","","","","NA"
"-111.21","56.65","FORT MCMURRAY CS","3062696","2016-06-11 13:00","2016","06","11","13:00","15.7","","3.0","","42","","14","","25","","","","97.10","","","","","","NA"
"-111.21","56.65","FORT MCMURRAY CS","3062696","2016-06-11 14:00","2016","06","11","14:00","15.3","","5.0","","50","","13","","16","","","","97.03","","","","","","NA"
"-111.21","56.65","FORT MCMURRAY CS","3062696","2016-06-11 15:00","2016","06","11","15:00","15.2","","5.4","","52","","11","","13","","","","96.89","","","","","","NA"
"-111.21","56.65","FORT MCMURRAY CS","3062696","2016-06-11 16:00","2016","06","11","16:00","16.2","","5.0","","47","","13","","23","","","","96.86","","","","","","NA"
"-111.21","56.65","FORT MCMURRAY CS","3062696","2016-06-11 17:00","2016","06","11","17:00","15.4","","5.0","","50","","13","","23","","","","96.86","","","","","","NA"
"-111.21","56.65","FORT MCMURRAY CS","3062696","2016-06-11 18:00","2016","06","11","18:00","13.0","","7.7","","70","","12","","15","","","","96.84","","","","","","NA"
"-111.21","56.65","FORT MCMURRAY CS","3062696","2016-06-11 19:00","2016","06","11","19:00","11.2","","9.3","","88","","11","","9","","","","96.77","","","","","","NA"
"-111.21","56.65","FORT MCMURRAY CS","3062696","2016-06-11 20:00","2016","06","11","20:00","11.3","","9.6","","89","","2","","3","","","","96.67","","","","","","NA"
"-111.21","56.65","FORT MCMURRAY CS","3062696","2016-06-11 21:00","2016","06","11","21:00","11.0","","9.8","","92","","1","","4","","","","96.56","","","","","","NA"
"-111.21","56.65","FORT MCMURRAY CS","3062696","2016-06-11 22:00","2016","06","11","22:00","11.4","","9.6","","88","","9","","11","","","","96.43","","","","","","NA"
"-111.21","56.65","FORT MCMURRAY CS","3062696","2016-06-11 23:00","2016","06","11","23:00","11.8","","9.2","","84","","11","","12","","","","96.32","","","","","","NA"
"-111.21","56.65","FORT MCMURRAY CS","3062696","2016-06-12 00:00","2016","06","12","00:00","10.3","","8.5","","89","","14","","11","","","","96.22","","","","","","NA"
"-111.21","56.65","FORT MCMURRAY CS","3062696","2016-06-12 01:00","2016","06","12","01:00","10.3","","8.6","","89","","14","","4","","","","96.16","","","","","","NA"
"-111.21","56.65","FORT MCMURRAY CS","3062696","2016-06-12 02:00","2016","06","12","02:00","10.1","","8.2","","88","","19","","5","","","","96.10","","","","","","NA"
"-111.21","56.65","FORT MCMURRAY CS","3062696","2016-06-12 03:00","2016","06","12","03:00","10.0","","8.6","","92","","12","","6","","","","96.04","","","","","","NA"
"-111.21","56.65","FORT MCMURRAY CS","3062696","2016-06-12 04:00","2016","06","12","04:00","10.0","","8.8","","92","","0","","1","","","","96.01","","","","","","NA"
"-111.21","56.65","FORT MCMURRAY CS","3062696","2016-06-12 05:00","2016","06","12","05:00","10.1","","9.1","","93","","19","","6","","","","96.01","","","","","","NA"
"-111.21","56.65","FORT MCMURRAY CS","3062696","2016-06-12 06:00","2016","06","12","06:00","10.7","","9.3","","91","","22","","11","","","","96.02","","","","","","NA"
"-111.21","56.65","FORT MCMURRAY CS","3062696","2016-06-12 07:00","2016","06","12","07:00","11.8","","9.7","","87","","21","","14","","","","95.99","","","","","","NA"
"-111.21","56.65","FORT MCMURRAY CS","3062696","2016-06-12 08:00","2016","06","12","08:00","13.5","","10.2","","81","","22","","16","","","","95.97","","","","","","NA"
"-111.21","56.65","FORT MCMURRAY CS","3062696","2016-06-12 09:00","2016","06","12","09:00","14.0","","9.8","","76","","22","","15","","","","95.95","","","","","","NA"
"-111.21","56.65","FORT MCMURRAY CS","3062696","2016-06-12 10:00","2016","06","12","10:00","14.6","","10.1","","74","","23","","18","","","","95.89","","","","","","NA"
"-111.21","56.65","FORT MCMURRAY CS","3062696","2016-06-12 11:00","2016","06","12","11:00","15.7","","10.4","","71","","21","","22","","","","95.87","","","","","","NA"
"-111.21","56.65","FORT MCMURRAY CS","3062696","2016-06-12 12:00","2016","06","12","12:00","15.4","","10.8","","74","","23","","20","","","","95.82","","","","","","NA"
"-111.21","56.65","FORT MCMURRAY CS","3062696","2016-06-12 13:00","2016","06","12","13:00","14.6","","12.0","","84","","23","","22","","","","95.83","","","","","","NA"
"-111.21","56.65","FORT MCMURRAY CS","3062696","2016-06-12 14:00","2016","06","12","14:00","14.4","","11.5","","83","","23","","16","","","","95.85","","","","","","NA"
"-111.21","56.65","FORT MCMURRAY CS","3062696","2016-06-12 15:00","2016","06","12","15:00","13.7","","11.0","","84","","26","","16","","","","95.84","","","","","","NA"
"-111.21","56.65","FORT MCMURRAY CS","3062696","2016-06-12 16:00","2016","06","12","16:00","15.5","","11.0","","74","","26","","19","","","","95.83","","","","","","NA"
"-111.21","56.65","FORT MCMURRAY CS","3062696","2016-06-12 17:00","2016","06","12","17:00","16.5","","9.4","","63","","26","","20","","","","95.81","","","","","","NA"
"-111.21","56.65","FORT MCMURRAY CS","3062696","2016-06-12 18:00","2016","06","12","18:00","17.0","","8.7","","58","","27","","18","","","","95.83","","","","","","NA"
"-111.21","56.65","FORT MCMURRAY CS","3062696","2016-06-12 19:00","2016","06","12","19:00","17.1","","8.5","","57","","26","","20","","","","95.83","","","","","","NA"
"-111.21","56.65","FORT MCMURRAY CS","3062696","2016-06-12 20:00","2016","06","12","20:00","15.7","","9.5","","66","","25","","19","","","","95.88","","","","","","NA"
"-111.21","56.65","FORT MCMURRAY CS","3062696","2016-06-12 21:00","2016","06","12","21:00","13.4","","10.4","","82","","25","","22","","","","95.93","","","","","","NA"
"-111.21","56.65","FORT MCMURRAY CS","3062696","2016-06-12 22:00","2016","06","12","22:00","12.3","","10.2","","88","","23","","16","","","","95.93","","","","","","NA"
"-111.21","56.65","FORT MCMURRAY CS","3062696","2016-06-12 23:00","2016","06","12","23:00","12.3","","9.6","","83","","24","","19","","","","95.94","","","","","","NA"
"-111.21","56.65","FORT MCMURRAY CS","3062696","2016-06-13 00:00","2016","06","13","00:00","12.3","","9.5","","83","","23","","15","","","","95.94","","","","","","NA"
"-111.21","56.65","FORT MCMURRAY CS","3062696","2016-06-13 01:00","2016","06","13","01:00","12.2","","9.2","","82","","24","","13","","","","95.93","","","","","","NA"
"-111.21","56.65","FORT MCMURRAY CS","3062696","2016-06-13 02:00","2016","06","13","02:00","12.4","","8.9","","79","","24","","18","","","","95.93","","","","","","NA"
"-111.21","56.65","FORT MCMURRAY CS","3062696","2016-06-13 03:00","2016","06","13","03:00","11.9","","9.0","","82","","24","","19","","","","95.95","","","","","","NA"
"-111.21","56.65","FORT MCMURRAY CS","3062696","2016-06-13 04:00","2016","06","13","04:00","11.1","","8.3","","83","","23","","15","","","","96.00","","","","","","NA"
"-111.21","56.65","FORT MCMURRAY CS","3062696","2016-06-13 05:00","2016","06","13","05:00","11.5","","7.7","","77","","23","","18","","","","96.02","","","","","","NA"
"-111.21","56.65","FORT MCMURRAY CS","3062696","2016-06-13 06:00","2016","06","13","06:00","13.1","","8.1","","72","","24","","19","","","","96.03","","","","","","NA"
"-111.21","56.65","FORT MCMURRAY CS","3062696","2016-06-13 07:00","2016","06","13","07:00","13.2","","8.4","","73","","24","","27","","","","96.05","","","","","","NA"
"-111.21","56.65","FORT MCMURRAY CS","3062696","2016-06-13 08:00","2016","06","13","08:00","15.5","","8.7","","64","","26","","23","","","","96.05","","","","","","NA"
"-111.21","56.65","FORT MCMURRAY CS","3062696","2016-06-13 09:00","2016","06","13","09:00","15.7","","9.1","","65","","24","","21","","","","96.06","","","","","","NA"
"-111.21","56.65","FORT MCMURRAY CS","3062696","2016-06-13 10:00","2016","06","13","10:00","18.0","","8.7","","55","","25","","28","","","","96.05","","","","","","NA"
"-111.21","56.65","FORT MCMURRAY CS","3062696","2016-06-13 11:00","2016","06","13","11:00","19.2","","8.5","","50","","25","","26","","","","96.01","","","","","","NA"
"-111.21","56.65","FORT MCMURRAY CS","3062696","2016-06-13 12:00","2016","06","13","12:00","19.9","","8.7","","48","","27","","27","","","","95.98","","","","","","NA"
"-111.21","56.65","FORT MCMURRAY CS","3062696","2016-06-13 13:00","2016","06","13","13:00","20.7","","7.3","","42","","26","","28","","","","95.95","","","","","","NA"
"-111.21","56.65","FORT MCMURRAY CS","3062696","2016-06-13 14:00","2016","06","13","14:00","21.0","","6.7","","40","","26","","23","","","","95.96","","","","","","NA"
"-111.21","56.65","FORT MCMURRAY CS","3062696","2016-06-13 15:00","2016","06","13","15:00","22.8","","5.3","","32","","25","","26","","","","95.94","","","","","","NA"
"-111.21","56.65","FORT MCMURRAY CS","3062696","2016-06-13 16:00","2016","06","13","16:00","22.7","","4.1","","30","","26","","26","","","","95.91","","","","","","NA"
"-111.21","56.65","FORT MCMURRAY CS","3062696","2016-06-13 17:00","2016","06","13","17:00","22.5","","3.1","","28","","23","","24","","","","95.88","","","","","","NA"
"-111.21","56.65","FORT MCMURRAY CS","3062696","2016-06-13 18:00","2016","06","13","18:00","21.1","","2.3","","29","","26","","21","","","","95.90","","","","","","NA"
"-111.21","56.65","FORT MCMURRAY CS","3062696","2016-06-13 19:00","2016","06","13","19:00","20.6","","1.5","","28","","23","","24","","","","95.93","","","","","","NA"
"-111.21","56.65","FORT MCMURRAY CS","3062696","2016-06-13 20:00","2016","06","13","20:00","19.1","","2.4","","33","","22","","12","","","","95.94","","","","","","NA"
"-111.21","56.65","FORT MCMURRAY CS","3062696","2016-06-13 21:00","2016","06","13","21:00","16.8","","3.9","","42","","19","","9","","","","95.93","","","","","","NA"
"-111.21","56.65","FORT MCMURRAY CS","3062696","2016-06-13 22:00","2016","06","13","22:00","13.9","","5.8","","58","","19","","8","","","","95.94","","","","","","NA"
"-111.21","56.65","FORT MCMURRAY CS","3062696","2016-06-13 23:00","2016","06","13","23:00","12.3","","5.8","","64","","21","","9","","","","95.94","","","","","","NA"
"-111.21","56.65","FORT MCMURRAY CS","3062696","2016-06-14 00:00","2016","06","14","00:00","10.7","","4.3","","65","","20","","11","","","","95.94","","","","","","NA"
"-111.21","56.65","FORT MCMURRAY CS","3062696","2016-06-14 01:00","2016","06","14","01:00","11.0","","4.2","","63","","17","","3","","","","95.92","","","","","","NA"
"-111.21","56.65","FORT MCMURRAY CS","3062696","2016-06-14 02:00","2016","06","14","02:00","8.8","","5.0","","77","","11","","6","","","","95.94","","","","","","NA"
"-111.21","56.65","FORT MCMURRAY CS","3062696","2016-06-14 03:00","2016","06","14","03:00","7.6","","5.0","","84","","6","","3","","","","95.95","","","","","","NA"
"-111.21","56.65","FORT MCMURRAY CS","3062696","2016-06-14 04:00","2016","06","14","04:00","7.5","","4.1","","79","","16","","9","","","","95.96","","","","","","NA"
"-111.21","56.65","FORT MCMURRAY CS","3062696","2016-06-14 05:00","2016","06","14","05:00","8.1","","4.8","","80","","14","","7","","","","95.95","","","","","","NA"
"-111.21","56.65","FORT MCMURRAY CS","3062696","2016-06-14 06:00","2016","06","14","06:00","12.4","","4.8","","60","","15","","5","","","","95.97","","","","","","NA"
"-111.21","56.65","FORT MCMURRAY CS","3062696","2016-06-14 07:00","2016","06","14","07:00","14.9","","6.4","","57","","10","","5","","","","95.94","","","","","","NA"
"-111.21","56.65","FORT MCMURRAY CS","3062696","2016-06-14 08:00","2016","06","14","08:00","18.1","","6.9","","48","","6","","6","","","","95.92","","","","","","NA"
"-111.21","56.65","FORT MCMURRAY CS","3062696","2016-06-14 09:00","2016","06","14","09:00","18.9","","4.0","","37","","7","","2","","","","95.89","","","","","","NA"
"-111.21","56.65","FORT MCMURRAY CS","3062696","2016-06-14 10:00","2016","06","14","10:00","22.5","","4.6","","31","","8","","12","","","","95.85","","","","","","NA"
"-111.21","56.65","FORT MCMURRAY CS","3062696","2016-06-14 11:00","2016","06","14","11:00","21.8","","5.8","","35","","11","","17","","","","95.81","","","","","","NA"
"-111.21","56.65","FORT MCMURRAY CS","3062696","2016-06-14 12:00","2016","06","14","12:00","22.9","","6.2","","34","","7","","15","","","","95.72","","","","","","NA"
"-111.21","56.65","FORT MCMURRAY CS","3062696","2016-06-14 13:00","2016","06","14","13:00","24.5","","5.9","","30","","10","","18","","","","95.63","","","","","","NA"
"-111.21","56.65","FORT MCMURRAY CS","3062696","2016-06-14 14:00","2016","06","14","14:00","24.3","","6.3","","32","","10","","22","","","","95.61","","","","","","NA"
"-111.21","56.65","FORT MCMURRAY CS","3062696","2016-06-14 15:00","2016","06","14","15:00","23.9","","4.7","","29","","12","","26","","","","95.58","","","","","","NA"
"-111.21","56.65","FORT MCMURRAY CS","3062696","2016-06-14 16:00","2016","06","14","16:00","25.8","","2.7","","22","","14","","28","","","","95.52","","","","","","NA"
"-111.21","56.65","FORT MCMURRAY CS","3062696","2016-06-14 17:00","2016","06","14","17:00","25.2","","4.7","","27","","12","","25","","","","95.51","","","","","","NA"
"-111.21","56.65","FORT MCMURRAY CS","3062696","2016-06-14 18:00","2016","06","14","18:00","25.6","","3.2","","23","","17","","21","","","","95.50","","","","","","NA"
"-111.21","56.65","FORT MCMURRAY CS","3062696","2016-06-14 19:00","2016","06","14","19:00","23.3","","3.6","","28","","18","","13","","","","95.53","","","","","","NA"
"-111.21","56.65","FORT MCMURRAY CS","3062696","2016-06-14 20:00","2016","06","14","20:00","21.0","","6.9","","40","","17","","29","","","","95.72","","","","","","NA"
"-111.21","56.65","FORT MCMURRAY CS","3062696","2016-06-14 21:00","2016","06","14","21:00","16.8","","10.9","","68","","14","","13","","","","95.79","","","","","","NA"
"-111.21","56.65","FORT MCMURRAY CS","3062696","2016-06-14 22:00","2016","06","14","22:00","15.6","","11.3","","75","","11","","12","","","","95.76","","","","","","NA"
"-111.21","56.65","FORT MCMURRAY CS","3062696","2016-06-14 23:00","2016","06","14","23:00","15.3","","11.4","","78","","11","","17","","","","95.73","","","","","","NA"
"-111.21","56.65","FORT MCMURRAY CS","3062696","2016-06-15 00:00","2016","06","15","00:00","15.0","","11.6","","80","","12","","21","","","","95.66","","","","","","NA"
"-111.21","56.65","FORT MCMURRAY CS","3062696","2016-06-15 01:00","2016","06","15","01:00","14.7","","11.4","","81","","12","","17","","","","95.56","","","","","","NA"
"-111.21","56.65","FORT MCMURRAY CS","3062696","2016-06-15 02:00","2016","06","15","02:00","13.7","","11.9","","89","","10","","15","","","","95.50","","","","","","NA"
"-111.21","56.65","FORT MCMURRAY CS","3062696","2016-06-15 03:00","2016","06","15","03:00","14.1","","12.2","","88","","11","","21","","","","95.39","","","","","","NA"
"-111.21","56.65","FORT MCMURRAY CS","3062696","2016-06-15 04:00","2016","06","15","04:00","13.9","","12.4","","91","","10","","19","","","","95.30","","","","","","NA"
"-111.21","56.65","FORT MCMURRAY CS","3062696","2016-06-15 05:00","2016","06","15","05:00","13.7","","12.2","","91","","13","","23","","","","95.29","","","","","","NA"
"-111.21","56.65","FORT MCMURRAY CS","3062696","2016-06-15 06:00","2016","06","15","06:00","12.5","","11.2","","91","","9","","7","","","","95.23","","","","","","NA"
"-111.21","56.65","FORT MCMURRAY CS","3062696","2016-06-15 07:00","2016","06","15","07:00","12.7","","10.6","","87","","11","","11","","","","95.19","","","","","","NA"
"-111.21","56.65","FORT MCMURRAY CS","3062696","2016-06-15 08:00","2016","06","15","08:00","14.4","","11.1","","80","","13","","20","","","","95.13","","","","","","NA"
"-111.21","56.65","FORT MCMURRAY CS","3062696","2016-06-15 09:00","2016","06","15","09:00","14.3","","7.4","","63","","16","","39","","","","95.14","","","","","","NA"
"-111.21","56.65","FORT MCMURRAY CS","3062696","2016-06-15 10:00","2016","06","15","10:00","13.1","","5.1","","58","","18","","35","","","","95.25","","","","","","NA"
"-111.21","56.65","FORT MCMURRAY CS","3062696","2016-06-15 11:00","2016","06","15","11:00","13.9","","5.3","","56","","17","","37","","","","95.32","","","","","","NA"
"-111.21","56.65","FORT MCMURRAY CS","3062696","2016-06-15 12:00","2016","06","15","12:00","14.3","","5.2","","55","","18","","43","","","","95.42","","","","","","NA"
"-111.21","56.65","FORT MCMURRAY CS","3062696","2016-06-15 13:00","2016","06","15","13:00","13.8","","5.1","","56","","19","","45","","","","95.53","","","","","","NA"
"-111.21","56.65","FORT MCMURRAY CS","3062696","2016-06-15 14:00","2016","06","15","14:00","15.7","","4.4","","47","","19","","38","","","","95.59","","","","","","NA"
"-111.21","56.65","FORT MCMURRAY CS","3062696","2016-06-15 15:00","2016","06","15","15:00","15.7","","3.3","","44","","20","","28","","","","95.64","","","","","","NA"
"-111.21","56.65","FORT MCMURRAY CS","3062696","2016-06-15 16:00","2016","06","15","16:00","15.5","","4.7","","49","","20","","25","","","","95.67","","","","","","NA"
"-111.21","56.65","FORT MCMURRAY CS","3062696","2016-06-15 17:00","2016","06","15","17:00","18.3","","4.3","","40","","21","","13","","","","95.62","","","","","","NA"
"-111.21","56.65","FORT MCMURRAY CS","3062696","2016-06-15 18:00","2016","06","15","18:00","18.1","","2.0","","34","","17","","30","","","","95.60","","","","","","NA"
"-111.21","56.65","FORT MCMURRAY CS","3062696","2016-06-15 19:00","2016","06","15","19:00","14.8","","4.1","","49","","12","","14","","","","95.61","","","","","","NA"
"-111.21","56.65","FORT MCMURRAY CS","3062696","2016-06-15 20:00","2016","06","15","20:00","14.1","","5.9","","58","","12","","12","","","","95.60","","","","","","NA"
"-111.21","56.65","FORT MCMURRAY CS","3062696","2016-06-15 21:00","2016","06","15","21:00","12.2","","5.7","","65","","14","","31","","","","95.63","","","","","","NA"
"-111.21","56.65","FORT MCMURRAY CS","3062696","2016-06-15 22:00","2016","06","15","22:00","9.5","","6.5","","81","","17","","10","","","","95.74","","","","","","NA"
"-111.21","56.65","FORT MCMURRAY CS","3062696","2016-06-15 23:00","2016","06","15","23:00","8.8","","6.3","","85","","17","","12","","","","95.73","","","","","","NA"
"-111.21","56.65","FORT MCMURRAY CS","3062696","2016-06-16 00:00","2016","06","16","00:00","8.2","","5.5","","83","","13","","10","","","","95.71","","","","","","NA"
"-111.21","56.65","FORT MCMURRAY CS","3062696","2016-06-16 01:00","2016","06","16","01:00","8.5","","4.2","","74","","16","","14","","","","95.73","","","","","","NA"
"-111.21","56.65","FORT MCMURRAY CS","3062696","2016-06-16 02:00","2016","06","16","02:00","9.6","","3.3","","64","","18","","16","","","","95.75","","","","","","NA"
"-111.21","56.65","FORT MCMURRAY CS","3062696","2016-06-16 03:00","2016","06","16","03:00","9.7","","2.8","","62","","16","","17","","","","95.76","","","","","","NA"
"-111.21","56.65","FORT MCMURRAY CS","3062696","2016-06-16 04:00","2016","06","16","04:00","8.1","","2.8","","69","","15","","16","","","","95.77","","","","","","NA"
"-111.21","56.65","FORT MCMURRAY CS","3062696","2016-06-16 05:00","2016","06","16","05:00","9.4","","3.0","","64","","14","","16","","","","95.82","","","","","","NA"
"-111.21","56.65","FORT MCMURRAY CS","3062696","2016-06-16 06:00","2016","06","16","06:00","11.6","","3.5","","58","","15","","13","","","","95.84","","","","","","NA"
"-111.21","56.65","FORT MCMURRAY CS","3062696","2016-06-16 07:00","2016","06","16","07:00","13.4","","3.0","","49","","17","","20","","","","95.84","","","","","","NA"
"-111.21","56.65","FORT MCMURRAY CS","3062696","2016-06-16 08:00","2016","06","16","08:00","15.8","","3.4","","44","","18","","20","","","","95.84","","","","","","NA"
"-111.21","56.65","FORT MCMURRAY CS","3062696","2016-06-16 09:00","2016","06","16","09:00","17.6","","3.7","","40","","22","","25","","","","95.84","","","","","","NA"
"-111.21","56.65","FORT MCMURRAY CS","3062696","2016-06-16 10:00","2016","06","16","10:00","17.8","","2.2","","35","","22","","26","","","","95.82","","","","","","NA"
"-111.21","56.65","FORT MCMURRAY CS","3062696","2016-06-16 11:00","2016","06","16","11:00","19.2","","2.7","","33","","22","","23","","","","95.79","","","","","","NA"
"-111.21","56.65","FORT MCMURRAY CS","3062696","2016-06-16 12:00","2016","06","16","12:00","18.3","","3.7","","38","","23","","23","","","","95.77","","","","","","NA"
"-111.21","56.65","FORT MCMURRAY CS","3062696","2016-06-16 13:00","2016","06","16","13:00","17.9","","3.4","","38","","24","","23","","","","95.79","","","","","","NA"
"-111.21","56.65","FORT MCMURRAY CS","3062696","2016-06-16 14:00","2016","06","16","14:00","17.7","","4.8","","43","","22","","18","","","","95.80","","","","","","NA"
"-111.21","56.65","FORT MCMURRAY CS","3062696","2016-06-16 15:00","2016","06","16","15:00","17.8","","4.4","","41","","24","","21","","","","95.79","","","","","","NA"
"-111.21","56.65","FORT MCMURRAY CS","3062696","2016-06-16 16:00","2016","06","16","16:00","18.1","","3.1","","37","","23","","18","","","","95.77","","","","","","NA"
"-111.21","56.65","FORT MCMURRAY CS","3062696","2016-06-16 17:00","2016","06","16","17:00","17.7","","5.0","","43","","23","","17","","","","95.75","","","","","","NA"
"-111.21","56.65","FORT MCMURRAY CS","3062696","2016-06-16 18:00","2016","06","16","18:00","17.1","","3.5","","41","","23","","22","","","","95.74","","","","","","NA"
"-111.21","56.65","FORT MCMURRAY CS","3062696","2016-06-16 19:00","2016","06","16","19:00","16.2","","5.2","","48","","25","","13","","","","95.72","","","","","","NA"
"-111.21","56.65","FORT MCMURRAY CS","3062696","2016-06-16 20:00","2016","06","16","20:00","14.2","","6.8","","61","","19","","7","","","","95.69","","","","","","NA"
"-111.21","56.65","FORT MCMURRAY CS","3062696","2016-06-16 21:00","2016","06","16","21:00","14.8","","5.8","","55","","25","","11","","","","95.70","","","","","","NA"
"-111.21","56.65","FORT MCMURRAY CS","3062696","2016-06-16 22:00","2016","06","16","22:00","14.1","","6.7","","61","","25","","18","","","","95.70","","","","","","NA"
"-111.21","56.65","FORT MCMURRAY CS","3062696","2016-06-16 23:00","2016","06","16","23:00","12.9","","7.2","","68","","25","","15","","","","95.70","","","","","","NA"
"-111.21","56.65","FORT MCMURRAY CS","3062696","2016-06-17 00:00","2016","06","17","00:00","11.8","","7.5","","75","","24","","14","","","","95.70","","","","","","NA"
"-111.21","56.65","FORT MCMURRAY CS","3062696","2016-06-17 01:00","2016","06","17","01:00","11.2","","7.4","","78","","24","","16","","","","95.71","","","","","","NA"
"-111.21","56.65","FORT MCMURRAY CS","3062696","2016-06-17 02:00","2016","06","17","02:00","10.6","","7.5","","82","","24","","13","","","","95.71","","","","","","NA"
"-111.21","56.65","FORT MCMURRAY CS","3062696","2016-06-17 03:00","2016","06","17","03:00","10.4","","7.6","","83","","24","","10","","","","95.73","","","","","","NA"
"-111.21","56.65","FORT MCMURRAY CS","3062696","2016-06-17 04:00","2016","06","17","04:00","9.8","","8.1","","89","","22","","10","","","","95.75","","","","","","NA"
"-111.21","56.65","FORT MCMURRAY CS","3062696","2016-06-17 05:00","2016","06","17","05:00","10.1","","8.5","","90","","23","","9","","","","95.79","","","","","","NA"
"-111.21","56.65","FORT MCMURRAY CS","3062696","2016-06-17 06:00","2016","06","17","06:00","10.8","","8.6","","86","","26","","13","","","","95.83","","","","","","NA"
"-111.21","56.65","FORT MCMURRAY CS","3062696","2016-06-17 07:00","2016","06","17","07:00","11.3","","9.1","","87","","28","","16","","","","95.88","","","","","","NA"
"-111.21","56.65","FORT MCMURRAY CS","3062696","2016-06-17 08:00","2016","06","17","08:00","11.9","","9.1","","83","","27","","16","","","","95.95","","","","","","NA"
"-111.21","56.65","FORT MCMURRAY CS","3062696","2016-06-17 09:00","2016","06","17","09:00","11.8","","9.0","","83","","30","","17","","","","96.05","","","","","","NA"
"-111.21","56.65","FORT MCMURRAY CS","3062696","2016-06-17 10:00","2016","06","17","10:00","11.7","","7.1","","74","","30","","30","","","","96.16","","","","","","NA"
"-111.21","56.65","FORT MCMURRAY CS","3062696","2016-06-17 11:00","2016","06","17","11:00","12.1","","9.0","","81","","31","","25","","","","96.30","","","","","","NA"
"-111.21","56.65","FORT MCMURRAY CS","3062696","2016-06-17 12:00","2016","06","17","12:00","11.7","","6.9","","73","","32","","21","","","","96.38","","","","","","NA"
"-111.21","56.65","FORT MCMURRAY CS","3062696","2016-06-17 13:00","2016","06","17","13:00","13.8","","7.1","","64","","30","","20","","","","96.43","","","","","","NA"
"-111.21","56.65","FORT MCMURRAY CS","3062696","2016-06-17 14:00","2016","06","17","14:00","15.7","","6.8","","55","","30","","23","","","","96.47","","","","","","NA"
"-111.21","56.65","FORT MCMURRAY CS","3062696","2016-06-17 15:00","2016","06","17","15:00","15.9","","5.0","","48","","30","","20","","","","96.51","","","","","","NA"
"-111.21","56.65","FORT MCMURRAY CS","3062696","2016-06-17 16:00","2016","06","17","16:00","18.1","","3.5","","38","","30","","22","","","","96.49","","","","","","NA"
"-111.21","56.65","FORT MCMURRAY CS","3062696","2016-06-17 17:00","2016","06","17","17:00","18.1","","2.3","","35","","29","","21","","","","96.46","","","","","","NA"
"-111.21","56.65","FORT MCMURRAY CS","3062696","2016-06-17 18:00","2016","06","17","18:00","18.3","","1.6","","33","","26","","21","","","","96.45","","","","","","NA"
"-111.21","56.65","FORT MCMURRAY CS","3062696","2016-06-17 19:00","2016","06","17","19:00","18.0","","1.8","","34","","26","","22","","","","96.41","","","","","","NA"
"-111.21","56.65","FORT MCMURRAY CS","3062696","2016-06-17 20:00","2016","06","17","20:00","16.7","","4.0","","43","","24","","14","","","","96.39","","","","","","NA"
"-111.21","56.65","FORT MCMURRAY CS","3062696","2016-06-17 21:00","2016","06","17","21:00","16.0","","4.3","","46","","24","","18","","","","96.40","","","","","","NA"
"-111.21","56.65","FORT MCMURRAY CS","3062696","2016-06-17 22:00","2016","06","17","22:00","15.6","","5.6","","51","","24","","19","","","","96.38","","","","","","NA"
"-111.21","56.65","FORT MCMURRAY CS","3062696","2016-06-17 23:00","2016","06","17","23:00","11.7","","9.3","","86","","32","","15","","","","96.57","","","","","","NA"
"-111.21","56.65","FORT MCMURRAY CS","3062696","2016-06-18 00:00","2016","06","18","00:00","10.9","","9.5","","91","","33","","12","","","","96.66","","","","","","NA"
"-111.21","56.65","FORT MCMURRAY CS","3062696","2016-06-18 01:00","2016","06","18","01:00","9.9","","8.4","","90","","26","","5","","","","96.70","","","","","","NA"
"-111.21","56.65","FORT MCMURRAY CS","3062696","2016-06-18 02:00","2016","06","18","02:00","9.6","","8.1","","91","","28","","9","","","","96.77","","","","","","NA"
"-111.21","56.65","FORT MCMURRAY CS","3062696","2016-06-18 03:00","2016","06","18","03:00","8.8","","7.1","","89","","29","","8","","","","96.83","","","","","","NA"
"-111.21","56.65","FORT MCMURRAY CS","3062696","2016-06-18 04:00","2016","06","18","04:00","8.7","","6.4","","86","","28","","11","","","","96.88","","","","","","NA"
"-111.21","56.65","FORT MCMURRAY CS","3062696","2016-06-18 05:00","2016","06","18","05:00","8.6","","6.2","","84","","31","","14","","","","96.93","","","","","","NA"
"-111.21","56.65","FORT MCMURRAY CS","3062696","2016-06-18 06:00","2016","06","18","06:00","9.9","","6.3","","78","","31","","13","","","","96.99","","","","","","NA"
"-111.21","56.65","FORT MCMURRAY CS","3062696","2016-06-18 07:00","2016","06","18","07:00","10.0","","5.9","","75","","33","","14","","","","97.05","","","","","","NA"
"-111.21","56.65","FORT MCMURRAY CS","3062696","2016-06-18 08:00","2016","06","18","08:00","11.7","","5.2","","65","","29","","11","","","","97.07","","","","","","NA"
"-111.21","56.65","FORT MCMURRAY CS","3062696","2016-06-18 09:00","2016","06","18","09:00","12.2","","4.7","","60","","31","","12","","","","97.10","","","","","","NA"
"-111.21","56.65","FORT MCMURRAY CS","3062696","2016-06-18 10:00","2016","06","18","10:00","13.9","","1.1","","42","","29","","14","","","","97.10","","","","","","NA"
"-111.21","56.65","FORT MCMURRAY CS","3062696","2016-06-18 11:00","2016","06","18","11:00","15.1","","1.1","","38","","30","","12","","","","97.06","","","","","","NA"
"-111.21","56.65","FORT MCMURRAY CS","3062696","2016-06-18 12:00","2016","06","18","12:00","14.8","","0.7","","38","","28","","11","","","","97.04","","","","","","NA"
"-111.21","56.65","FORT MCMURRAY CS","3062696","2016-06-18 13:00","2016","06","18","13:00","15.7","","1.8","","39","","35","","12","","","","96.98","","","","","","NA"
"-111.21","56.65","FORT MCMURRAY CS","3062696","2016-06-18 14:00","2016","06","18","14:00","17.6","","2.4","","36","","35","","14","","","","96.92","","","","","","NA"
"-111.21","56.65","FORT MCMURRAY CS","3062696","2016-06-18 15:00","2016","06","18","15:00","17.9","","3.6","","39","","4","","6","","","","96.84","","","","","","NA"
"-111.21","56.65","FORT MCMURRAY CS","3062696","2016-06-18 16:00","2016","06","18","16:00","19.1","","2.0","","32","","33","","7","","","","96.81","","","","","","NA"
"-111.21","56.65","FORT MCMURRAY CS","3062696","2016-06-18 17:00","2016","06","18","17:00","19.5","","-0.4","","26","","31","","5","","","","96.73","","","","","","NA"
"-111.21","56.65","FORT MCMURRAY CS","3062696","2016-06-18 18:00","2016","06","18","18:00","20.2","","0.3","","26","","29","","6","","","","96.68","","","","","","NA"
"-111.21","56.65","FORT MCMURRAY CS","3062696","2016-06-18 19:00","2016","06","18","19:00","19.4","","2.0","","31","","25","","8","","","","96.63","","","","","","NA"
"-111.21","56.65","FORT MCMURRAY CS","3062696","2016-06-18 20:00","2016","06","18","20:00","18.2","","2.7","","36","","23","","9","","","","96.58","","","","","","NA"
"-111.21","56.65","FORT MCMURRAY CS","3062696","2016-06-18 21:00","2016","06","18","21:00","16.4","","5.1","","47","","21","","9","","","","96.57","","","","","","NA"
"-111.21","56.65","FORT MCMURRAY CS","3062696","2016-06-18 22:00","2016","06","18","22:00","15.7","","7.6","","59","","22","","14","","","","96.51","","","","","","NA"
"-111.21","56.65","FORT MCMURRAY CS","3062696","2016-06-18 23:00","2016","06","18","23:00","11.8","","8.5","","80","","4","","16","","","","96.67","","","","","","NA"
"-111.21","56.65","FORT MCMURRAY CS","3062696","2016-06-19 00:00","2016","06","19","00:00","11.7","","8.9","","83","","25","","6","","","","96.74","","","","","","NA"
"-111.21","56.65","FORT MCMURRAY CS","3062696","2016-06-19 01:00","2016","06","19","01:00","10.5","","8.8","","90","","34","","7","","","","96.74","","","","","","NA"
"-111.21","56.65","FORT MCMURRAY CS","3062696","2016-06-19 02:00","2016","06","19","02:00","10.4","","7.7","","83","","32","","7","","","","96.73","","","","","","NA"
"-111.21","56.65","FORT MCMURRAY CS","3062696","2016-06-19 03:00","2016","06","19","03:00","10.2","","7.9","","86","","33","","9","","","","96.74","","","","","","NA"
"-111.21","56.65","FORT MCMURRAY CS","3062696","2016-06-19 04:00","2016","06","19","04:00","9.7","","7.5","","86","","32","","8","","","","96.77","","","","","","NA"
"-111.21","56.65","FORT MCMURRAY CS","3062696","2016-06-19 05:00","2016","06","19","05:00","9.7","","7.2","","84","","33","","5","","","","96.77","","","","","","NA"
"-111.21","56.65","FORT MCMURRAY CS","3062696","2016-06-19 06:00","2016","06","19","06:00","11.0","","6.8","","75","","25","","4","","","","96.79","","","","","","NA"
"-111.21","56.65","FORT MCMURRAY CS","3062696","2016-06-19 07:00","2016","06","19","07:00","13.0","","6.4","","64","","29","","10","","","","96.77","","","","","","NA"
"-111.21","56.65","FORT MCMURRAY CS","3062696","2016-06-19 08:00","2016","06","19","08:00","14.5","","5.5","","55","","27","","13","","","","96.78","","","","","","NA"
"-111.21","56.65","FORT MCMURRAY CS","3062696","2016-06-19 09:00","2016","06","19","09:00","15.4","","4.5","","48","","34","","16","","","","96.79","","","","","","NA"
"-111.21","56.65","FORT MCMURRAY CS","3062696","2016-06-19 10:00","2016","06","19","10:00","15.8","","5.4","","50","","34","","14","","","","96.80","","","","","","NA"
"-111.21","56.65","FORT MCMURRAY CS","3062696","2016-06-19 11:00","2016","06","19","11:00","16.2","","2.4","","39","","35","","24","","","","96.82","","","","","","NA"
"-111.21","56.65","FORT MCMURRAY CS","3062696","2016-06-19 12:00","2016","06","19","12:00","17.7","","2.3","","35","","34","","22","","","","96.84","","","","","","NA"
"-111.21","56.65","FORT MCMURRAY CS","3062696","2016-06-19 13:00","2016","06","19","13:00","18.8","","1.3","","31","","33","","21","","","","96.82","","","","","","NA"
"-111.21","56.65","FORT MCMURRAY CS","3062696","2016-06-19 14:00","2016","06","19","14:00","19.8","","-1.0","","25","","33","","23","","","","96.84","","","","","","NA"
"-111.21","56.65","FORT MCMURRAY CS","3062696","2016-06-19 15:00","2016","06","19","15:00","19.2","","-1.2","","25","","34","","32","","","","96.91","","","","","","NA"
"-111.21","56.65","FORT MCMURRAY CS","3062696","2016-06-19 16:00","2016","06","19","16:00","19.2","","-3.0","","22","","33","","24","","","","96.96","","","","","","NA"
"-111.21","56.65","FORT MCMURRAY CS","3062696","2016-06-19 17:00","2016","06","19","17:00","19.0","","-2.0","","24","","36","","23","","","","97.01","","","","","","NA"
"-111.21","56.65","FORT MCMURRAY CS","3062696","2016-06-19 18:00","2016","06","19","18:00","18.9","","-2.7","","23","","35","","26","","","","97.07","","","","","","NA"
"-111.21","56.65","FORT MCMURRAY CS","3062696","2016-06-19 19:00","2016","06","19","19:00","17.9","","-2.8","","24","","1","","23","","","","97.14","","","","","","NA"
"-111.21","56.65","FORT MCMURRAY CS","3062696","2016-06-19 20:00","2016","06","19","20:00","16.8","","-1.1","","30","","1","","17","","","","97.20","","","","","","NA"
"-111.21","56.65","FORT MCMURRAY CS","3062696","2016-06-19 21:00","2016","06","19","21:00","15.3","","-0.4","","34","","35","","9","","","","97.27","","","","","","NA"
"-111.21","56.65","FORT MCMURRAY CS","3062696","2016-06-19 22:00","2016","06","19","22:00","13.9","","1.4","","42","","32","","7","","","","97.32","","","","","","NA"
"-111.21","56.65","FORT MCMURRAY CS","3062696","2016-06-19 23:00","2016","06","19","23:00","9.0","","3.7","","70","","30","","2","","","","97.37","","","","","","NA"
"-111.21","56.65","FORT MCMURRAY CS","3062696","2016-06-20 00:00","2016","06","20","00:00","5.5","","2.1","","79","","22","","5","","","","97.41","","","","","","NA"
"-111.21","56.65","FORT MCMURRAY CS","3062696","2016-06-20 01:00","2016","06","20","01:00","4.1","","1.4","","82","","22","","8","","","","97.47","","","","","","NA"
"-111.21","56.65","FORT MCMURRAY CS","3062696","2016-06-20 02:00","2016","06","20","02:00","4.9","","1.5","","79","","22","","10","","","","97.50","","","","","","NA"
"-111.21","56.65","FORT MCMURRAY CS","3062696","2016-06-20 03:00","2016","06","20","03:00","4.9","","1.5","","79","","24","","5","","","","97.52","","","","","","NA"
"-111.21","56.65","FORT MCMURRAY CS","3062696","2016-06-20 04:00","2016","06","20","04:00","5.1","","1.5","","78","","20","","2","","","","97.55","","","","","","NA"
"-111.21","56.65","FORT MCMURRAY CS","3062696","2016-06-20 05:00","2016","06","20","05:00","5.0","","1.5","","78","","21","","6","","","","97.57","","","","","","NA"
"-111.21","56.65","FORT MCMURRAY CS","3062696","2016-06-20 06:00","2016","06","20","06:00","8.4","","1.4","","61","","25","","5","","","","97.59","","","","","","NA"
"-111.21","56.65","FORT MCMURRAY CS","3062696","2016-06-20 07:00","2016","06","20","07:00","11.4","","1.8","","52","","30","","3","","","","97.63","","","","","","NA"
"-111.21","56.65","FORT MCMURRAY CS","3062696","2016-06-20 08:00","2016","06","20","08:00","14.4","","1.6","","42","","0","","1","","","","97.62","","","","","","NA"
"-111.21","56.65","FORT MCMURRAY CS","3062696","2016-06-20 09:00","2016","06","20","09:00","16.5","","0.3","","33","","29","","4","","","","97.61","","","","","","NA"
"-111.21","56.65","FORT MCMURRAY CS","3062696","2016-06-20 10:00","2016","06","20","10:00","18.2","","-1.2","","27","","34","","12","","","","97.58","","","","","","NA"
"-111.21","56.65","FORT MCMURRAY CS","3062696","2016-06-20 11:00","2016","06","20","11:00","19.8","","-0.6","","25","","32","","7","","","","97.54","","","","","","NA"
"-111.21","56.65","FORT MCMURRAY CS","3062696","2016-06-20 12:00","2016","06","20","12:00","21.2","","1.0","","26","","33","","2","","","","97.50","","","","","","NA"
"-111.21","56.65","FORT MCMURRAY CS","3062696","2016-06-20 13:00","2016","06","20","13:00","21.7","","-4.6","","17","","36","","5","","","","97.47","","","","","","NA"
"-111.21","56.65","FORT MCMURRAY CS","3062696","2016-06-20 14:00","2016","06","20","14:00","22.9","","-5.6","","14","","15","","3","","","","97.40","","","","","","NA"
"-111.21","56.65","FORT MCMURRAY CS","3062696","2016-06-20 15:00","2016","06","20","15:00","23.8","","-1.7","","18","","36","","6","","","","97.32","","","","","","NA"
"-111.21","56.65","FORT MCMURRAY CS","3062696","2016-06-20 16:00","2016","06","20","16:00","24.3","","-5.6","","13","","16","","3","","","","97.28","","","","","","NA"
"-111.21","56.65","FORT MCMURRAY CS","3062696","2016-06-20 17:00","2016","06","20","17:00","24.7","","-4.3","","14","","36","","5","","","","97.22","","","","","","NA"
"-111.21","56.65","FORT MCMURRAY CS","3062696","2016-06-20 18:00","2016","06","20","18:00","24.8","","-3.2","","15","","12","","1","","","","97.18","","","","","","NA"
"-111.21","56.65","FORT MCMURRAY CS","3062696","2016-06-20 19:00","2016","06","20","19:00","24.0","","-1.1","","19","","9","","5","","","","97.13","","","","","","NA"
"-111.21","56.65","FORT MCMURRAY CS","3062696","2016-06-20 20:00","2016","06","20","20:00","22.5","","0.5","","23","","14","","9","","","","97.10","","","","","","NA"
"-111.21","56.65","FORT MCMURRAY CS","3062696","2016-06-20 21:00","2016","06","20","21:00","19.3","","0.7","","29","","14","","12","","","","97.08","","","","","","NA"
"-111.21","56.65","FORT MCMURRAY CS","3062696","2016-06-20 22:00","2016","06","20","22:00","16.1","","-0.2","","33","","15","","15","","","","97.07","","","","","","NA"
"-111.21","56.65","FORT MCMURRAY CS","3062696","2016-06-20 23:00","2016","06","20","23:00","14.3","","0.6","","39","","17","","15","","","","97.04","","","","","","NA"
"-111.21","56.65","FORT MCMURRAY CS","3062696","2016-06-21 00:00","2016","06","21","00:00","13.7","","2.6","","47","","11","","4","","","","97.02","","","","","","NA"
"-111.21","56.65","FORT MCMURRAY CS","3062696","2016-06-21 01:00","2016","06","21","01:00","12.1","","1.2","","47","","9","","7","","","","97.00","","","","","","NA"
"-111.21","56.65","FORT MCMURRAY CS","3062696","2016-06-21 02:00","2016","06","21","02:00","11.8","","2.6","","53","","9","","9","","","","96.99","","","","","","NA"
"-111.21","56.65","FORT MCMURRAY CS","3062696","2016-06-21 03:00","2016","06","21","03:00","10.2","","2.5","","59","","10","","9","","","","96.99","","","","","","NA"
"-111.21","56.65","FORT MCMURRAY CS","3062696","2016-06-21 04:00","2016","06","21","04:00","7.8","","2.9","","71","","14","","6","","","","96.97","","","","","","NA"
"-111.21","56.65","FORT MCMURRAY CS","3062696","2016-06-21 05:00","2016","06","21","05:00","10.8","","3.0","","58","","12","","3","","","","96.96","","","","","","NA"
"-111.21","56.65","FORT MCMURRAY CS","3062696","2016-06-21 06:00","2016","06","21","06:00","14.5","","3.4","","47","","9","","5","","","","96.94","","","","","","NA"
"-111.21","56.65","FORT MCMURRAY CS","3062696","2016-06-21 07:00","2016","06","21","07:00","15.6","","5.6","","51","","8","","5","","","","96.93","","","","","","NA"
"-111.21","56.65","FORT MCMURRAY CS","3062696","2016-06-21 08:00","2016","06","21","08:00","19.7","","6.1","","41","","3","","4","","","","96.90","","","","","","NA"
"-111.21","56.65","FORT MCMURRAY CS","3062696","2016-06-21 09:00","2016","06","21","09:00","23.2","","3.2","","27","","30","","7","","","","96.87","","","","","","NA"
"-111.21","56.65","FORT MCMURRAY CS","3062696","2016-06-21 10:00","2016","06","21","10:00","24.8","","1.0","","21","","22","","16","","","","96.84","","","","","","NA"
"-111.21","56.65","FORT MCMURRAY CS","3062696","2016-06-21 11:00","2016","06","21","11:00","25.8","","-0.4","","18","","21","","13","","","","96.81","","","","","","NA"
"-111.21","56.65","FORT MCMURRAY CS","3062696","2016-06-21 12:00","2016","06","21","12:00","26.6","","-1.0","","16","","22","","11","","","","96.79","","","","","","NA"
"-111.21","56.65","FORT MCMURRAY CS","3062696","2016-06-21 13:00","2016","06","21","13:00","27.0","","0.0","","17","","35","","3","","","","96.74","","25","","","","NA"
"-111.21","56.65","FORT MCMURRAY CS","3062696","2016-06-21 14:00","2016","06","21","14:00","27.5","","-4.1","","12","","8","","6","","","","96.68","","","","","","NA"
"-111.21","56.65","FORT MCMURRAY CS","3062696","2016-06-21 15:00","2016","06","21","15:00","27.3","","-1.9","","15","","12","","9","","","","96.64","","25","","","","NA"
"-111.21","56.65","FORT MCMURRAY CS","3062696","2016-06-21 16:00","2016","06","21","16:00","27.0","","-3.2","","14","","4","","10","","","","96.59","","","","","","NA"
"-111.21","56.65","FORT MCMURRAY CS","3062696","2016-06-21 17:00","2016","06","21","17:00","27.7","","-1.0","","15","","8","","11","","","","96.53","","25","","","","NA"
"-111.21","56.65","FORT MCMURRAY CS","3062696","2016-06-21 18:00","2016","06","21","18:00","27.6","","-2.4","","14","","9","","5","","","","96.53","","25","","","","NA"
"-111.21","56.65","FORT MCMURRAY CS","3062696","2016-06-21 19:00","2016","06","21","19:00","26.3","","-0.3","","17","","15","","10","","","","96.54","","","","","","NA"
"-111.21","56.65","FORT MCMURRAY CS","3062696","2016-06-21 20:00","2016","06","21","20:00","24.5","","0.8","","21","","18","","17","","","","96.56","","","","","","NA"
"-111.21","56.65","FORT MCMURRAY CS","3062696","2016-06-21 21:00","2016","06","21","21:00","21.7","","1.8","","27","","19","","9","","","","96.59","","","","","","NA"
"-111.21","56.65","FORT MCMURRAY CS","3062696","2016-06-21 22:00","2016","06","21","22:00","17.5","","4.0","","41","","16","","8","","","","96.58","","","","","","NA"
"-111.21","56.65","FORT MCMURRAY CS","3062696","2016-06-21 23:00","2016","06","21","23:00","15.8","","3.4","","44","","10","","6","","","","96.61","","","","","","NA"
"-111.21","56.65","FORT MCMURRAY CS","3062696","2016-06-22 00:00","2016","06","22","00:00","13.9","","2.1","","45","","0","","1","","","","96.62","","","","","","NA"
"-111.21","56.65","FORT MCMURRAY CS","3062696","2016-06-22 01:00","2016","06","22","01:00","13.8","","5.4","","57","","34","","3","","","","96.64","","","","","","NA"
"-111.21","56.65","FORT MCMURRAY CS","3062696","2016-06-22 02:00","2016","06","22","02:00","12.1","","5.8","","65","","28","","2","","","","96.63","","","","","","NA"
"-111.21","56.65","FORT MCMURRAY CS","3062696","2016-06-22 03:00","2016","06","22","03:00","11.6","","4.4","","61","","24","","5","","","","96.63","","","","","","NA"
"-111.21","56.65","FORT MCMURRAY CS","3062696","2016-06-22 04:00","2016","06","22","04:00","9.9","","5.2","","73","","12","","2","","","","96.65","","","","","","NA"
"-111.21","56.65","FORT MCMURRAY CS","3062696","2016-06-22 05:00","2016","06","22","05:00","9.9","","4.0","","67","","13","","7","","","","96.68","","","","","","NA"
"-111.21","56.65","FORT MCMURRAY CS","3062696","2016-06-22 06:00","2016","06","22","06:00","14.7","","5.7","","55","","11","","4","","","","96.71","","","","","","NA"
"-111.21","56.65","FORT MCMURRAY CS","3062696","2016-06-22 07:00","2016","06","22","07:00","17.4","","6.3","","48","","25","","4","","","","96.72","","","","","","NA"
"-111.21","56.65","FORT MCMURRAY CS","3062696","2016-06-22 08:00","2016","06","22","08:00","20.6","","7.4","","43","","19","","3","","","","96.69","","","","","","NA"
"-111.21","56.65","FORT MCMURRAY CS","3062696","2016-06-22 09:00","2016","06","22","09:00","23.0","","8.4","","39","","3","","5","","","","96.67","","","","","","NA"
"-111.21","56.65","FORT MCMURRAY CS","3062696","2016-06-22 10:00","2016","06","22","10:00","25.0","","6.9","","31","","5","","4","","","","96.65","","25","","","","NA"
"-111.21","56.65","FORT MCMURRAY CS","3062696","2016-06-22 11:00","2016","06","22","11:00","26.8","","3.4","","22","","14","","4","","","","96.63","","26","","","","NA"
"-111.21","56.65","FORT MCMURRAY CS","3062696","2016-06-22 12:00","2016","06","22","12:00","26.3","","4.1","","24","","30","","5","","","","96.60","","25","","","","NA"
"-111.21","56.65","FORT MCMURRAY CS","3062696","2016-06-22 13:00","2016","06","22","13:00","27.4","","0.8","","18","","2","","5","","","","96.56","","25","","","","NA"
"-111.21","56.65","FORT MCMURRAY CS","3062696","2016-06-22 14:00","2016","06","22","14:00","26.7","","5.0","","25","","21","","13","","","","96.55","","26","","","","NA"
"-111.21","56.65","FORT MCMURRAY CS","3062696","2016-06-22 15:00","2016","06","22","15:00","27.2","","5.9","","26","","20","","9","","","","96.53","","27","","","","NA"
"-111.21","56.65","FORT MCMURRAY CS","3062696","2016-06-22 16:00","2016","06","22","16:00","27.9","","4.1","","22","","21","","8","","","","96.51","","27","","","","NA"
"-111.21","56.65","FORT MCMURRAY CS","3062696","2016-06-22 17:00","2016","06","22","17:00","26.7","","5.0","","25","","23","","25","","","","96.50","","26","","","","NA"
"-111.21","56.65","FORT MCMURRAY CS","3062696","2016-06-22 18:00","2016","06","22","18:00","25.4","","5.5","","28","","24","","28","","","","96.53","","25","","","","NA"
"-111.21","56.65","FORT MCMURRAY CS","3062696","2016-06-22 19:00","2016","06","22","19:00","24.3","","5.5","","30","","24","","16","","","","96.55","","","","","","NA"
"-111.21","56.65","FORT MCMURRAY CS","3062696","2016-06-22 20:00","2016","06","22","20:00","22.7","","6.1","","34","","24","","8","","","","96.57","","","","","","NA"
"-111.21","56.65","FORT MCMURRAY CS","3062696","2016-06-22 21:00","2016","06","22","21:00","20.7","","6.9","","41","","29","","7","","","","96.58","","","","","","NA"
"-111.21","56.65","FORT MCMURRAY CS","3062696","2016-06-22 22:00","2016","06","22","22:00","19.7","","7.2","","44","","26","","10","","","","96.61","","","","","","NA"
"-111.21","56.65","FORT MCMURRAY CS","3062696","2016-06-22 23:00","2016","06","22","23:00","16.0","","8.2","","60","","23","","11","","","","96.60","","","","","","NA"
"-111.21","56.65","FORT MCMURRAY CS","3062696","2016-06-23 00:00","2016","06","23","00:00","15.5","","9.4","","67","","21","","8","","","","96.60","","","","","","NA"
"-111.21","56.65","FORT MCMURRAY CS","3062696","2016-06-23 01:00","2016","06","23","01:00","16.4","","10.0","","66","","24","","9","","","","96.59","","","","","","NA"
"-111.21","56.65","FORT MCMURRAY CS","3062696","2016-06-23 02:00","2016","06","23","02:00","13.5","","8.7","","73","","24","","7","","","","96.57","","","","","","NA"
"-111.21","56.65","FORT MCMURRAY CS","3062696","2016-06-23 03:00","2016","06","23","03:00","12.9","","8.9","","77","","19","","12","","","","96.53","","","","","","NA"
"-111.21","56.65","FORT MCMURRAY CS","3062696","2016-06-23 04:00","2016","06","23","04:00","13.8","","9.7","","76","","25","","5","","","","96.54","","","","","","NA"
"-111.21","56.65","FORT MCMURRAY CS","3062696","2016-06-23 05:00","2016","06","23","05:00","13.6","","9.2","","74","","25","","6","","","","96.56","","","","","","NA"
"-111.21","56.65","FORT MCMURRAY CS","3062696","2016-06-23 06:00","2016","06","23","06:00","14.3","","10.1","","76","","25","","6","","","","96.55","","","","","","NA"
"-111.21","56.65","FORT MCMURRAY CS","3062696","2016-06-23 07:00","2016","06","23","07:00","15.1","","10.4","","74","","23","","9","","","","96.54","","","","","","NA"
"-111.21","56.65","FORT MCMURRAY CS","3062696","2016-06-23 08:00","2016","06","23","08:00","17.7","","10.4","","62","","24","","3","","","","96.51","","","","","","NA"
"-111.21","56.65","FORT MCMURRAY CS","3062696","2016-06-23 09:00","2016","06","23","09:00","19.2","","10.8","","58","","29","","7","","","","96.51","","","","","","NA"
"-111.21","56.65","FORT MCMURRAY CS","3062696","2016-06-23 10:00","2016","06","23","10:00","21.1","","10.3","","50","","29","","6","","","","96.49","","","","","","NA"
"-111.21","56.65","FORT MCMURRAY CS","3062696","2016-06-23 11:00","2016","06","23","11:00","22.7","","10.4","","46","","26","","8","","","","96.45","","","","","","NA"
"-111.21","56.65","FORT MCMURRAY CS","3062696","2016-06-23 12:00","2016","06","23","12:00","23.7","","11.4","","46","","26","","9","","","","96.41","","26","","","","NA"
"-111.21","56.65","FORT MCMURRAY CS","3062696","2016-06-23 13:00","2016","06","23","13:00","24.9","","10.3","","40","","33","","14","","","","96.38","","26","","","","NA"
"-111.21","56.65","FORT MCMURRAY CS","3062696","2016-06-23 14:00","2016","06","23","14:00","25.2","","9.7","","38","","31","","10","","","","96.34","","26","","","","NA"
"-111.21","56.65","FORT MCMURRAY CS","3062696","2016-06-23 15:00","2016","06","23","15:00","25.5","","9.7","","37","","1","","13","","","","96.30","","27","","","","NA"
"-111.21","56.65","FORT MCMURRAY CS","3062696","2016-06-23 16:00","2016","06","23","16:00","24.7","","8.4","","35","","31","","16","","","","96.29","","25","","","","NA"
"-111.21","56.65","FORT MCMURRAY CS","3062696","2016-06-23 17:00","2016","06","23","17:00","23.9","","10.6","","43","","36","","16","","","","96.29","","25","","","","NA"
"-111.21","56.65","FORT MCMURRAY CS","3062696","2016-06-23 18:00","2016","06","23","18:00","24.8","","8.2","","35","","3","","14","","","","96.28","","25","","","","NA"
"-111.21","56.65","FORT MCMURRAY CS","3062696","2016-06-23 19:00","2016","06","23","19:00","22.3","","10.0","","46","","9","","16","","","","96.27","","","","","","NA"
"-111.21","56.65","FORT MCMURRAY CS","3062696","2016-06-23 20:00","2016","06","23","20:00","19.9","","10.5","","55","","14","","9","","","","96.29","","","","","","NA"
"-111.21","56.65","FORT MCMURRAY CS","3062696","2016-06-23 21:00","2016","06","23","21:00","18.4","","11.5","","64","","7","","5","","","","96.32","","","","","","NA"
"-111.21","56.65","FORT MCMURRAY CS","3062696","2016-06-23 22:00","2016","06","23","22:00","15.8","","10.9","","73","","11","","6","","","","96.30","","","","","","NA"
"-111.21","56.65","FORT MCMURRAY CS","3062696","2016-06-23 23:00","2016","06","23","23:00","14.9","","11.6","","81","","13","","7","","","","96.25","","","","","","NA"
"-111.21","56.65","FORT MCMURRAY CS","3062696","2016-06-24 00:00","2016","06","24","00:00","15.1","","11.2","","78","","31","","4","","","","96.27","","","","","","NA"
"-111.21","56.65","FORT MCMURRAY CS","3062696","2016-06-24 01:00","2016","06","24","01:00","15.7","","11.3","","75","","34","","6","","","","96.27","","","","","","NA"
"-111.21","56.65","FORT MCMURRAY CS","3062696","2016-06-24 02:00","2016","06","24","02:00","13.8","","10.3","","79","","11","","6","","","","96.23","","","","","","NA"
"-111.21","56.65","FORT MCMURRAY CS","3062696","2016-06-24 03:00","2016","06","24","03:00","14.7","","10.4","","75","","5","","6","","","","96.19","","","","","","NA"
"-111.21","56.65","FORT MCMURRAY CS","3062696","2016-06-24 04:00","2016","06","24","04:00","13.2","","9.9","","81","","28","","5","","","","96.22","","","","","","NA"
"-111.21","56.65","FORT MCMURRAY CS","3062696","2016-06-24 05:00","2016","06","24","05:00","13.1","","10.3","","83","","2","","5","","","","96.20","","","","","","NA"
"-111.21","56.65","FORT MCMURRAY CS","3062696","2016-06-24 06:00","2016","06","24","06:00","14.3","","10.5","","78","","33","","8","","","","96.18","","","","","","NA"
"-111.21","56.65","FORT MCMURRAY CS","3062696","2016-06-24 07:00","2016","06","24","07:00","15.5","","10.6","","72","","1","","6","","","","96.17","","","","","","NA"
"-111.21","56.65","FORT MCMURRAY CS","3062696","2016-06-24 08:00","2016","06","24","08:00","16.3","","10.5","","69","","35","","3","","","","96.19","","","","","","NA"
"-111.21","56.65","FORT MCMURRAY CS","3062696","2016-06-24 09:00","2016","06","24","09:00","17.7","","10.8","","64","","28","","11","","","","96.18","","","","","","NA"
"-111.21","56.65","FORT MCMURRAY CS","3062696","2016-06-24 10:00","2016","06","24","10:00","19.1","","11.4","","61","","32","","12","","","","96.18","","","","","","NA"
"-111.21","56.65","FORT MCMURRAY CS","3062696","2016-06-24 11:00","2016","06","24","11:00","20.8","","12.8","","60","","32","","13","","","","96.16","","","","","","NA"
"-111.21","56.65","FORT MCMURRAY CS","3062696","2016-06-24 12:00","2016","06","24","12:00","20.4","","12.3","","60","","31","","17","","","","96.13","","","","","","NA"
"-111.21","56.65","FORT MCMURRAY CS","3062696","2016-06-24 13:00","2016","06","24","13:00","17.9","","11.9","","68","","24","","6","","","","96.12","","","","","","NA"
"-111.21","56.65","FORT MCMURRAY CS","3062696","2016-06-24 14:00","2016","06","24","14:00","16.1","","13.1","","83","","31","","14","","","","96.15","","","","","","NA"
"-111.21","56.65","FORT MCMURRAY CS","3062696","2016-06-24 15:00","2016","06","24","15:00","18.6","","13.2","","71","","30","","10","","","","96.15","","","","","","NA"
"-111.21","56.65","FORT MCMURRAY CS","3062696","2016-06-24 16:00","2016","06","24","16:00","19.3","","14.1","","72","","26","","18","","","","96.20","","","","","","NA"
"-111.21","56.65","FORT MCMURRAY CS","3062696","2016-06-24 17:00","2016","06","24","17:00","19.3","","13.4","","69","","30","","15","","","","96.23","","","","","","NA"
"-111.21","56.65","FORT MCMURRAY CS","3062696","2016-06-24 18:00","2016","06","24","18:00","19.0","","13.2","","69","","31","","12","","","","96.23","","","","","","NA"
"-111.21","56.65","FORT MCMURRAY CS","3062696","2016-06-24 19:00","2016","06","24","19:00","17.3","","13.0","","76","","7","","6","","","","96.26","","","","","","NA"
"-111.21","56.65","FORT MCMURRAY CS","3062696","2016-06-24 20:00","2016","06","24","20:00","16.3","","13.3","","82","","8","","3","","","","96.32","","","","","","NA"
"-111.21","56.65","FORT MCMURRAY CS","3062696","2016-06-24 21:00","2016","06","24","21:00","16.3","","13.5","","83","","31","","3","","","","96.35","","","","","","NA"
"-111.21","56.65","FORT MCMURRAY CS","3062696","2016-06-24 22:00","2016","06","24","22:00","16.2","","13.5","","84","","33","","10","","","","96.35","","","","","","NA"
"-111.21","56.65","FORT MCMURRAY CS","3062696","2016-06-24 23:00","2016","06","24","23:00","15.8","","13.9","","89","","33","","7","","","","96.36","","","","","","NA"
"-111.21","56.65","FORT MCMURRAY CS","3062696","2016-06-25 00:00","2016","06","25","00:00","15.1","","13.5","","91","","31","","9","","","","96.35","","","","","","NA"
"-111.21","56.65","FORT MCMURRAY CS","3062696","2016-06-25 01:00","2016","06","25","01:00","14.7","","13.3","","92","","32","","9","","","","96.40","","","","","","NA"
"-111.21","56.65","FORT MCMURRAY CS","3062696","2016-06-25 02:00","2016","06","25","02:00","14.7","","13.4","","92","","34","","5","","","","96.42","","","","","","NA"
"-111.21","56.65","FORT MCMURRAY CS","3062696","2016-06-25 03:00","2016","06","25","03:00","14.4","","13.2","","92","","32","","8","","","","96.40","","","","","","NA"
"-111.21","56.65","FORT MCMURRAY CS","3062696","2016-06-25 04:00","2016","06","25","04:00","13.8","","12.6","","93","","32","","7","","","","96.44","","","","","","NA"
"-111.21","56.65","FORT MCMURRAY CS","3062696","2016-06-25 05:00","2016","06","25","05:00","14.3","","12.7","","90","","33","","9","","","","96.48","","","","","","NA"
"-111.21","56.65","FORT MCMURRAY CS","3062696","2016-06-25 06:00","2016","06","25","06:00","14.7","","12.3","","85","","34","","10","","","","96.48","","","","","","NA"
"-111.21","56.65","FORT MCMURRAY CS","3062696","2016-06-25 07:00","2016","06","25","07:00","16.2","","12.7","","80","","31","","8","","","","96.53","","","","","","NA"
"-111.21","56.65","FORT MCMURRAY CS","3062696","2016-06-25 08:00","2016","06","25","08:00","17.0","","12.9","","77","","32","","13","","","","96.55","","","","","","NA"
"-111.21","56.65","FORT MCMURRAY CS","3062696","2016-06-25 09:00","2016","06","25","09:00","17.1","","13.3","","78","","30","","13","","","","96.57","","","","","","NA"
"-111.21","56.65","FORT MCMURRAY CS","3062696","2016-06-25 10:00","2016","06","25","10:00","19.3","","14.7","","75","","32","","9","","","","96.59","","","","","","NA"
"-111.21","56.65","FORT MCMURRAY CS","3062696","2016-06-25 11:00","2016","06","25","11:00","19.7","","13.0","","66","","36","","15","","","","96.58","","","","","","NA"
"-111.21","56.65","FORT MCMURRAY CS","3062696","2016-06-25 12:00","2016","06","25","12:00","20.1","","12.5","","61","","36","","21","","","","96.59","","","","","","NA"
"-111.21","56.65","FORT MCMURRAY CS","3062696","2016-06-25 13:00","2016","06","25","13:00","20.5","","11.7","","57","","33","","20","","","","96.63","","","","","","NA"
"-111.21","56.65","FORT MCMURRAY CS","3062696","2016-06-25 14:00","2016","06","25","14:00","21.9","","13.0","","57","","34","","14","","","","96.66","","25","","","","NA"
"-111.21","56.65","FORT MCMURRAY CS","3062696","2016-06-25 15:00","2016","06","25","15:00","21.5","","11.1","","52","","36","","9","","","","96.65","","","","","","NA"
"-111.21","56.65","FORT MCMURRAY CS","3062696","2016-06-25 16:00","2016","06","25","16:00","22.9","","10.2","","44","","3","","14","","","","96.66","","","","","","NA"
"-111.21","56.65","FORT MCMURRAY CS","3062696","2016-06-25 17:00","2016","06","25","17:00","23.2","","10.6","","45","","36","","16","","","","96.66","","25","","","","NA"
"-111.21","56.65","FORT MCMURRAY CS","3062696","2016-06-25 18:00","2016","06","25","18:00","23.2","","9.6","","42","","7","","16","","","","96.68","","","","","","NA"
"-111.21","56.65","FORT MCMURRAY CS","3062696","2016-06-25 19:00","2016","06","25","19:00","21.6","","10.5","","49","","9","","13","","","","96.73","","","","","","NA"
"-111.21","56.65","FORT MCMURRAY CS","3062696","2016-06-25 20:00","2016","06","25","20:00","21.2","","9.6","","47","","8","","12","","","","96.77","","","","","","NA"
"-111.21","56.65","FORT MCMURRAY CS","3062696","2016-06-25 21:00","2016","06","25","21:00","19.3","","10.0","","55","","8","","8","","","","96.84","","","","","","NA"
"-111.21","56.65","FORT MCMURRAY CS","3062696","2016-06-25 22:00","2016","06","25","22:00","13.8","","9.8","","77","","18","","3","","","","96.90","","","","","","NA"
"-111.21","56.65","FORT MCMURRAY CS","3062696","2016-06-25 23:00","2016","06","25","23:00","12.2","","9.3","","83","","22","","7","","","","96.94","","","","","","NA"
"-111.21","56.65","FORT MCMURRAY CS","3062696","2016-06-26 00:00","2016","06","26","00:00","12.6","","10.0","","84","","22","","8","","","","96.96","","","","","","NA"
"-111.21","56.65","FORT MCMURRAY CS","3062696","2016-06-26 01:00","2016","06","26","01:00","11.7","","9.3","","85","","20","","4","","","","96.97","","","","","","NA"
"-111.21","56.65","FORT MCMURRAY CS","3062696","2016-06-26 02:00","2016","06","26","02:00","11.5","","9.8","","89","","23","","4","","","","97.04","","","","","","NA"
"-111.21","56.65","FORT MCMURRAY CS","3062696","2016-06-26 03:00","2016","06","26","03:00","10.8","","9.3","","90","","16","","9","","","","97.09","","","","","","NA"
"-111.21","56.65","FORT MCMURRAY CS","3062696","2016-06-26 04:00","2016","06","26","04:00","10.2","","8.8","","91","","14","","5","","","","97.11","","","","","","NA"
"-111.21","56.65","FORT MCMURRAY CS","3062696","2016-06-26 05:00","2016","06","26","05:00","11.9","","9.3","","84","","13","","3","","","","97.16","","","","","","NA"
"-111.21","56.65","FORT MCMURRAY CS","3062696","2016-06-26 06:00","2016","06","26","06:00","13.9","","9.9","","77","","15","","4","","","","97.22","","","","","","NA"
"-111.21","56.65","FORT MCMURRAY CS","3062696","2016-06-26 07:00","2016","06","26","07:00","17.4","","11.2","","67","","24","","5","","","","97.24","","","","","","NA"
"-111.21","56.65","FORT MCMURRAY CS","3062696","2016-06-26 08:00","2016","06","26","08:00","20.2","","11.3","","56","","24","","3","","","","97.26","","","","","","NA"
"-111.21","56.65","FORT MCMURRAY CS","3062696","2016-06-26 09:00","2016","06","26","09:00","22.4","","11.6","","51","","35","","2","","","","97.30","","","","","","NA"
"-111.21","56.65","FORT MCMURRAY CS","3062696","2016-06-26 10:00","2016","06","26","10:00","23.5","","10.0","","42","","29","","5","","","","97.30","","25","","","","NA"
"-111.21","56.65","FORT MCMURRAY CS","3062696","2016-06-26 11:00","2016","06","26","11:00","24.8","","9.6","","38","","6","","4","","","","97.27","","26","","","","NA"
"-111.21","56.65","FORT MCMURRAY CS","3062696","2016-06-26 12:00","2016","06","26","12:00","26.8","","9.5","","34","","15","","5","","","","97.26","","28","","","","NA"
"-111.21","56.65","FORT MCMURRAY CS","3062696","2016-06-26 13:00","2016","06","26","13:00","23.7","","10.1","","42","","27","","7","","","","97.27","","25","","","","NA"
"-111.21","56.65","FORT MCMURRAY CS","3062696","2016-06-26 14:00","2016","06","26","14:00","22.7","","11.3","","49","","19","","14","","","","97.29","","25","","","","NA"
"-111.21","56.65","FORT MCMURRAY CS","3062696","2016-06-26 15:00","2016","06","26","15:00","24.8","","9.9","","39","","12","","8","","","","97.25","","26","","","","NA"
"-111.21","56.65","FORT MCMURRAY CS","3062696","2016-06-26 16:00","2016","06","26","16:00","24.3","","10.7","","42","","3","","16","","","","97.29","","26","","","","NA"
"-111.21","56.65","FORT MCMURRAY CS","3062696","2016-06-26 17:00","2016","06","26","17:00","22.5","","11.6","","50","","32","","9","","","","97.30","","25","","","","NA"
"-111.21","56.65","FORT MCMURRAY CS","3062696","2016-06-26 18:00","2016","06","26","18:00","19.6","","11.8","","61","","19","","18","","","","97.36","","","","","","NA"
"-111.21","56.65","FORT MCMURRAY CS","3062696","2016-06-26 19:00","2016","06","26","19:00","18.2","","12.2","","68","","19","","16","","","","97.38","","","","","","NA"
"-111.21","56.65","FORT MCMURRAY CS","3062696","2016-06-26 20:00","2016","06","26","20:00","18.7","","11.6","","63","","3","","3","","","","97.32","","","","","","NA"
"-111.21","56.65","FORT MCMURRAY CS","3062696","2016-06-26 21:00","2016","06","26","21:00","17.8","","11.8","","68","","24","","5","","","","97.42","","","","","","NA"
"-111.21","56.65","FORT MCMURRAY CS","3062696","2016-06-26 22:00","2016","06","26","22:00","18.1","","12.0","","68","","32","","14","","","","97.49","","","","","","NA"
"-111.21","56.65","FORT MCMURRAY CS","3062696","2016-06-26 23:00","2016","06","26","23:00","16.0","","12.0","","77","","18","","10","","","","97.46","","","","","","NA"
"-111.21","56.65","FORT MCMURRAY CS","3062696","2016-06-27 00:00","2016","06","27","00:00","14.1","","11.9","","87","","20","","10","","","","97.45","","","","","","NA"
"-111.21","56.65","FORT MCMURRAY CS","3062696","2016-06-27 01:00","2016","06","27","01:00","13.3","","11.7","","90","","21","","9","","","","97.46","","","","","","NA"
"-111.21","56.65","FORT MCMURRAY CS","3062696","2016-06-27 02:00","2016","06","27","02:00","11.4","","10.0","","91","","22","","5","","","","97.46","","","","","","NA"
"-111.21","56.65","FORT MCMURRAY CS","3062696","2016-06-27 03:00","2016","06","27","03:00","11.1","","10.3","","95","","24","","4","","","","97.52","","","","","","NA"
"-111.21","56.65","FORT MCMURRAY CS","3062696","2016-06-27 04:00","2016","06","27","04:00","11.3","","10.5","","95","","22","","8","","","","97.56","","","","","","NA"
"-111.21","56.65","FORT MCMURRAY CS","3062696","2016-06-27 05:00","2016","06","27","05:00","12.9","","10.9","","88","","20","","6","","","","97.57","","","","","","NA"
"-111.21","56.65","FORT MCMURRAY CS","3062696","2016-06-27 06:00","2016","06","27","06:00","15.1","","11.5","","79","","25","","11","","","","97.58","","","","","","NA"
"-111.21","56.65","FORT MCMURRAY CS","3062696","2016-06-27 07:00","2016","06","27","07:00","17.6","","12.5","","72","","24","","11","","","","97.59","","","","","","NA"
"-111.21","56.65","FORT MCMURRAY CS","3062696","2016-06-27 08:00","2016","06","27","08:00","19.7","","12.5","","63","","26","","11","","","","97.59","","","","","","NA"
"-111.21","56.65","FORT MCMURRAY CS","3062696","2016-06-27 09:00","2016","06","27","09:00","21.8","","11.3","","51","","27","","14","","","","97.58","","","","","","NA"
"-111.21","56.65","FORT MCMURRAY CS","3062696","2016-06-27 10:00","2016","06","27","10:00","23.6","","11.2","","46","","28","","13","","","","97.56","","25","","","","NA"
"-111.21","56.65","FORT MCMURRAY CS","3062696","2016-06-27 11:00","2016","06","27","11:00","24.8","","9.7","","39","","26","","16","","","","97.55","","26","","","","NA"
"-111.21","56.65","FORT MCMURRAY CS","3062696","2016-06-27 12:00","2016","06","27","12:00","26.4","","9.5","","35","","28","","14","","","","97.51","","27","","","","NA"
"-111.21","56.65","FORT MCMURRAY CS","3062696","2016-06-27 13:00","2016","06","27","13:00","25.0","","8.3","","34","","32","","14","","","","97.43","","26","","","","NA"
"-111.21","56.65","FORT MCMURRAY CS","3062696","2016-06-27 14:00","2016","06","27","14:00","20.0","","12.0","","60","","33","","28","","","","97.49","","","","","","NA"
"-111.21","56.65","FORT MCMURRAY CS","3062696","2016-06-27 15:00","2016","06","27","15:00","24.0","","11.2","","45","","13","","2","","","","97.47","","26","","","","NA"
"-111.21","56.65","FORT MCMURRAY CS","3062696","2016-06-27 16:00","2016","06","27","16:00","18.8","","11.8","","64","","34","","25","","","","97.61","","","","","","NA"
"-111.21","56.65","FORT MCMURRAY CS","3062696","2016-06-27 17:00","2016","06","27","17:00","19.4","","13.6","","69","","16","","17","","","","97.47","","","","","","NA"
"-111.21","56.65","FORT MCMURRAY CS","3062696","2016-06-27 18:00","2016","06","27","18:00","21.4","","13.8","","62","","19","","8","","","","97.42","","25","","","","NA"
"-111.21","56.65","FORT MCMURRAY CS","3062696","2016-06-27 19:00","2016","06","27","19:00","22.6","","12.7","","54","","22","","10","","","","97.39","","25","","","","NA"
"-111.21","56.65","FORT MCMURRAY CS","3062696","2016-06-27 20:00","2016","06","27","20:00","22.0","","12.5","","55","","22","","7","","","","97.41","","25","","","","NA"
"-111.21","56.65","FORT MCMURRAY CS","3062696","2016-06-27 21:00","2016","06","27","21:00","19.6","","12.7","","65","","23","","8","","","","97.40","","","","","","NA"
"-111.21","56.65","FORT MCMURRAY CS","3062696","2016-06-27 22:00","2016","06","27","22:00","17.7","","13.0","","74","","13","","5","","","","97.41","","","","","","NA"
"-111.21","56.65","FORT MCMURRAY CS","3062696","2016-06-27 23:00","2016","06","27","23:00","16.7","","12.6","","76","","13","","3","","","","97.41","","","","","","NA"
"-111.21","56.65","FORT MCMURRAY CS","3062696","2016-06-28 00:00","2016","06","28","00:00","17.0","","12.3","","74","","12","","9","","","","97.44","","","","","","NA"
"-111.21","56.65","FORT MCMURRAY CS","3062696","2016-06-28 01:00","2016","06","28","01:00","14.7","","11.3","","80","","19","","4","","","","97.43","","","","","","NA"
"-111.21","56.65","FORT MCMURRAY CS","3062696","2016-06-28 02:00","2016","06","28","02:00","15.0","","10.9","","77","","20","","2","","","","97.43","","","","","","NA"
"-111.21","56.65","FORT MCMURRAY CS","3062696","2016-06-28 03:00","2016","06","28","03:00","13.7","","11.1","","84","","19","","4","","","","97.44","","","","","","NA"
"-111.21","56.65","FORT MCMURRAY CS","3062696","2016-06-28 04:00","2016","06","28","04:00","13.2","","9.8","","79","","21","","2","","","","97.44","","","","","","NA"
"-111.21","56.65","FORT MCMURRAY CS","3062696","2016-06-28 05:00","2016","06","28","05:00","13.8","","10.1","","78","","26","","3","","","","97.45","","","","","","NA"
"-111.21","56.65","FORT MCMURRAY CS","3062696","2016-06-28 06:00","2016","06","28","06:00","16.3","","11.1","","71","","22","","8","","","","97.44","","","","","","NA"
"-111.21","56.65","FORT MCMURRAY CS","3062696","2016-06-28 07:00","2016","06","28","07:00","19.3","","12.2","","63","","24","","7","","","","97.44","","","","","","NA"
"-111.21","56.65","FORT MCMURRAY CS","3062696","2016-06-28 08:00","2016","06","28","08:00","21.2","","11.1","","52","","29","","4","","","","97.45","","","","","","NA"
"-111.21","56.65","FORT MCMURRAY CS","3062696","2016-06-28 09:00","2016","06","28","09:00","23.6","","10.9","","45","","31","","6","","","","97.46","","25","","","","NA"
"-111.21","56.65","FORT MCMURRAY CS","3062696","2016-06-28 10:00","2016","06","28","10:00","25.6","","9.2","","35","","31","","13","","","","97.44","","27","","","","NA"
"-111.21","56.65","FORT MCMURRAY CS","3062696","2016-06-28 11:00","2016","06","28","11:00","26.4","","7.3","","30","","32","","19","","","","97.45","","27","","","","NA"
"-111.21","56.65","FORT MCMURRAY CS","3062696","2016-06-28 12:00","2016","06","28","12:00","27.3","","6.6","","27","","34","","19","","","","97.43","","27","","","","NA"
"-111.21","56.65","FORT MCMURRAY CS","3062696","2016-06-28 13:00","2016","06","28","13:00","27.5","","5.6","","25","","32","","15","","","","97.39","","27","","","","NA"
"-111.21","56.65","FORT MCMURRAY CS","3062696","2016-06-28 14:00","2016","06","28","14:00","28.8","","5.7","","23","","32","","19","","","","97.35","","28","","","","NA"
"-111.21","56.65","FORT MCMURRAY CS","3062696","2016-06-28 15:00","2016","06","28","15:00","28.4","","6.3","","25","","34","","22","","","","97.34","","28","","","","NA"
"-111.21","56.65","FORT MCMURRAY CS","3062696","2016-06-28 16:00","2016","06","28","16:00","28.2","","7.3","","27","","36","","20","","","","97.34","","28","","","","NA"
"-111.21","56.65","FORT MCMURRAY CS","3062696","2016-06-28 17:00","2016","06","28","17:00","27.6","","6.6","","26","","36","","18","","","","97.36","","27","","","","NA"
"-111.21","56.65","FORT MCMURRAY CS","3062696","2016-06-28 18:00","2016","06","28","18:00","26.7","","6.0","","27","","1","","18","","","","97.38","","26","","","","NA"
"-111.21","56.65","FORT MCMURRAY CS","3062696","2016-06-28 19:00","2016","06","28","19:00","26.1","","6.1","","28","","1","","19","","","","97.41","","26","","","","NA"
"-111.21","56.65","FORT MCMURRAY CS","3062696","2016-06-28 20:00","2016","06","28","20:00","25.0","","5.5","","28","","1","","16","","","","97.45","","","","","","NA"
"-111.21","56.65","FORT MCMURRAY CS","3062696","2016-06-28 21:00","2016","06","28","21:00","23.0","","7.3","","36","","3","","13","","","","97.52","","","","","","NA"
"-111.21","56.65","FORT MCMURRAY CS","3062696","2016-06-28 22:00","2016","06","28","22:00","22.1","","8.3","","41","","5","","10","","","","97.56","","","","","","NA"
"-111.21","56.65","FORT MCMURRAY CS","3062696","2016-06-28 23:00","2016","06","28","23:00","21.4","","7.8","","42","","8","","12","","","","97.57","","","","","","NA"
"-111.21","56.65","FORT MCMURRAY CS","3062696","2016-06-29 00:00","2016","06","29","00:00","20.4","","7.9","","44","","7","","8","","","","97.61","","","","","","NA"
"-111.21","56.65","FORT MCMURRAY CS","3062696","2016-06-29 01:00","2016","06","29","01:00","17.0","","8.4","","57","","13","","5","","","","97.67","","","","","","NA"
"-111.21","56.65","FORT MCMURRAY CS","3062696","2016-06-29 02:00","2016","06","29","02:00","12.6","","7.4","","71","","9","","3","","","","97.70","","","","","","NA"
"-111.21","56.65","FORT MCMURRAY CS","3062696","2016-06-29 03:00","2016","06","29","03:00","13.2","","9.2","","77","","7","","3","","","","97.71","","","","","","NA"
"-111.21","56.65","FORT MCMURRAY CS","3062696","2016-06-29 04:00","2016","06","29","04:00","12.0","","8.0","","76","","9","","5","","","","97.75","","","","","","NA"
"-111.21","56.65","FORT MCMURRAY CS","3062696","2016-06-29 05:00","2016","06","29","05:00","13.4","","8.0","","70","","13","","5","","","","97.80","","","","","","NA"
"-111.21","56.65","FORT MCMURRAY CS","3062696","2016-06-29 06:00","2016","06","29","06:00","16.9","","8.0","","55","","8","","4","","","","97.83","","","","","","NA"
"-111.21","56.65","FORT MCMURRAY CS","3062696","2016-06-29 07:00","2016","06","29","07:00","18.8","","8.2","","50","","9","","5","","","","97.85","","","","","","NA"
"-111.21","56.65","FORT MCMURRAY CS","3062696","2016-06-29 08:00","2016","06","29","08:00","20.3","","9.1","","49","","6","","7","","","","97.87","","","","","","NA"
"-111.21","56.65","FORT MCMURRAY CS","3062696","2016-06-29 09:00","2016","06","29","09:00","22.4","","9.5","","44","","5","","6","","","","97.87","","","","","","NA"
"-111.21","56.65","FORT MCMURRAY CS","3062696","2016-06-29 10:00","2016","06","29","10:00","24.2","","7.1","","33","","6","","9","","","","97.86","","","","","","NA"
"-111.21","56.65","FORT MCMURRAY CS","3062696","2016-06-29 11:00","2016","06","29","11:00","24.9","","6.2","","30","","7","","5","","","","97.85","","25","","","","NA"
"-111.21","56.65","FORT MCMURRAY CS","3062696","2016-06-29 12:00","2016","06","29","12:00","25.9","","6.5","","29","","30","","3","","","","97.82","","26","","","","NA"
"-111.21","56.65","FORT MCMURRAY CS","3062696","2016-06-29 13:00","2016","06","29","13:00","24.2","","5.0","","29","","5","","7","","","","97.79","","","","","","NA"
"-111.21","56.65","FORT MCMURRAY CS","3062696","2016-06-29 14:00","2016","06","29","14:00","25.7","","4.8","","26","","5","","7","","","","97.74","","25","","","","NA"
"-111.21","56.65","FORT MCMURRAY CS","3062696","2016-06-29 15:00","2016","06","29","15:00","25.7","","5.5","","27","","9","","9","","","","97.71","","25","","","","NA"
"-111.21","56.65","FORT MCMURRAY CS","3062696","2016-06-29 16:00","2016","06","29","16:00","25.9","","5.1","","26","","8","","9","","","","97.67","","25","","","","NA"
"-111.21","56.65","FORT MCMURRAY CS","3062696","2016-06-29 17:00","2016","06","29","17:00","26.7","","4.9","","25","","8","","13","","","","97.64","","26","","","","NA"
"-111.21","56.65","FORT MCMURRAY CS","3062696","2016-06-29 18:00","2016","06","29","18:00","25.7","","4.2","","25","","7","","11","","","","97.62","","25","","","","NA"
"-111.21","56.65","FORT MCMURRAY CS","3062696","2016-06-29 19:00","2016","06","29","19:00","25.5","","4.6","","26","","11","","12","","","","97.62","","25","","","","NA"
"-111.21","56.65","FORT MCMURRAY CS","3062696","2016-06-29 20:00","2016","06","29","20:00","24.5","","3.9","","26","","13","","14","","","","97.60","","","","","","NA"
"-111.21","56.65","FORT MCMURRAY CS","3062696","2016-06-29 21:00","2016","06","29","21:00","21.8","","4.9","","33","","12","","13","","","","97.65","","","","","","NA"
"-111.21","56.65","FORT MCMURRAY CS","3062696","2016-06-29 22:00","2016","06","29","22:00","20.1","","7.3","","44","","14","","15","","","","97.68","","","","","","NA"
"-111.21","56.65","FORT MCMURRAY CS","3062696","2016-06-29 23:00","2016","06","29","23:00","18.9","","7.1","","46","","13","","14","","","","97.67","","","","","","NA"
"-111.21","56.65","FORT MCMURRAY CS","3062696","2016-06-30 00:00","2016","06","30","00:00","17.4","","6.7","","49","","12","","13","","","","97.67","","","","","","NA"
"-111.21","56.65","FORT MCMURRAY CS","3062696","2016-06-30 01:00","2016","06","30","01:00","16.5","","6.5","","52","","12","","14","","","","97.66","","","","","","NA"
"-111.21","56.65","FORT MCMURRAY CS","3062696","2016-06-30 02:00","2016","06","30","02:00","15.8","","6.8","","55","","11","","12","","","","97.64","","","","","","NA"
"-111.21","56.65","FORT MCMURRAY CS","3062696","2016-06-30 03:00","2016","06","30","03:00","14.8","","6.9","","59","","10","","12","","","","97.63","","","","","","NA"
"-111.21","56.65","FORT MCMURRAY CS","3062696","2016-06-30 04:00","2016","06","30","04:00","14.2","","7.0","","62","","9","","11","","","","97.62","","","","","","NA"
"-111.21","56.65","FORT MCMURRAY CS","3062696","2016-06-30 05:00","2016","06","30","05:00","15.0","","7.2","","59","","9","","13","","","","97.63","","","","","","NA"
"-111.21","56.65","FORT MCMURRAY CS","3062696","2016-06-30 06:00","2016","06","30","06:00","16.6","","8.6","","60","","10","","9","","","","97.62","","","","","","NA"
"-111.21","56.65","FORT MCMURRAY CS","3062696","2016-06-30 07:00","2016","06","30","07:00","19.4","","8.4","","49","","11","","11","","","","97.62","","","","","","NA"
"-111.21","56.65","FORT MCMURRAY CS","3062696","2016-06-30 08:00","2016","06","30","08:00","21.0","","8.8","","46","","15","","10","","","","97.60","","","","","","NA"
"-111.21","56.65","FORT MCMURRAY CS","3062696","2016-06-30 09:00","2016","06","30","09:00","22.1","","8.2","","41","","16","","11","","","","97.58","","","","","","NA"
"-111.21","56.65","FORT MCMURRAY CS","3062696","2016-06-30 10:00","2016","06","30","10:00","24.7","","7.4","","33","","12","","9","","","","97.54","","25","","","","NA"
"-111.21","56.65","FORT MCMURRAY CS","3062696","2016-06-30 11:00","2016","06","30","11:00","26.6","","6.2","","27","","18","","18","","","","97.46","","26","","","","NA"
"-111.21","56.65","FORT MCMURRAY CS","3062696","2016-06-30 12:00","2016","06","30","12:00","26.3","","7.9","","31","","15","","22","","","","97.41","","27","","","","NA"
"-111.21","56.65","FORT MCMURRAY CS","3062696","2016-06-30 13:00","2016","06","30","13:00","27.7","","6.7","","26","","12","","15","","","","97.29","","28","","","","NA"
"-111.21","56.65","FORT MCMURRAY CS","3062696","2016-06-30 14:00","2016","06","30","14:00","27.7","","6.9","","27","","15","","18","","","","97.20","","28","","","","NA"
"-111.21","56.65","FORT MCMURRAY CS","3062696","2016-06-30 15:00","2016","06","30","15:00","28.6","","8.8","","29","","14","","19","","","","97.16","","29","","","","NA"
"-111.21","56.65","FORT MCMURRAY CS","3062696","2016-06-30 16:00","2016","06","30","16:00","26.4","","8.8","","33","","12","","14","","","","97.13","","27","","","","NA"
"-111.21","56.65","FORT MCMURRAY CS","3062696","2016-06-30 17:00","2016","06","30","17:00","26.1","","8.8","","34","","11","","12","","","","97.10","","27","","","","NA"
"-111.21","56.65","FORT MCMURRAY CS","3062696","2016-06-30 18:00","2016","06","30","18:00","26.1","","8.3","","32","","12","","13","","","","97.07","","27","","","","NA"
"-111.21","56.65","FORT MCMURRAY CS","3062696","2016-06-30 19:00","2016","06","30","19:00","25.4","","9.0","","35","","18","","12","","","","97.05","","26","","","","NA"
"-111.21","56.65","FORT MCMURRAY CS","3062696","2016-06-30 20:00","2016","06","30","20:00","24.8","","8.4","","35","","15","","12","","","","97.06","","25","","","","NA"
"-111.21","56.65","FORT MCMURRAY CS","3062696","2016-06-30 21:00","2016","06","30","21:00","22.5","","9.9","","45","","15","","8","","","","97.05","","","","","","NA"
"-111.21","56.65","FORT MCMURRAY CS","3062696","2016-06-30 22:00","2016","06","30","22:00","21.4","","10.5","","50","","18","","9","","","","97.10","","","","","","NA"
"-111.21","56.65","FORT MCMURRAY CS","3062696","2016-06-30 23:00","2016","06","30","23:00","19.9","","11.2","","57","","23","","3","","","","97.12","","","","","","NA"
