"Longitude (x)","Latitude (y)","Station Name","Climate ID","Date/Time","Year","Month","Day","Time","Temp (°C)","Temp Flag","Dew Point Temp (°C)","Dew Point Temp Flag","Rel Hum (%)","Rel Hum Flag","Wind Dir (10s deg)","Wind Dir Flag","Wind Spd (km/h)","Wind Spd Flag","Visibility (km)","Visibility Flag","Stn Press (kPa)","Stn Press Flag","Hmdx","Hmdx Flag","Wind Chill","Wind Chill Flag","Weather"
"-111.21","56.65","FORT MCMURRAY CS","3062696","2016-05-01 00:00","2016","05","01","00:00","3.6","","-3.3","","61","","21","","7","","","","97.52","","","","","","NA"
"-111.21","56.65","FORT MCMURRAY CS","3062696","2016-05-01 01:00","2016","05","01","01:00","3.8","","-3.2","","60","","18","","4","","","","97.53","","","","","","NA"
"-111.21","56.65","FORT MCMURRAY CS","3062696","2016-05-01 02:00","2016","05","01","02:00","2.1","","-4.7","","61","","21","","6","","","","97.55","","","","","","NA"
"-111.21","56.65","FORT MCMURRAY CS","3062696","2016-05-01 03:00","2016","05","01","03:00","3.6","","-5.2","","52","","20","","5","","","","97.54","","","","","","NA"
"-111.21","56.65","FORT MCMURRAY CS","3062696","2016-05-01 04:00","2016","05","01","04:00","3.0","","-5.8","","52","","20","","7","","","","97.53","","","","","","NA"
"-111.21","56.65","FORT MCMURRAY CS","3062696","2016-05-01 05:00","2016","05","01","05:00","1.2","","-4.4","","66","","3","","2","","","","97.53","","","","","","NA"
"-111.21","56.65","FORT MCMURRAY CS","3062696","2016-05-01 06:00","2016","05","01","06:00","4.6","","-4.1","","53","","4","","3","","","","97.52","","","","","","NA"
"-111.21","56.65","FORT MCMURRAY CS","3062696","2016-05-01 07:00","2016","05","01","07:00","7.9","","-6.9","","34","","5","","2","","","","97.51","","","","","","NA"
"-111.21","56.65","FORT MCMURRAY CS","3062696","2016-05-01 08:00","2016","05","01","08:00","11.2","","-5.6","","30","","4","","3","","","","97.49","","","","","","NA"
"-111.21","56.65","FORT MCMURRAY CS","3062696","2016-05-01 09:00","2016","05","01","09:00","14.4","","-3.3","","29","","5","","4","","","","97.43","","","","","","NA"
"-111.21","56.65","FORT MCMURRAY CS","3062696","2016-05-01 10:00","2016","05","01","10:00","19.4","","-8.9","","14","","26","","11","","","","97.36","","","","","","NA"
"-111.21","56.65","FORT MCMURRAY CS","3062696","2016-05-01 11:00","2016","05","01","11:00","20.2","","-7.4","","15","","26","","19","","","","97.30","","","","","","NA"
"-111.21","56.65","FORT MCMURRAY CS","3062696","2016-05-01 12:00","2016","05","01","12:00","21.5","","-6.6","","15","","26","","17","","","","97.22","","","","","","NA"
"-111.21","56.65","FORT MCMURRAY CS","3062696","2016-05-01 13:00","2016","05","01","13:00","22.9","","-5.9","","14","","24","","15","","","","97.15","","","","","","NA"
"-111.21","56.65","FORT MCMURRAY CS","3062696","2016-05-01 14:00","2016","05","01","14:00","23.0","","-5.1","","15","","29","","13","","","","97.06","","","","","","NA"
"-111.21","56.65","FORT MCMURRAY CS","3062696","2016-05-01 15:00","2016","05","01","15:00","24.3","","-1.8","","18","","30","","21","","","","97.03","","","","","","NA"
"-111.21","56.65","FORT MCMURRAY CS","3062696","2016-05-01 16:00","2016","05","01","16:00","24.2","","-1.0","","19","","28","","14","","","","97.01","","","","","","NA"
"-111.21","56.65","FORT MCMURRAY CS","3062696","2016-05-01 17:00","2016","05","01","17:00","22.8","","0.0","","22","","29","","9","","","","97.00","","","","","","NA"
"-111.21","56.65","FORT MCMURRAY CS","3062696","2016-05-01 18:00","2016","05","01","18:00","21.5","","0.5","","25","","26","","8","","","","96.96","","","","","","NA"
"-111.21","56.65","FORT MCMURRAY CS","3062696","2016-05-01 19:00","2016","05","01","19:00","21.8","","0.6","","24","","27","","9","","","","96.95","","","","","","NA"
"-111.21","56.65","FORT MCMURRAY CS","3062696","2016-05-01 20:00","2016","05","01","20:00","19.5","","1.0","","29","","26","","8","","","","96.98","","","","","","NA"
"-111.21","56.65","FORT MCMURRAY CS","3062696","2016-05-01 21:00","2016","05","01","21:00","19.0","","1.9","","32","","31","","7","","","","97.02","","","","","","NA"
"-111.21","56.65","FORT MCMURRAY CS","3062696","2016-05-01 22:00","2016","05","01","22:00","11.8","","2.3","","52","","36","","1","","","","97.05","","","","","","NA"
"-111.21","56.65","FORT MCMURRAY CS","3062696","2016-05-01 23:00","2016","05","01","23:00","9.7","","2.5","","60","","21","","8","","","","97.06","","","","","","NA"
"-111.21","56.65","FORT MCMURRAY CS","3062696","2016-05-02 00:00","2016","05","02","00:00","10.3","","2.6","","59","","20","","7","","","","97.06","","","","","","NA"
"-111.21","56.65","FORT MCMURRAY CS","3062696","2016-05-02 01:00","2016","05","02","01:00","8.2","","2.3","","66","","21","","6","","","","97.07","","","","","","NA"
"-111.21","56.65","FORT MCMURRAY CS","3062696","2016-05-02 02:00","2016","05","02","02:00","7.7","","2.6","","70","","26","","2","","","","97.09","","","","","","NA"
"-111.21","56.65","FORT MCMURRAY CS","3062696","2016-05-02 03:00","2016","05","02","03:00","5.9","","2.2","","77","","19","","4","","","","97.14","","","","","","NA"
"-111.21","56.65","FORT MCMURRAY CS","3062696","2016-05-02 04:00","2016","05","02","04:00","5.5","","1.2","","74","","18","","6","","","","97.18","","","","","","NA"
"-111.21","56.65","FORT MCMURRAY CS","3062696","2016-05-02 05:00","2016","05","02","05:00","5.4","","1.7","","77","","8","","4","","","","97.19","","","","","","NA"
"-111.21","56.65","FORT MCMURRAY CS","3062696","2016-05-02 06:00","2016","05","02","06:00","7.2","","2.0","","69","","13","","4","","","","97.24","","","","","","NA"
"-111.21","56.65","FORT MCMURRAY CS","3062696","2016-05-02 07:00","2016","05","02","07:00","12.0","","2.3","","51","","16","","3","","","","97.25","","","","","","NA"
"-111.21","56.65","FORT MCMURRAY CS","3062696","2016-05-02 08:00","2016","05","02","08:00","15.5","","2.7","","42","","35","","3","","","","97.25","","","","","","NA"
"-111.21","56.65","FORT MCMURRAY CS","3062696","2016-05-02 09:00","2016","05","02","09:00","18.5","","2.7","","35","","3","","5","","","","97.24","","","","","","NA"
"-111.21","56.65","FORT MCMURRAY CS","3062696","2016-05-02 10:00","2016","05","02","10:00","22.3","","3.1","","28","","2","","4","","","","97.22","","","","","","NA"
"-111.21","56.65","FORT MCMURRAY CS","3062696","2016-05-02 11:00","2016","05","02","11:00","24.8","","1.5","","22","","14","","6","","","","97.19","","","","","","NA"
"-111.21","56.65","FORT MCMURRAY CS","3062696","2016-05-02 12:00","2016","05","02","12:00","25.5","","0.8","","20","","4","","12","","","","97.15","","","","","","NA"
"-111.21","56.65","FORT MCMURRAY CS","3062696","2016-05-02 13:00","2016","05","02","13:00","26.8","","1.5","","19","","3","","8","","","","97.08","","25","","","","NA"
"-111.21","56.65","FORT MCMURRAY CS","3062696","2016-05-02 14:00","2016","05","02","14:00","26.5","","0.7","","18","","8","","2","","","","97.03","","25","","","","NA"
"-111.21","56.65","FORT MCMURRAY CS","3062696","2016-05-02 15:00","2016","05","02","15:00","26.8","","1.2","","19","","8","","6","","","","96.99","","25","","","","NA"
"-111.21","56.65","FORT MCMURRAY CS","3062696","2016-05-02 16:00","2016","05","02","16:00","26.7","","1.7","","20","","7","","9","","","","96.94","","25","","","","NA"
"-111.21","56.65","FORT MCMURRAY CS","3062696","2016-05-02 17:00","2016","05","02","17:00","26.2","","2.8","","22","","10","","6","","","","96.90","","25","","","","NA"
"-111.21","56.65","FORT MCMURRAY CS","3062696","2016-05-02 18:00","2016","05","02","18:00","24.2","","3.9","","27","","12","","9","","","","96.87","","","","","","NA"
"-111.21","56.65","FORT MCMURRAY CS","3062696","2016-05-02 19:00","2016","05","02","19:00","21.4","","3.8","","31","","13","","11","","","","96.85","","","","","","NA"
"-111.21","56.65","FORT MCMURRAY CS","3062696","2016-05-02 20:00","2016","05","02","20:00","19.6","","3.8","","35","","14","","13","","","","96.84","","","","","","NA"
"-111.21","56.65","FORT MCMURRAY CS","3062696","2016-05-02 21:00","2016","05","02","21:00","16.4","","4.2","","44","","14","","14","","","","96.84","","","","","","NA"
"-111.21","56.65","FORT MCMURRAY CS","3062696","2016-05-02 22:00","2016","05","02","22:00","15.6","","3.8","","45","","14","","16","","","","96.84","","","","","","NA"
"-111.21","56.65","FORT MCMURRAY CS","3062696","2016-05-02 23:00","2016","05","02","23:00","17.8","","3.6","","39","","10","","17","","","","96.84","","","","","","NA"
"-111.21","56.65","FORT MCMURRAY CS","3062696","2016-05-03 00:00","2016","05","03","00:00","15.8","","3.7","","44","","11","","17","","","","96.82","","","","","","NA"
"-111.21","56.65","FORT MCMURRAY CS","3062696","2016-05-03 01:00","2016","05","03","01:00","15.5","","3.5","","45","","10","","15","","","","96.84","","","","","","NA"
"-111.21","56.65","FORT MCMURRAY CS","3062696","2016-05-03 02:00","2016","05","03","02:00","13.6","","3.5","","50","","10","","14","","","","96.86","","","","","","NA"
"-111.21","56.65","FORT MCMURRAY CS","3062696","2016-05-03 03:00","2016","05","03","03:00","13.5","","3.3","","50","","10","","12","","","","96.86","","","","","","NA"
"-111.21","56.65","FORT MCMURRAY CS","3062696","2016-05-03 04:00","2016","05","03","04:00","12.1","","3.5","","55","","10","","12","","","","96.86","","","","","","NA"
"-111.21","56.65","FORT MCMURRAY CS","3062696","2016-05-03 05:00","2016","05","03","05:00","11.6","","3.3","","56","","10","","10","","","","96.86","","","","","","NA"
"-111.21","56.65","FORT MCMURRAY CS","3062696","2016-05-03 06:00","2016","05","03","06:00","13.0","","3.3","","52","","11","","12","","","","96.84","","","","","","NA"
"-111.21","56.65","FORT MCMURRAY CS","3062696","2016-05-03 07:00","2016","05","03","07:00","14.5","","3.8","","48","","11","","12","","","","96.83","","","","","","NA"
"-111.21","56.65","FORT MCMURRAY CS","3062696","2016-05-03 08:00","2016","05","03","08:00","17.4","","4.3","","42","","10","","10","","","","96.80","","","","","","NA"
"-111.21","56.65","FORT MCMURRAY CS","3062696","2016-05-03 09:00","2016","05","03","09:00","19.7","","4.3","","36","","7","","9","","","","96.77","","","","","","NA"
"-111.21","56.65","FORT MCMURRAY CS","3062696","2016-05-03 10:00","2016","05","03","10:00","23.3","","4.6","","30","","7","","10","","","","96.73","","","","","","NA"
"-111.21","56.65","FORT MCMURRAY CS","3062696","2016-05-03 11:00","2016","05","03","11:00","27.3","","5.3","","24","","7","","11","","","","96.65","","27","","","","NA"
"-111.21","56.65","FORT MCMURRAY CS","3062696","2016-05-03 12:00","2016","05","03","12:00","31.2","","-0.2","","13","","24","","18","","","","96.58","","29","","","","NA"
"-111.21","56.65","FORT MCMURRAY CS","3062696","2016-05-03 13:00","2016","05","03","13:00","30.9","","-0.4","","13","","21","","13","","","","96.53","","29","","","","NA"
"-111.21","56.65","FORT MCMURRAY CS","3062696","2016-05-03 14:00","2016","05","03","14:00","30.0","","-0.9","","13","","20","","20","","","","96.49","","28","","","","NA"
"-111.21","56.65","FORT MCMURRAY CS","3062696","2016-05-03 15:00","2016","05","03","15:00","32.3","","-0.5","","12","","22","","18","","","","96.42","","30","","","","NA"
"-111.21","56.65","FORT MCMURRAY CS","3062696","2016-05-03 16:00","2016","05","03","16:00","31.5","","-1.2","","12","","22","","22","","","","96.37","","29","","","","NA"
"-111.21","56.65","FORT MCMURRAY CS","3062696","2016-05-03 17:00","2016","05","03","17:00","30.6","","-0.7","","13","","23","","17","","","","96.34","","28","","","","NA"
"-111.21","56.65","FORT MCMURRAY CS","3062696","2016-05-03 18:00","2016","05","03","18:00","30.7","","-1.2","","13","","24","","11","","","","96.28","","28","","","","NA"
"-111.21","56.65","FORT MCMURRAY CS","3062696","2016-05-03 19:00","2016","05","03","19:00","29.6","","-1.9","","13","","22","","18","","","","96.22","","27","","","","NA"
"-111.21","56.65","FORT MCMURRAY CS","3062696","2016-05-03 20:00","2016","05","03","20:00","23.6","","0.6","","22","","19","","16","","","","96.20","","","","","","NA"
"-111.21","56.65","FORT MCMURRAY CS","3062696","2016-05-03 21:00","2016","05","03","21:00","20.9","","1.5","","27","","17","","16","","","","96.19","","","","","","NA"
"-111.21","56.65","FORT MCMURRAY CS","3062696","2016-05-03 22:00","2016","05","03","22:00","19.9","","1.5","","29","","17","","16","","","","96.16","","","","","","NA"
"-111.21","56.65","FORT MCMURRAY CS","3062696","2016-05-03 23:00","2016","05","03","23:00","20.1","","1.7","","29","","18","","16","","","","96.14","","","","","","NA"
"-111.21","56.65","FORT MCMURRAY CS","3062696","2016-05-04 00:00","2016","05","04","00:00","17.8","","1.6","","34","","4","","3","","","","96.14","","","","","","NA"
"-111.21","56.65","FORT MCMURRAY CS","3062696","2016-05-04 01:00","2016","05","04","01:00","14.7","","2.5","","44","","14","","2","","","","96.15","","","","","","NA"
"-111.21","56.65","FORT MCMURRAY CS","3062696","2016-05-04 02:00","2016","05","04","02:00","14.9","","3.2","","45","","3","","4","","","","96.13","","","","","","NA"
"-111.21","56.65","FORT MCMURRAY CS","3062696","2016-05-04 03:00","2016","05","04","03:00","11.6","","3.1","","56","","3","","3","","","","96.12","","","","","","NA"
"-111.21","56.65","FORT MCMURRAY CS","3062696","2016-05-04 04:00","2016","05","04","04:00","10.1","","3.1","","62","","8","","4","","","","96.08","","","","","","NA"
"-111.21","56.65","FORT MCMURRAY CS","3062696","2016-05-04 05:00","2016","05","04","05:00","10.1","","2.2","","58","","8","","4","","","","96.07","","","","","","NA"
"-111.21","56.65","FORT MCMURRAY CS","3062696","2016-05-04 06:00","2016","05","04","06:00","10.8","","1.6","","53","","25","","7","","","","96.10","","","","","","NA"
"-111.21","56.65","FORT MCMURRAY CS","3062696","2016-05-04 07:00","2016","05","04","07:00","17.0","","0.5","","33","","18","","2","","","","96.04","","","","","","NA"
"-111.21","56.65","FORT MCMURRAY CS","3062696","2016-05-04 08:00","2016","05","04","08:00","19.6","","1.7","","30","","4","","3","","","","95.99","","","","","","NA"
"-111.21","56.65","FORT MCMURRAY CS","3062696","2016-05-04 09:00","2016","05","04","09:00","21.9","","2.5","","28","","36","","4","","","","95.92","","","","","","NA"
"-111.21","56.65","FORT MCMURRAY CS","3062696","2016-05-04 10:00","2016","05","04","10:00","25.7","","3.5","","24","","5","","3","","","","95.85","","25","","","","NA"
"-111.21","56.65","FORT MCMURRAY CS","3062696","2016-05-04 11:00","2016","05","04","11:00","29.7","","1.2","","16","","29","","6","","","","95.81","","28","","","","NA"
"-111.21","56.65","FORT MCMURRAY CS","3062696","2016-05-04 12:00","2016","05","04","12:00","30.2","","-1.2","","13","","26","","17","","","","95.76","","28","","","","NA"
"-111.21","56.65","FORT MCMURRAY CS","3062696","2016-05-04 13:00","2016","05","04","13:00","30.7","","-1.6","","12","","23","","20","","","","95.72","","28","","","","NA"
"-111.21","56.65","FORT MCMURRAY CS","3062696","2016-05-04 14:00","2016","05","04","14:00","31.6","","-0.6","","13","","23","","21","","","","95.68","","29","","","","NA"
"-111.21","56.65","FORT MCMURRAY CS","3062696","2016-05-04 15:00","2016","05","04","15:00","29.3","","-1.4","","14","","26","","26","","","","95.66","","27","","","","NA"
"-111.21","56.65","FORT MCMURRAY CS","3062696","2016-05-04 16:00","2016","05","04","16:00","27.8","","1.0","","18","","27","","29","","","","95.75","","26","","","","NA"
"-111.21","56.65","FORT MCMURRAY CS","3062696","2016-05-04 17:00","2016","05","04","17:00","26.8","","1.7","","20","","28","","52","","","","95.78","","25","","","","NA"
"-111.21","56.65","FORT MCMURRAY CS","3062696","2016-05-04 18:00","2016","05","04","18:00","25.2","","1.5","","21","","29","","41","","","","95.92","","","","","","NA"
"-111.21","56.65","FORT MCMURRAY CS","3062696","2016-05-04 19:00","2016","05","04","19:00","24.2","","3.0","","25","","30","","30","","","","95.97","","","","","","NA"
"-111.21","56.65","FORT MCMURRAY CS","3062696","2016-05-04 20:00","2016","05","04","20:00","22.6","","2.3","","26","","29","","28","","","","96.03","","","","","","NA"
"-111.21","56.65","FORT MCMURRAY CS","3062696","2016-05-04 21:00","2016","05","04","21:00","21.8","","1.4","","26","","29","","27","","","","96.10","","","","","","NA"
"-111.21","56.65","FORT MCMURRAY CS","3062696","2016-05-04 22:00","2016","05","04","22:00","20.3","","0.0","","26","","29","","24","","","","96.19","","","","","","NA"
"-111.21","56.65","FORT MCMURRAY CS","3062696","2016-05-04 23:00","2016","05","04","23:00","18.8","","-1.3","","26","","30","","25","","","","96.25","","","","","","NA"
"-111.21","56.65","FORT MCMURRAY CS","3062696","2016-05-05 00:00","2016","05","05","00:00","17.4","","-3.8","","23","","28","","26","","","","96.29","","","","","","NA"
"-111.21","56.65","FORT MCMURRAY CS","3062696","2016-05-05 01:00","2016","05","05","01:00","16.7","","-2.1","","28","","32","","19","","","","96.40","","","","","","NA"
"-111.21","56.65","FORT MCMURRAY CS","3062696","2016-05-05 02:00","2016","05","05","02:00","15.6","","-0.7","","33","","33","","24","","","","96.46","","","","","","NA"
"-111.21","56.65","FORT MCMURRAY CS","3062696","2016-05-05 03:00","2016","05","05","03:00","13.6","","0.7","","41","","32","","26","","","","96.58","","","","","","NA"
"-111.21","56.65","FORT MCMURRAY CS","3062696","2016-05-05 04:00","2016","05","05","04:00","12.0","","1.1","","47","","32","","19","","","","96.63","","","","","","NA"
"-111.21","56.65","FORT MCMURRAY CS","3062696","2016-05-05 05:00","2016","05","05","05:00","11.9","","1.2","","48","","31","","16","","","","96.72","","","","","","NA"
"-111.21","56.65","FORT MCMURRAY CS","3062696","2016-05-05 06:00","2016","05","05","06:00","11.8","","0.9","","47","","30","","15","","","","96.81","","","","","","NA"
"-111.21","56.65","FORT MCMURRAY CS","3062696","2016-05-05 07:00","2016","05","05","07:00","11.8","","1.0","","47","","31","","12","","","","96.83","","","","","","NA"
"-111.21","56.65","FORT MCMURRAY CS","3062696","2016-05-05 08:00","2016","05","05","08:00","13.0","","-0.2","","40","","31","","15","","","","96.87","","","","","","NA"
"-111.21","56.65","FORT MCMURRAY CS","3062696","2016-05-05 09:00","2016","05","05","09:00","14.3","","-1.3","","34","","30","","10","","","","96.90","","","","","","NA"
"-111.21","56.65","FORT MCMURRAY CS","3062696","2016-05-05 10:00","2016","05","05","10:00","14.9","","-4.0","","27","","31","","18","","","","96.92","","","","","","NA"
"-111.21","56.65","FORT MCMURRAY CS","3062696","2016-05-05 11:00","2016","05","05","11:00","16.1","","-7.3","","19","","32","","16","","","","96.91","","","","","","NA"
"-111.21","56.65","FORT MCMURRAY CS","3062696","2016-05-05 12:00","2016","05","05","12:00","17.3","","-7.3","","18","","30","","20","","","","96.88","","","","","","NA"
"-111.21","56.65","FORT MCMURRAY CS","3062696","2016-05-05 13:00","2016","05","05","13:00","17.4","","-5.6","","20","","29","","27","","","","96.88","","","","","","NA"
"-111.21","56.65","FORT MCMURRAY CS","3062696","2016-05-05 14:00","2016","05","05","14:00","17.4","","-5.9","","20","","29","","25","","","","96.86","","","","","","NA"
"-111.21","56.65","FORT MCMURRAY CS","3062696","2016-05-05 15:00","2016","05","05","15:00","16.9","","-6.9","","19","","30","","22","","","","96.87","","","","","","NA"
"-111.21","56.65","FORT MCMURRAY CS","3062696","2016-05-05 16:00","2016","05","05","16:00","17.8","","-7.5","","17","","30","","27","","","","96.83","","","","","","NA"
"-111.21","56.65","FORT MCMURRAY CS","3062696","2016-05-05 17:00","2016","05","05","17:00","17.7","","-8.3","","16","","29","","28","","","","96.85","","","","","","NA"
"-111.21","56.65","FORT MCMURRAY CS","3062696","2016-05-05 18:00","2016","05","05","18:00","17.0","","-9.8","","15","","31","","19","","","","96.87","","","","","","NA"
"-111.21","56.65","FORT MCMURRAY CS","3062696","2016-05-05 19:00","2016","05","05","19:00","16.3","","-9.8","","16","","32","","20","","","","96.92","","","","","","NA"
"-111.21","56.65","FORT MCMURRAY CS","3062696","2016-05-05 20:00","2016","05","05","20:00","15.2","","-9.8","","17","","31","","21","","","","97.00","","","","","","NA"
"-111.21","56.65","FORT MCMURRAY CS","3062696","2016-05-05 21:00","2016","05","05","21:00","14.3","","-9.2","","19","","33","","18","","","","97.09","","","","","","NA"
"-111.21","56.65","FORT MCMURRAY CS","3062696","2016-05-05 22:00","2016","05","05","22:00","12.3","","-3.5","","33","","6","","7","","","","97.19","","","","","","NA"
"-111.21","56.65","FORT MCMURRAY CS","3062696","2016-05-05 23:00","2016","05","05","23:00","11.6","","-2.5","","37","","33","","7","","","","97.28","","","","","","NA"
"-111.21","56.65","FORT MCMURRAY CS","3062696","2016-05-06 00:00","2016","05","06","00:00","10.5","","-1.3","","44","","35","","5","","","","97.32","","","","","","NA"
"-111.21","56.65","FORT MCMURRAY CS","3062696","2016-05-06 01:00","2016","05","06","01:00","10.2","","-1.1","","45","","1","","5","","","","97.39","","","","","","NA"
"-111.21","56.65","FORT MCMURRAY CS","3062696","2016-05-06 02:00","2016","05","06","02:00","6.9","","-0.3","","60","","25","","5","","","","97.41","","","","","","NA"
"-111.21","56.65","FORT MCMURRAY CS","3062696","2016-05-06 03:00","2016","05","06","03:00","5.7","","-0.1","","66","","24","","10","","","","97.41","","","","","","NA"
"-111.21","56.65","FORT MCMURRAY CS","3062696","2016-05-06 04:00","2016","05","06","04:00","4.2","","-1.8","","65","","22","","11","","","","97.46","","","","","","NA"
"-111.21","56.65","FORT MCMURRAY CS","3062696","2016-05-06 05:00","2016","05","06","05:00","3.9","","-2.2","","64","","22","","12","","","","97.54","","","","","","NA"
"-111.21","56.65","FORT MCMURRAY CS","3062696","2016-05-06 06:00","2016","05","06","06:00","4.9","","-1.9","","61","","22","","9","","","","97.62","","","","","","NA"
"-111.21","56.65","FORT MCMURRAY CS","3062696","2016-05-06 07:00","2016","05","06","07:00","7.1","","-2.3","","51","","23","","10","","","","97.66","","","","","","NA"
"-111.21","56.65","FORT MCMURRAY CS","3062696","2016-05-06 08:00","2016","05","06","08:00","9.5","","-3.7","","39","","35","","3","","","","97.70","","","","","","NA"
"-111.21","56.65","FORT MCMURRAY CS","3062696","2016-05-06 09:00","2016","05","06","09:00","12.3","","-4.2","","31","","32","","4","","","","97.72","","","","","","NA"
"-111.21","56.65","FORT MCMURRAY CS","3062696","2016-05-06 10:00","2016","05","06","10:00","14.5","","-5.7","","24","","31","","10","","","","97.66","","","","","","NA"
"-111.21","56.65","FORT MCMURRAY CS","3062696","2016-05-06 11:00","2016","05","06","11:00","15.3","","-7.2","","21","","28","","12","","","","97.63","","","","","","NA"
"-111.21","56.65","FORT MCMURRAY CS","3062696","2016-05-06 12:00","2016","05","06","12:00","16.8","","-8.0","","18","","34","","20","","","","97.56","","","","","","NA"
"-111.21","56.65","FORT MCMURRAY CS","3062696","2016-05-06 13:00","2016","05","06","13:00","17.8","","-9.5","","15","","27","","13","","","","97.49","","","","","","NA"
"-111.21","56.65","FORT MCMURRAY CS","3062696","2016-05-06 14:00","2016","05","06","14:00","18.3","","-8.8","","15","","30","","19","","","","97.42","","","","","","NA"
"-111.21","56.65","FORT MCMURRAY CS","3062696","2016-05-06 15:00","2016","05","06","15:00","18.6","","-9.5","","14","","29","","20","","","","97.36","","","","","","NA"
"-111.21","56.65","FORT MCMURRAY CS","3062696","2016-05-06 16:00","2016","05","06","16:00","18.6","","-9.0","","15","","30","","23","","","","97.29","","","","","","NA"
"-111.21","56.65","FORT MCMURRAY CS","3062696","2016-05-06 17:00","2016","05","06","17:00","18.6","","-7.6","","16","","30","","16","","","","97.23","","","","","","NA"
"-111.21","56.65","FORT MCMURRAY CS","3062696","2016-05-06 18:00","2016","05","06","18:00","18.8","","-7.7","","16","","32","","9","","","","97.18","","","","","","NA"
"-111.21","56.65","FORT MCMURRAY CS","3062696","2016-05-06 19:00","2016","05","06","19:00","14.7","","-4.7","","26","","13","","17","","","","97.14","","","","","","NA"
"-111.21","56.65","FORT MCMURRAY CS","3062696","2016-05-06 20:00","2016","05","06","20:00","12.0","","-4.6","","31","","12","","8","","","","97.12","","","","","","NA"
"-111.21","56.65","FORT MCMURRAY CS","3062696","2016-05-06 21:00","2016","05","06","21:00","11.3","","-3.9","","34","","14","","13","","","","97.07","","","","","","NA"
"-111.21","56.65","FORT MCMURRAY CS","3062696","2016-05-06 22:00","2016","05","06","22:00","10.7","","-4.2","","35","","12","","8","","","","97.01","","","","","","NA"
"-111.21","56.65","FORT MCMURRAY CS","3062696","2016-05-06 23:00","2016","05","06","23:00","9.2","","-2.9","","42","","10","","7","","","","96.96","","","","","","NA"
"-111.21","56.65","FORT MCMURRAY CS","3062696","2016-05-07 00:00","2016","05","07","00:00","8.2","","-2.5","","47","","10","","9","","","","96.90","","","","","","NA"
"-111.21","56.65","FORT MCMURRAY CS","3062696","2016-05-07 01:00","2016","05","07","01:00","7.7","","-2.0","","50","","10","","11","","","","96.83","","","","","","NA"
"-111.21","56.65","FORT MCMURRAY CS","3062696","2016-05-07 02:00","2016","05","07","02:00","8.6","","-1.7","","48","","10","","10","","","","96.72","","","","","","NA"
"-111.21","56.65","FORT MCMURRAY CS","3062696","2016-05-07 03:00","2016","05","07","03:00","7.6","","-1.3","","53","","9","","5","","","","96.66","","","","","","NA"
"-111.21","56.65","FORT MCMURRAY CS","3062696","2016-05-07 04:00","2016","05","07","04:00","7.6","","-1.3","","53","","10","","10","","","","96.59","","","","","","NA"
"-111.21","56.65","FORT MCMURRAY CS","3062696","2016-05-07 05:00","2016","05","07","05:00","7.5","","-1.3","","54","","10","","10","","","","96.48","","","","","","NA"
"-111.21","56.65","FORT MCMURRAY CS","3062696","2016-05-07 06:00","2016","05","07","06:00","7.6","","-0.9","","55","","10","","8","","","","96.42","","","","","","NA"
"-111.21","56.65","FORT MCMURRAY CS","3062696","2016-05-07 07:00","2016","05","07","07:00","8.9","","-0.2","","53","","11","","6","","","","96.36","","","","","","NA"
"-111.21","56.65","FORT MCMURRAY CS","3062696","2016-05-07 08:00","2016","05","07","08:00","11.3","","0.3","","46","","9","","8","","","","96.26","","","","","","NA"
"-111.21","56.65","FORT MCMURRAY CS","3062696","2016-05-07 09:00","2016","05","07","09:00","13.2","","0.7","","42","","7","","7","","","","96.15","","","","","","NA"
"-111.21","56.65","FORT MCMURRAY CS","3062696","2016-05-07 10:00","2016","05","07","10:00","16.1","","0.2","","34","","4","","4","","","","96.10","","","","","","NA"
"-111.21","56.65","FORT MCMURRAY CS","3062696","2016-05-07 11:00","2016","05","07","11:00","19.5","","-1.0","","25","","35","","7","","","","96.00","","","","","","NA"
"-111.21","56.65","FORT MCMURRAY CS","3062696","2016-05-07 12:00","2016","05","07","12:00","21.0","","-0.8","","23","","36","","9","","","","95.93","","","","","","NA"
"-111.21","56.65","FORT MCMURRAY CS","3062696","2016-05-07 13:00","2016","05","07","13:00","23.1","","-1.9","","19","","35","","6","","","","95.86","","","","","","NA"
"-111.21","56.65","FORT MCMURRAY CS","3062696","2016-05-07 14:00","2016","05","07","14:00","24.9","","-1.7","","17","","36","","12","","","","95.78","","","","","","NA"
"-111.21","56.65","FORT MCMURRAY CS","3062696","2016-05-07 15:00","2016","05","07","15:00","25.6","","-1.1","","17","","26","","18","","","","95.70","","","","","","NA"
"-111.21","56.65","FORT MCMURRAY CS","3062696","2016-05-07 16:00","2016","05","07","16:00","25.3","","-0.1","","19","","24","","20","","","","95.65","","","","","","NA"
"-111.21","56.65","FORT MCMURRAY CS","3062696","2016-05-07 17:00","2016","05","07","17:00","25.3","","-1.8","","17","","24","","21","","","","95.57","","","","","","NA"
"-111.21","56.65","FORT MCMURRAY CS","3062696","2016-05-07 18:00","2016","05","07","18:00","25.1","","-1.4","","17","","27","","14","","","","95.51","","","","","","NA"
"-111.21","56.65","FORT MCMURRAY CS","3062696","2016-05-07 19:00","2016","05","07","19:00","22.7","","0.5","","23","","22","","5","","","","95.43","","","","","","NA"
"-111.21","56.65","FORT MCMURRAY CS","3062696","2016-05-07 20:00","2016","05","07","20:00","19.7","","1.7","","30","","10","","10","","","","95.35","","","","","","NA"
"-111.21","56.65","FORT MCMURRAY CS","3062696","2016-05-07 21:00","2016","05","07","21:00","17.8","","2.2","","35","","10","","13","","","","95.30","","","","","","NA"
"-111.21","56.65","FORT MCMURRAY CS","3062696","2016-05-07 22:00","2016","05","07","22:00","16.2","","1.8","","38","","10","","11","","","","95.22","","","","","","NA"
"-111.21","56.65","FORT MCMURRAY CS","3062696","2016-05-07 23:00","2016","05","07","23:00","14.4","","2.1","","43","","9","","10","","","","95.14","","","","","","NA"
"-111.21","56.65","FORT MCMURRAY CS","3062696","2016-05-08 00:00","2016","05","08","00:00","14.7","","3.5","","47","","11","","10","","","","95.06","","","","","","NA"
"-111.21","56.65","FORT MCMURRAY CS","3062696","2016-05-08 01:00","2016","05","08","01:00","14.7","","3.4","","47","","8","","12","","","","94.90","","","","","","NA"
"-111.21","56.65","FORT MCMURRAY CS","3062696","2016-05-08 02:00","2016","05","08","02:00","15.0","","3.4","","46","","11","","13","","","","94.83","","","","","","NA"
"-111.21","56.65","FORT MCMURRAY CS","3062696","2016-05-08 03:00","2016","05","08","03:00","12.8","","3.5","","53","","32","","11","","","","94.78","","","","","","NA"
"-111.21","56.65","FORT MCMURRAY CS","3062696","2016-05-08 04:00","2016","05","08","04:00","12.9","","4.2","","56","","31","","15","","","","94.77","","","","","","NA"
"-111.21","56.65","FORT MCMURRAY CS","3062696","2016-05-08 05:00","2016","05","08","05:00","13.2","","3.7","","52","","29","","16","","","","94.83","","","","","","NA"
"-111.21","56.65","FORT MCMURRAY CS","3062696","2016-05-08 06:00","2016","05","08","06:00","14.7","","4.2","","49","","29","","20","","","","94.87","","","","","","NA"
"-111.21","56.65","FORT MCMURRAY CS","3062696","2016-05-08 07:00","2016","05","08","07:00","14.8","","4.0","","48","","28","","29","","","","94.92","","","","","","NA"
"-111.21","56.65","FORT MCMURRAY CS","3062696","2016-05-08 08:00","2016","05","08","08:00","13.1","","5.0","","58","","29","","31","","","","94.98","","","","","","NA"
"-111.21","56.65","FORT MCMURRAY CS","3062696","2016-05-08 09:00","2016","05","08","09:00","11.5","","6.4","","71","","29","","24","","","","95.02","","","","","","NA"
"-111.21","56.65","FORT MCMURRAY CS","3062696","2016-05-08 10:00","2016","05","08","10:00","12.2","","5.7","","65","","27","","10","","","","94.99","","","","","","NA"
"-111.21","56.65","FORT MCMURRAY CS","3062696","2016-05-08 11:00","2016","05","08","11:00","14.6","","2.1","","43","","24","","23","","","","95.02","","","","","","NA"
"-111.21","56.65","FORT MCMURRAY CS","3062696","2016-05-08 12:00","2016","05","08","12:00","15.5","","-1.7","","31","","25","","27","","","","95.00","","","","","","NA"
"-111.21","56.65","FORT MCMURRAY CS","3062696","2016-05-08 13:00","2016","05","08","13:00","15.6","","-4.1","","26","","26","","27","","","","95.08","","","","","","NA"
"-111.21","56.65","FORT MCMURRAY CS","3062696","2016-05-08 14:00","2016","05","08","14:00","16.2","","-5.5","","22","","26","","25","","","","95.08","","","","","","NA"
"-111.21","56.65","FORT MCMURRAY CS","3062696","2016-05-08 15:00","2016","05","08","15:00","16.7","","-4.9","","22","","27","","26","","","","95.09","","","","","","NA"
"-111.21","56.65","FORT MCMURRAY CS","3062696","2016-05-08 16:00","2016","05","08","16:00","15.3","","-4.4","","25","","25","","32","","","","95.17","","","","","","NA"
"-111.21","56.65","FORT MCMURRAY CS","3062696","2016-05-08 17:00","2016","05","08","17:00","14.4","","-3.6","","29","","25","","34","","","","95.21","","","","","","NA"
"-111.21","56.65","FORT MCMURRAY CS","3062696","2016-05-08 18:00","2016","05","08","18:00","13.0","","-1.8","","36","","24","","32","","","","95.26","","","","","","NA"
"-111.21","56.65","FORT MCMURRAY CS","3062696","2016-05-08 19:00","2016","05","08","19:00","11.6","","-0.1","","44","","25","","31","","","","95.35","","","","","","NA"
"-111.21","56.65","FORT MCMURRAY CS","3062696","2016-05-08 20:00","2016","05","08","20:00","9.7","","1.1","","55","","25","","21","","","","95.44","","","","","","NA"
"-111.21","56.65","FORT MCMURRAY CS","3062696","2016-05-08 21:00","2016","05","08","21:00","9.3","","1.8","","60","","24","","15","","","","95.52","","","","","","NA"
"-111.21","56.65","FORT MCMURRAY CS","3062696","2016-05-08 22:00","2016","05","08","22:00","9.5","","2.4","","61","","29","","29","","","","95.63","","","","","","NA"
"-111.21","56.65","FORT MCMURRAY CS","3062696","2016-05-08 23:00","2016","05","08","23:00","7.1","","1.0","","65","","31","","28","","","","95.81","","","","","","NA"
"-111.21","56.65","FORT MCMURRAY CS","3062696","2016-05-09 00:00","2016","05","09","00:00","5.9","","0.8","","69","","30","","27","","","","95.94","","","","","","NA"
"-111.21","56.65","FORT MCMURRAY CS","3062696","2016-05-09 01:00","2016","05","09","01:00","4.8","","1.4","","78","","31","","22","","","","96.05","","","","","","NA"
"-111.21","56.65","FORT MCMURRAY CS","3062696","2016-05-09 02:00","2016","05","09","02:00","4.5","","2.2","","85","","30","","16","","","","96.14","","","","","","NA"
"-111.21","56.65","FORT MCMURRAY CS","3062696","2016-05-09 03:00","2016","05","09","03:00","4.2","","1.7","","84","","29","","13","","","","96.20","","","","","","NA"
"-111.21","56.65","FORT MCMURRAY CS","3062696","2016-05-09 04:00","2016","05","09","04:00","4.0","","1.4","","83","","26","","15","","","","96.25","","","","","","NA"
"-111.21","56.65","FORT MCMURRAY CS","3062696","2016-05-09 05:00","2016","05","09","05:00","4.7","","1.1","","78","","26","","17","","","","96.36","","","","","","NA"
"-111.21","56.65","FORT MCMURRAY CS","3062696","2016-05-09 06:00","2016","05","09","06:00","4.9","","0.7","","74","","28","","23","","","","96.46","","","","","","NA"
"-111.21","56.65","FORT MCMURRAY CS","3062696","2016-05-09 07:00","2016","05","09","07:00","5.5","","0.4","","70","","28","","23","","","","96.54","","","","","","NA"
"-111.21","56.65","FORT MCMURRAY CS","3062696","2016-05-09 08:00","2016","05","09","08:00","6.3","","-0.5","","62","","29","","28","","","","96.58","","","","","","NA"
"-111.21","56.65","FORT MCMURRAY CS","3062696","2016-05-09 09:00","2016","05","09","09:00","6.9","","-0.7","","58","","30","","23","","","","96.64","","","","","","NA"
"-111.21","56.65","FORT MCMURRAY CS","3062696","2016-05-09 10:00","2016","05","09","10:00","7.4","","-1.2","","54","","30","","19","","","","96.73","","","","","","NA"
"-111.21","56.65","FORT MCMURRAY CS","3062696","2016-05-09 11:00","2016","05","09","11:00","7.4","","-0.8","","56","","32","","13","","","","96.78","","","","","","NA"
"-111.21","56.65","FORT MCMURRAY CS","3062696","2016-05-09 12:00","2016","05","09","12:00","8.3","","-0.9","","52","","32","","24","","","","96.83","","","","","","NA"
"-111.21","56.65","FORT MCMURRAY CS","3062696","2016-05-09 13:00","2016","05","09","13:00","8.5","","-0.9","","52","","32","","20","","","","96.90","","","","","","NA"
"-111.21","56.65","FORT MCMURRAY CS","3062696","2016-05-09 14:00","2016","05","09","14:00","8.4","","-0.5","","54","","32","","19","","","","96.98","","","","","","NA"
"-111.21","56.65","FORT MCMURRAY CS","3062696","2016-05-09 15:00","2016","05","09","15:00","8.7","","-0.7","","52","","32","","17","","","","97.06","","","","","","NA"
"-111.21","56.65","FORT MCMURRAY CS","3062696","2016-05-09 16:00","2016","05","09","16:00","8.7","","-0.4","","53","","32","","14","","","","97.14","","","","","","NA"
"-111.21","56.65","FORT MCMURRAY CS","3062696","2016-05-09 17:00","2016","05","09","17:00","8.4","","0.1","","56","","33","","18","","","","97.21","","","","","","NA"
"-111.21","56.65","FORT MCMURRAY CS","3062696","2016-05-09 18:00","2016","05","09","18:00","8.1","","0.3","","58","","34","","16","","","","97.27","","","","","","NA"
"-111.21","56.65","FORT MCMURRAY CS","3062696","2016-05-09 19:00","2016","05","09","19:00","8.0","","0.1","","58","","31","","16","","","","97.34","","","","","","NA"
"-111.21","56.65","FORT MCMURRAY CS","3062696","2016-05-09 20:00","2016","05","09","20:00","7.8","","0.4","","59","","31","","13","","","","97.41","","","","","","NA"
"-111.21","56.65","FORT MCMURRAY CS","3062696","2016-05-09 21:00","2016","05","09","21:00","7.5","","0.7","","62","","28","","11","","","","97.45","","","","","","NA"
"-111.21","56.65","FORT MCMURRAY CS","3062696","2016-05-09 22:00","2016","05","09","22:00","7.0","","0.5","","63","","28","","10","","","","97.50","","","","","","NA"
"-111.21","56.65","FORT MCMURRAY CS","3062696","2016-05-09 23:00","2016","05","09","23:00","6.7","","0.7","","65","","32","","15","","","","97.54","","","","","","NA"
"-111.21","56.65","FORT MCMURRAY CS","3062696","2016-05-10 00:00","2016","05","10","00:00","6.0","","1.2","","71","","4","","10","","","","97.61","","","","","","NA"
"-111.21","56.65","FORT MCMURRAY CS","3062696","2016-05-10 01:00","2016","05","10","01:00","5.7","","1.3","","73","","30","","2","","","","97.66","","","","","","NA"
"-111.21","56.65","FORT MCMURRAY CS","3062696","2016-05-10 02:00","2016","05","10","02:00","3.0","","0.3","","83","","25","","6","","","","97.70","","","","","","NA"
"-111.21","56.65","FORT MCMURRAY CS","3062696","2016-05-10 03:00","2016","05","10","03:00","2.7","","0.4","","85","","27","","5","","","","97.75","","","","","","NA"
"-111.21","56.65","FORT MCMURRAY CS","3062696","2016-05-10 04:00","2016","05","10","04:00","0.7","","-0.1","","94","","22","","2","","","","97.77","","","","","","NA"
"-111.21","56.65","FORT MCMURRAY CS","3062696","2016-05-10 05:00","2016","05","10","05:00","0.1","","-0.5","","96","","18","","4","","","","97.84","","","","","","NA"
"-111.21","56.65","FORT MCMURRAY CS","3062696","2016-05-10 06:00","2016","05","10","06:00","2.7","","0.4","","85","","24","","11","","","","97.90","","","","","","NA"
"-111.21","56.65","FORT MCMURRAY CS","3062696","2016-05-10 07:00","2016","05","10","07:00","5.3","","0.6","","72","","28","","8","","","","97.93","","","","","","NA"
"-111.21","56.65","FORT MCMURRAY CS","3062696","2016-05-10 08:00","2016","05","10","08:00","6.7","","-0.3","","61","","31","","7","","","","97.97","","","","","","NA"
"-111.21","56.65","FORT MCMURRAY CS","3062696","2016-05-10 09:00","2016","05","10","09:00","9.0","","-0.6","","51","","33","","11","","","","97.97","","","","","","NA"
"-111.21","56.65","FORT MCMURRAY CS","3062696","2016-05-10 10:00","2016","05","10","10:00","10.2","","-1.6","","44","","34","","14","","","","97.96","","","","","","NA"
"-111.21","56.65","FORT MCMURRAY CS","3062696","2016-05-10 11:00","2016","05","10","11:00","11.9","","-1.7","","39","","34","","18","","","","97.93","","","","","","NA"
"-111.21","56.65","FORT MCMURRAY CS","3062696","2016-05-10 12:00","2016","05","10","12:00","11.6","","-2.9","","36","","34","","13","","","","97.91","","","","","","NA"
"-111.21","56.65","FORT MCMURRAY CS","3062696","2016-05-10 13:00","2016","05","10","13:00","12.7","","-2.3","","35","","3","","6","","","","97.91","","","","","","NA"
"-111.21","56.65","FORT MCMURRAY CS","3062696","2016-05-10 14:00","2016","05","10","14:00","14.0","","-2.1","","33","","32","","11","","","","97.89","","","","","","NA"
"-111.21","56.65","FORT MCMURRAY CS","3062696","2016-05-10 15:00","2016","05","10","15:00","12.7","","-3.1","","33","","2","","17","","","","97.89","","","","","","NA"
"-111.21","56.65","FORT MCMURRAY CS","3062696","2016-05-10 16:00","2016","05","10","16:00","13.1","","-3.6","","31","","2","","17","","","","97.87","","","","","","NA"
"-111.21","56.65","FORT MCMURRAY CS","3062696","2016-05-10 17:00","2016","05","10","17:00","13.7","","-3.3","","31","","1","","21","","","","97.89","","","","","","NA"
"-111.21","56.65","FORT MCMURRAY CS","3062696","2016-05-10 18:00","2016","05","10","18:00","12.7","","-3.5","","32","","1","","18","","","","97.92","","","","","","NA"
"-111.21","56.65","FORT MCMURRAY CS","3062696","2016-05-10 19:00","2016","05","10","19:00","11.5","","-3.6","","35","","4","","18","","","","97.96","","","","","","NA"
"-111.21","56.65","FORT MCMURRAY CS","3062696","2016-05-10 20:00","2016","05","10","20:00","9.9","","-2.7","","41","","4","","21","","","","98.03","","","","","","NA"
"-111.21","56.65","FORT MCMURRAY CS","3062696","2016-05-10 21:00","2016","05","10","21:00","8.0","","-2.0","","49","","5","","15","","","","98.10","","","","","","NA"
"-111.21","56.65","FORT MCMURRAY CS","3062696","2016-05-10 22:00","2016","05","10","22:00","6.7","","-1.5","","56","","7","","14","","","","98.15","","","","","","NA"
"-111.21","56.65","FORT MCMURRAY CS","3062696","2016-05-10 23:00","2016","05","10","23:00","4.9","","-1.7","","62","","8","","8","","","","98.19","","","","","","NA"
"-111.21","56.65","FORT MCMURRAY CS","3062696","2016-05-11 00:00","2016","05","11","00:00","3.8","","-1.7","","67","","5","","5","","","","98.20","","","","","","NA"
"-111.21","56.65","FORT MCMURRAY CS","3062696","2016-05-11 01:00","2016","05","11","01:00","1.6","","-2.6","","73","","4","","1","","","","98.21","","","","","","NA"
"-111.21","56.65","FORT MCMURRAY CS","3062696","2016-05-11 02:00","2016","05","11","02:00","-0.1","","-2.8","","82","","5","","2","","","","98.24","","","","-1","","NA"
"-111.21","56.65","FORT MCMURRAY CS","3062696","2016-05-11 03:00","2016","05","11","03:00","-2.3","","-4.7","","84","","2","","2","","","","98.25","","","","-3","","NA"
"-111.21","56.65","FORT MCMURRAY CS","3062696","2016-05-11 04:00","2016","05","11","04:00","-3.5","","-4.2","","95","","27","","5","","","","98.26","","","","-6","","NA"
"-111.21","56.65","FORT MCMURRAY CS","3062696","2016-05-11 05:00","2016","05","11","05:00","0.4","","-2.2","","83","","32","","7","","","","98.31","","","","","","NA"
"-111.21","56.65","FORT MCMURRAY CS","3062696","2016-05-11 06:00","2016","05","11","06:00","2.0","","-1.3","","79","","34","","9","","","","98.32","","","","","","NA"
"-111.21","56.65","FORT MCMURRAY CS","3062696","2016-05-11 07:00","2016","05","11","07:00","2.4","","-1.3","","76","","33","","10","","","","98.33","","","","","","NA"
"-111.21","56.65","FORT MCMURRAY CS","3062696","2016-05-11 08:00","2016","05","11","08:00","5.0","","-2.3","","59","","35","","8","","","","98.32","","","","","","NA"
"-111.21","56.65","FORT MCMURRAY CS","3062696","2016-05-11 09:00","2016","05","11","09:00","6.6","","-3.1","","50","","2","","11","","","","98.33","","","","","","NA"
"-111.21","56.65","FORT MCMURRAY CS","3062696","2016-05-11 10:00","2016","05","11","10:00","7.9","","-4.6","","41","","1","","17","","","","98.30","","","","","","NA"
"-111.21","56.65","FORT MCMURRAY CS","3062696","2016-05-11 11:00","2016","05","11","11:00","10.0","","-4.5","","36","","36","","15","","","","98.26","","","","","","NA"
"-111.21","56.65","FORT MCMURRAY CS","3062696","2016-05-11 12:00","2016","05","11","12:00","9.4","","-4.7","","37","","36","","20","","","","98.24","","","","","","NA"
"-111.21","56.65","FORT MCMURRAY CS","3062696","2016-05-11 13:00","2016","05","11","13:00","10.2","","-5.5","","33","","2","","16","","","","98.24","","","","","","NA"
"-111.21","56.65","FORT MCMURRAY CS","3062696","2016-05-11 14:00","2016","05","11","14:00","10.8","","-5.2","","32","","3","","17","","","","98.21","","","","","","NA"
"-111.21","56.65","FORT MCMURRAY CS","3062696","2016-05-11 15:00","2016","05","11","15:00","11.5","","-4.8","","32","","3","","15","","","","98.22","","","","","","NA"
"-111.21","56.65","FORT MCMURRAY CS","3062696","2016-05-11 16:00","2016","05","11","16:00","10.0","","-5.1","","34","","2","","19","","","","98.21","","","","","","NA"
"-111.21","56.65","FORT MCMURRAY CS","3062696","2016-05-11 17:00","2016","05","11","17:00","11.1","","-6.1","","29","","2","","20","","","","98.20","","","","","","NA"
"-111.21","56.65","FORT MCMURRAY CS","3062696","2016-05-11 18:00","2016","05","11","18:00","9.9","","-6.4","","31","","2","","22","","","","98.20","","","","","","NA"
"-111.21","56.65","FORT MCMURRAY CS","3062696","2016-05-11 19:00","2016","05","11","19:00","9.5","","-7.4","","29","","3","","21","","","","98.23","","","","","","NA"
"-111.21","56.65","FORT MCMURRAY CS","3062696","2016-05-11 20:00","2016","05","11","20:00","8.6","","-6.9","","33","","1","","12","","","","98.26","","","","","","NA"
"-111.21","56.65","FORT MCMURRAY CS","3062696","2016-05-11 21:00","2016","05","11","21:00","6.7","","-7.3","","36","","2","","12","","","","98.33","","","","","","NA"
"-111.21","56.65","FORT MCMURRAY CS","3062696","2016-05-11 22:00","2016","05","11","22:00","5.6","","-8.2","","36","","2","","16","","","","98.35","","","","","","NA"
"-111.21","56.65","FORT MCMURRAY CS","3062696","2016-05-11 23:00","2016","05","11","23:00","4.7","","-8.5","","38","","5","","16","","","","98.36","","","","","","NA"
"-111.21","56.65","FORT MCMURRAY CS","3062696","2016-05-12 00:00","2016","05","12","00:00","3.2","","-7.8","","45","","7","","8","","","","98.37","","","","","","NA"
"-111.21","56.65","FORT MCMURRAY CS","3062696","2016-05-12 01:00","2016","05","12","01:00","-0.1","","-7.3","","59","","3","","3","","","","98.37","","","","-1","","NA"
"-111.21","56.65","FORT MCMURRAY CS","3062696","2016-05-12 02:00","2016","05","12","02:00","-0.2","","-5.7","","66","","32","","5","","","","98.38","","","","-2","","NA"
"-111.21","56.65","FORT MCMURRAY CS","3062696","2016-05-12 03:00","2016","05","12","03:00","0.1","","-6.3","","62","","32","","8","","","","98.42","","","","","","NA"
"-111.21","56.65","FORT MCMURRAY CS","3062696","2016-05-12 04:00","2016","05","12","04:00","0.2","","-7.2","","58","","32","","8","","","","98.44","","","","","","NA"
"-111.21","56.65","FORT MCMURRAY CS","3062696","2016-05-12 05:00","2016","05","12","05:00","0.5","","-6.2","","61","","32","","7","","","","98.47","","","","","","NA"
"-111.21","56.65","FORT MCMURRAY CS","3062696","2016-05-12 06:00","2016","05","12","06:00","1.3","","-4.7","","64","","32","","9","","","","98.50","","","","","","NA"
"-111.21","56.65","FORT MCMURRAY CS","3062696","2016-05-12 07:00","2016","05","12","07:00","3.9","","-5.8","","49","","31","","6","","","","98.51","","","","","","NA"
"-111.21","56.65","FORT MCMURRAY CS","3062696","2016-05-12 08:00","2016","05","12","08:00","5.2","","-5.6","","45","","30","","6","","","","98.53","","","","","","NA"
"-111.21","56.65","FORT MCMURRAY CS","3062696","2016-05-12 09:00","2016","05","12","09:00","8.1","","-6.8","","34","","33","","13","","","","98.52","","","","","","NA"
"-111.21","56.65","FORT MCMURRAY CS","3062696","2016-05-12 10:00","2016","05","12","10:00","9.3","","-8.2","","28","","3","","18","","","","98.49","","","","","","NA"
"-111.21","56.65","FORT MCMURRAY CS","3062696","2016-05-12 11:00","2016","05","12","11:00","9.9","","-9.3","","25","","6","","20","","","","98.48","","","","","","NA"
"-111.21","56.65","FORT MCMURRAY CS","3062696","2016-05-12 12:00","2016","05","12","12:00","11.1","","-10.1","","22","","2","","16","","","","98.46","","","","","","NA"
"-111.21","56.65","FORT MCMURRAY CS","3062696","2016-05-12 13:00","2016","05","12","13:00","11.4","","-10.3","","21","","5","","17","","","","98.44","","","","","","NA"
"-111.21","56.65","FORT MCMURRAY CS","3062696","2016-05-12 14:00","2016","05","12","14:00","11.9","","-10.7","","19","","34","","15","","","","98.40","","","","","","NA"
"-111.21","56.65","FORT MCMURRAY CS","3062696","2016-05-12 15:00","2016","05","12","15:00","11.1","","-8.7","","24","","2","","16","","","","98.41","","","","","","NA"
"-111.21","56.65","FORT MCMURRAY CS","3062696","2016-05-12 16:00","2016","05","12","16:00","11.4","","-8.6","","24","","1","","19","","","","98.41","","","","","","NA"
"-111.21","56.65","FORT MCMURRAY CS","3062696","2016-05-12 17:00","2016","05","12","17:00","12.6","","-8.4","","22","","36","","18","","","","98.41","","","","","","NA"
"-111.21","56.65","FORT MCMURRAY CS","3062696","2016-05-12 18:00","2016","05","12","18:00","11.0","","-8.4","","25","","36","","12","","","","98.43","","","","","","NA"
"-111.21","56.65","FORT MCMURRAY CS","3062696","2016-05-12 19:00","2016","05","12","19:00","10.4","","-7.9","","27","","3","","10","","","","98.45","","","","","","NA"
"-111.21","56.65","FORT MCMURRAY CS","3062696","2016-05-12 20:00","2016","05","12","20:00","10.0","","-8.2","","27","","6","","9","","","","98.45","","","","","","NA"
"-111.21","56.65","FORT MCMURRAY CS","3062696","2016-05-12 21:00","2016","05","12","21:00","8.2","","-7.6","","32","","2","","11","","","","98.49","","","","","","NA"
"-111.21","56.65","FORT MCMURRAY CS","3062696","2016-05-12 22:00","2016","05","12","22:00","7.0","","-7.3","","35","","4","","6","","","","98.51","","","","","","NA"
"-111.21","56.65","FORT MCMURRAY CS","3062696","2016-05-12 23:00","2016","05","12","23:00","4.2","","-6.4","","46","","4","","4","","","","98.51","","","","","","NA"
"-111.21","56.65","FORT MCMURRAY CS","3062696","2016-05-13 00:00","2016","05","13","00:00","-1.0","","-5.8","","70","","20","","9","","","","98.53","","","","-4","","NA"
"-111.21","56.65","FORT MCMURRAY CS","3062696","2016-05-13 01:00","2016","05","13","01:00","-0.8","","-5.7","","69","","22","","9","","","","98.53","","","","-4","","NA"
"-111.21","56.65","FORT MCMURRAY CS","3062696","2016-05-13 02:00","2016","05","13","02:00","-1.9","","-5.8","","75","","21","","8","","","","98.55","","","","-5","","NA"
"-111.21","56.65","FORT MCMURRAY CS","3062696","2016-05-13 03:00","2016","05","13","03:00","-2.4","","-6.0","","76","","20","","12","","","","98.57","","","","-7","","NA"
"-111.21","56.65","FORT MCMURRAY CS","3062696","2016-05-13 04:00","2016","05","13","04:00","-1.2","","-5.6","","72","","20","","5","","","","98.58","","","","-3","","NA"
"-111.21","56.65","FORT MCMURRAY CS","3062696","2016-05-13 05:00","2016","05","13","05:00","-1.2","","-6.1","","69","","22","","3","","","","98.61","","","","-2","","NA"
"-111.21","56.65","FORT MCMURRAY CS","3062696","2016-05-13 06:00","2016","05","13","06:00","0.6","","-5.0","","66","","22","","5","","","","98.65","","","","","","NA"
"-111.21","56.65","FORT MCMURRAY CS","3062696","2016-05-13 07:00","2016","05","13","07:00","4.2","","-4.7","","52","","24","","8","","","","98.63","","","","","","NA"
"-111.21","56.65","FORT MCMURRAY CS","3062696","2016-05-13 08:00","2016","05","13","08:00","7.9","","-4.9","","40","","28","","3","","","","98.65","","","","","","NA"
"-111.21","56.65","FORT MCMURRAY CS","3062696","2016-05-13 09:00","2016","05","13","09:00","11.1","","-5.7","","30","","32","","7","","","","98.63","","","","","","NA"
"-111.21","56.65","FORT MCMURRAY CS","3062696","2016-05-13 10:00","2016","05","13","10:00","12.7","","-6.1","","27","","34","","13","","","","98.59","","","","","","NA"
"-111.21","56.65","FORT MCMURRAY CS","3062696","2016-05-13 11:00","2016","05","13","11:00","13.9","","-6.9","","23","","29","","7","","","","98.54","","","","","","NA"
"-111.21","56.65","FORT MCMURRAY CS","3062696","2016-05-13 12:00","2016","05","13","12:00","14.3","","-7.7","","21","","32","","6","","","","98.51","","","","","","NA"
"-111.21","56.65","FORT MCMURRAY CS","3062696","2016-05-13 13:00","2016","05","13","13:00","14.7","","-8.7","","19","","26","","8","","","","98.45","","","","","","NA"
"-111.21","56.65","FORT MCMURRAY CS","3062696","2016-05-13 14:00","2016","05","13","14:00","14.8","","-6.8","","22","","36","","7","","","","98.40","","","","","","NA"
"-111.21","56.65","FORT MCMURRAY CS","3062696","2016-05-13 15:00","2016","05","13","15:00","15.4","","-8.3","","19","","25","","9","","","","98.36","","","","","","NA"
"-111.21","56.65","FORT MCMURRAY CS","3062696","2016-05-13 16:00","2016","05","13","16:00","17.2","","-7.6","","18","","30","","11","","","","98.31","","","","","","NA"
"-111.21","56.65","FORT MCMURRAY CS","3062696","2016-05-13 17:00","2016","05","13","17:00","17.6","","-7.2","","18","","30","","14","","","","98.27","","","","","","NA"
"-111.21","56.65","FORT MCMURRAY CS","3062696","2016-05-13 18:00","2016","05","13","18:00","16.9","","-6.8","","19","","30","","18","","","","98.23","","","","","","NA"
"-111.21","56.65","FORT MCMURRAY CS","3062696","2016-05-13 19:00","2016","05","13","19:00","16.0","","-6.7","","20","","34","","12","","","","98.21","","","","","","NA"
"-111.21","56.65","FORT MCMURRAY CS","3062696","2016-05-13 20:00","2016","05","13","20:00","14.9","","-6.7","","22","","33","","8","","","","98.18","","","","","","NA"
"-111.21","56.65","FORT MCMURRAY CS","3062696","2016-05-13 21:00","2016","05","13","21:00","11.5","","-4.6","","32","","23","","5","","","","98.20","","","","","","NA"
"-111.21","56.65","FORT MCMURRAY CS","3062696","2016-05-13 22:00","2016","05","13","22:00","7.1","","-4.9","","42","","22","","7","","","","98.20","","","","","","NA"
"-111.21","56.65","FORT MCMURRAY CS","3062696","2016-05-13 23:00","2016","05","13","23:00","5.8","","-3.0","","53","","19","","6","","","","98.20","","","","","","NA"
"-111.21","56.65","FORT MCMURRAY CS","3062696","2016-05-14 00:00","2016","05","14","00:00","4.0","","-3.7","","57","","18","","4","","","","98.22","","","","","","NA"
"-111.21","56.65","FORT MCMURRAY CS","3062696","2016-05-14 01:00","2016","05","14","01:00","3.7","","-3.5","","59","","19","","4","","","","98.21","","","","","","NA"
"-111.21","56.65","FORT MCMURRAY CS","3062696","2016-05-14 02:00","2016","05","14","02:00","2.6","","-3.6","","64","","19","","3","","","","98.20","","","","","","NA"
"-111.21","56.65","FORT MCMURRAY CS","3062696","2016-05-14 03:00","2016","05","14","03:00","1.7","","-3.9","","66","","19","","7","","","","98.20","","","","","","NA"
"-111.21","56.65","FORT MCMURRAY CS","3062696","2016-05-14 04:00","2016","05","14","04:00","0.0","","-4.1","","73","","21","","7","","","","98.18","","","","-2","","NA"
"-111.21","56.65","FORT MCMURRAY CS","3062696","2016-05-14 05:00","2016","05","14","05:00","1.4","","-3.7","","69","","21","","1","","","","98.17","","","","","","NA"
"-111.21","56.65","FORT MCMURRAY CS","3062696","2016-05-14 06:00","2016","05","14","06:00","2.4","","-3.7","","64","","23","","2","","","","98.17","","","","","","NA"
"-111.21","56.65","FORT MCMURRAY CS","3062696","2016-05-14 07:00","2016","05","14","07:00","4.8","","-3.4","","55","","21","","2","","","","98.16","","","","","","NA"
"-111.21","56.65","FORT MCMURRAY CS","3062696","2016-05-14 08:00","2016","05","14","08:00"
"-111.21","56.65","FORT MCMURRAY CS","3062696","2016-05-14 09:00","2016","05","14","09:00"
"-111.21","56.65","FORT MCMURRAY CS","3062696","2016-05-14 10:00","2016","05","14","10:00"
"-111.21","56.65","FORT MCMURRAY CS","3062696","2016-05-14 11:00","2016","05","14","11:00","16.8","","-5.3","","22","","33","","4","","","","97.96","","","","","","NA"
"-111.21","56.65","FORT MCMURRAY CS","3062696","2016-05-14 12:00","2016","05","14","12:00"
"-111.21","56.65","FORT MCMURRAY CS","3062696","2016-05-14 13:00","2016","05","14","13:00"
"-111.21","56.65","FORT MCMURRAY CS","3062696","2016-05-14 14:00","2016","05","14","14:00","19.3","","-6.6","","17","","2","","13","","","","97.71","","","","","","NA"
"-111.21","56.65","FORT MCMURRAY CS","3062696","2016-05-14 15:00","2016","05","14","15:00","19.8","","-6.7","","16","","32","","21","","","","97.64","","","","","","NA"
"-111.21","56.65","FORT MCMURRAY CS","3062696","2016-05-14 16:00","2016","05","14","16:00","19.9","","-6.9","","16","","33","","13","","","","97.58","","","","","","NA"
"-111.21","56.65","FORT MCMURRAY CS","3062696","2016-05-14 17:00","2016","05","14","17:00","20.0","","-7.7","","15","","35","","13","","","","97.53","","","","","","NA"
"-111.21","56.65","FORT MCMURRAY CS","3062696","2016-05-14 18:00","2016","05","14","18:00","19.7","","-6.1","","17","","4","","13","","","","97.47","","","","","","NA"
"-111.21","56.65","FORT MCMURRAY CS","3062696","2016-05-14 19:00","2016","05","14","19:00","19.1","","-6.3","","17","","4","","10","","","","97.42","","","","","","NA"
"-111.21","56.65","FORT MCMURRAY CS","3062696","2016-05-14 20:00","2016","05","14","20:00","17.4","","-5.3","","21","","5","","9","","","","97.39","","","","","","NA"
"-111.21","56.65","FORT MCMURRAY CS","3062696","2016-05-14 21:00","2016","05","14","21:00","11.1","","-4.8","","32","","7","","2","","","","97.41","","","","","","NA"
"-111.21","56.65","FORT MCMURRAY CS","3062696","2016-05-14 22:00","2016","05","14","22:00","7.4","","-2.0","","51","","0","","1","","","","97.41","","","","","","NA"
"-111.21","56.65","FORT MCMURRAY CS","3062696","2016-05-14 23:00","2016","05","14","23:00","5.6","","-2.2","","57","","21","","8","","","","97.40","","","","","","NA"
"-111.21","56.65","FORT MCMURRAY CS","3062696","2016-05-15 00:00","2016","05","15","00:00","5.2","","-1.1","","64","","19","","5","","","","97.39","","","","","","NA"
"-111.21","56.65","FORT MCMURRAY CS","3062696","2016-05-15 01:00","2016","05","15","01:00","5.1","","-1.8","","61","","19","","3","","","","97.38","","","","","","NA"
"-111.21","56.65","FORT MCMURRAY CS","3062696","2016-05-15 02:00","2016","05","15","02:00","5.0","","-1.7","","62","","20","","5","","","","97.38","","","","","","NA"
"-111.21","56.65","FORT MCMURRAY CS","3062696","2016-05-15 03:00","2016","05","15","03:00","2.2","","-2.7","","70","","20","","7","","","","97.36","","","","","","NA"
"-111.21","56.65","FORT MCMURRAY CS","3062696","2016-05-15 04:00","2016","05","15","04:00","3.4","","-2.0","","68","","12","","4","","","","97.34","","","","","","NA"
"-111.21","56.65","FORT MCMURRAY CS","3062696","2016-05-15 05:00","2016","05","15","05:00","3.1","","-2.1","","69","","14","","4","","","","97.35","","","","","","NA"
"-111.21","56.65","FORT MCMURRAY CS","3062696","2016-05-15 06:00","2016","05","15","06:00","3.7","","-1.5","","69","","14","","3","","","","97.33","","","","","","NA"
"-111.21","56.65","FORT MCMURRAY CS","3062696","2016-05-15 07:00","2016","05","15","07:00","7.2","","-1.2","","55","","","","0","","","","97.31","","","","","","NA"
"-111.21","56.65","FORT MCMURRAY CS","3062696","2016-05-15 08:00","2016","05","15","08:00","10.5","","-1.3","","44","","6","","2","","","","97.29","","","","","","NA"
"-111.21","56.65","FORT MCMURRAY CS","3062696","2016-05-15 09:00","2016","05","15","09:00","14.8","","-1.3","","33","","2","","3","","","","97.25","","","","","","NA"
"-111.21","56.65","FORT MCMURRAY CS","3062696","2016-05-15 10:00","2016","05","15","10:00","18.7","","-2.7","","23","","3","","4","","","","97.21","","","","","","NA"
"-111.21","56.65","FORT MCMURRAY CS","3062696","2016-05-15 11:00","2016","05","15","11:00","19.9","","-4.1","","19","","36","","3","","","","97.16","","","","","","NA"
"-111.21","56.65","FORT MCMURRAY CS","3062696","2016-05-15 12:00","2016","05","15","12:00","20.6","","-4.1","","19","","36","","9","","","","97.11","","","","","","NA"
"-111.21","56.65","FORT MCMURRAY CS","3062696","2016-05-15 13:00","2016","05","15","13:00","22.2","","-4.6","","16","","24","","8","","","","97.05","","","","","","NA"
"-111.21","56.65","FORT MCMURRAY CS","3062696","2016-05-15 14:00","2016","05","15","14:00","22.6","","-5.9","","14","","11","","7","","","","97.00","","","","","","NA"
"-111.21","56.65","FORT MCMURRAY CS","3062696","2016-05-15 15:00","2016","05","15","15:00","22.7","","-5.8","","14","","12","","8","","","","96.96","","","","","","NA"
"-111.21","56.65","FORT MCMURRAY CS","3062696","2016-05-15 16:00","2016","05","15","16:00","21.8","","-4.9","","16","","21","","6","","","","96.92","","","","","","NA"
"-111.21","56.65","FORT MCMURRAY CS","3062696","2016-05-15 17:00","2016","05","15","17:00","20.4","","-1.6","","23","","22","","2","","","","96.87","","","","","","NA"
"-111.21","56.65","FORT MCMURRAY CS","3062696","2016-05-15 18:00","2016","05","15","18:00","18.6","","0.2","","29","","10","","3","","","","96.84","","","","","","NA"
"-111.21","56.65","FORT MCMURRAY CS","3062696","2016-05-15 19:00","2016","05","15","19:00","16.5","","0.2","","33","","13","","10","","","","96.83","","","","","","NA"
"-111.21","56.65","FORT MCMURRAY CS","3062696","2016-05-15 20:00","2016","05","15","20:00","14.9","","-0.1","","36","","15","","16","","","","96.80","","","","","","NA"
"-111.21","56.65","FORT MCMURRAY CS","3062696","2016-05-15 21:00","2016","05","15","21:00","13.5","","-0.7","","38","","14","","13","","","","96.82","","","","","","NA"
"-111.21","56.65","FORT MCMURRAY CS","3062696","2016-05-15 22:00","2016","05","15","22:00","12.9","","-0.6","","39","","15","","16","","","","96.79","","","","","","NA"
"-111.21","56.65","FORT MCMURRAY CS","3062696","2016-05-15 23:00","2016","05","15","23:00","12.8","","-1.0","","39","","15","","17","","","","96.79","","","","","","NA"
"-111.21","56.65","FORT MCMURRAY CS","3062696","2016-05-16 00:00","2016","05","16","00:00","11.8","","-1.1","","41","","16","","15","","","","96.79","","","","","","NA"
"-111.21","56.65","FORT MCMURRAY CS","3062696","2016-05-16 01:00","2016","05","16","01:00","11.6","","-1.8","","39","","23","","7","","","","96.83","","","","","","NA"
"-111.21","56.65","FORT MCMURRAY CS","3062696","2016-05-16 02:00","2016","05","16","02:00","9.3","","-0.9","","49","","17","","4","","","","96.85","","","","","","NA"
"-111.21","56.65","FORT MCMURRAY CS","3062696","2016-05-16 03:00","2016","05","16","03:00","6.4","","-1.2","","58","","36","","1","","","","96.86","","","","","","NA"
"-111.21","56.65","FORT MCMURRAY CS","3062696","2016-05-16 04:00","2016","05","16","04:00","7.8","","-0.2","","57","","16","","3","","","","96.89","","","","","","NA"
"-111.21","56.65","FORT MCMURRAY CS","3062696","2016-05-16 05:00","2016","05","16","05:00","7.4","","-0.2","","58","","3","","2","","","","96.91","","","","","","NA"
"-111.21","56.65","FORT MCMURRAY CS","3062696","2016-05-16 06:00","2016","05","16","06:00","11.2","","-0.1","","46","","4","","5","","","","96.92","","","","","","NA"
"-111.21","56.65","FORT MCMURRAY CS","3062696","2016-05-16 07:00","2016","05","16","07:00","13.8","","-1.0","","36","","6","","5","","","","96.94","","","","","","NA"
"-111.21","56.65","FORT MCMURRAY CS","3062696","2016-05-16 08:00","2016","05","16","08:00","18.8","","-0.9","","26","","23","","14","","","","96.94","","","","","","NA"
"-111.21","56.65","FORT MCMURRAY CS","3062696","2016-05-16 09:00","2016","05","16","09:00","20.9","","-2.0","","21","","23","","18","","","","96.92","","","","","","NA"
"-111.21","56.65","FORT MCMURRAY CS","3062696","2016-05-16 10:00","2016","05","16","10:00","22.3","","-2.3","","19","","23","","20","","","","96.89","","","","","","NA"
"-111.21","56.65","FORT MCMURRAY CS","3062696","2016-05-16 11:00","2016","05","16","11:00","22.9","","-2.9","","18","","24","","26","","","","96.85","","","","","","NA"
"-111.21","56.65","FORT MCMURRAY CS","3062696","2016-05-16 12:00","2016","05","16","12:00","23.7","","-4.4","","15","","22","","22","","","","96.79","","","","","","NA"
"-111.21","56.65","FORT MCMURRAY CS","3062696","2016-05-16 13:00","2016","05","16","13:00","25.2","","-3.1","","15","","19","","21","","","","96.71","","","","","","NA"
"-111.21","56.65","FORT MCMURRAY CS","3062696","2016-05-16 14:00","2016","05","16","14:00","24.4","","-4.3","","14","","19","","24","","","","96.67","","","","","","NA"
"-111.21","56.65","FORT MCMURRAY CS","3062696","2016-05-16 15:00","2016","05","16","15:00","24.2","","-4.5","","15","","20","","27","","","","96.63","","","","","","NA"
"-111.21","56.65","FORT MCMURRAY CS","3062696","2016-05-16 16:00","2016","05","16","16:00","24.4","","-3.0","","16","","20","","24","","","","96.60","","","","","","NA"
"-111.21","56.65","FORT MCMURRAY CS","3062696","2016-05-16 17:00","2016","05","16","17:00","24.9","","-3.8","","15","","22","","20","","","","96.57","","","","","","NA"
"-111.21","56.65","FORT MCMURRAY CS","3062696","2016-05-16 18:00","2016","05","16","18:00","24.3","","-4.0","","15","","20","","16","","","","96.54","","","","","","NA"
"-111.21","56.65","FORT MCMURRAY CS","3062696","2016-05-16 19:00","2016","05","16","19:00","23.6","","-2.6","","17","","20","","16","","","","96.52","","","","","","NA"
"-111.21","56.65","FORT MCMURRAY CS","3062696","2016-05-16 20:00","2016","05","16","20:00","20.7","","-1.9","","22","","18","","14","","","","96.51","","","","","","NA"
"-111.21","56.65","FORT MCMURRAY CS","3062696","2016-05-16 21:00","2016","05","16","21:00","17.9","","-0.6","","28","","16","","16","","","","96.52","","","","","","NA"
"-111.21","56.65","FORT MCMURRAY CS","3062696","2016-05-16 22:00","2016","05","16","22:00","17.5","","-1.4","","28","","16","","15","","","","96.50","","","","","","NA"
"-111.21","56.65","FORT MCMURRAY CS","3062696","2016-05-16 23:00","2016","05","16","23:00","16.4","","-1.5","","29","","16","","17","","","","96.48","","","","","","NA"
"-111.21","56.65","FORT MCMURRAY CS","3062696","2016-05-17 00:00","2016","05","17","00:00","14.9","","-1.2","","33","","18","","9","","","","96.49","","","","","","NA"
"-111.21","56.65","FORT MCMURRAY CS","3062696","2016-05-17 01:00","2016","05","17","01:00","13.7","","0.1","","39","","6","","5","","","","96.51","","","","","","NA"
"-111.21","56.65","FORT MCMURRAY CS","3062696","2016-05-17 02:00","2016","05","17","02:00","11.3","","-0.3","","45","","12","","3","","","","96.53","","","","","","NA"
"-111.21","56.65","FORT MCMURRAY CS","3062696","2016-05-17 03:00","2016","05","17","03:00","8.6","","0.1","","55","","13","","4","","","","96.56","","","","","","NA"
"-111.21","56.65","FORT MCMURRAY CS","3062696","2016-05-17 04:00","2016","05","17","04:00","14.7","","1.2","","40","","23","","14","","","","96.59","","","","","","NA"
"-111.21","56.65","FORT MCMURRAY CS","3062696","2016-05-17 05:00","2016","05","17","05:00","14.7","","2.8","","45","","23","","13","","","","96.64","","","","","","NA"
"-111.21","56.65","FORT MCMURRAY CS","3062696","2016-05-17 06:00","2016","05","17","06:00","15.6","","4.1","","46","","24","","11","","","","96.66","","","","","","NA"
"-111.21","56.65","FORT MCMURRAY CS","3062696","2016-05-17 07:00","2016","05","17","07:00","18.2","","2.8","","36","","26","","17","","","","96.67","","","","","","NA"
"-111.21","56.65","FORT MCMURRAY CS","3062696","2016-05-17 08:00","2016","05","17","08:00","18.7","","2.7","","34","","28","","23","","","","96.65","","","","","","NA"
"-111.21","56.65","FORT MCMURRAY CS","3062696","2016-05-17 09:00","2016","05","17","09:00","20.6","","2.9","","31","","27","","14","","","","96.65","","","","","","NA"
"-111.21","56.65","FORT MCMURRAY CS","3062696","2016-05-17 10:00","2016","05","17","10:00","22.1","","2.6","","28","","26","","15","","","","96.66","","","","","","NA"
"-111.21","56.65","FORT MCMURRAY CS","3062696","2016-05-17 11:00","2016","05","17","11:00","23.0","","3.2","","27","","26","","17","","","","96.66","","","","","","NA"
"-111.21","56.65","FORT MCMURRAY CS","3062696","2016-05-17 12:00","2016","05","17","12:00","24.3","","2.1","","23","","28","","14","","","","96.64","","","","","","NA"
"-111.21","56.65","FORT MCMURRAY CS","3062696","2016-05-17 13:00","2016","05","17","13:00","25.0","","2.6","","23","","28","","17","","","","96.61","","","","","","NA"
"-111.21","56.65","FORT MCMURRAY CS","3062696","2016-05-17 14:00","2016","05","17","14:00","25.3","","2.3","","22","","29","","21","","","","96.59","","","","","","NA"
"-111.21","56.65","FORT MCMURRAY CS","3062696","2016-05-17 15:00","2016","05","17","15:00","25.0","","2.1","","22","","29","","18","","","","96.58","","","","","","NA"
"-111.21","56.65","FORT MCMURRAY CS","3062696","2016-05-17 16:00","2016","05","17","16:00","24.5","","2.2","","23","","29","","17","","","","96.57","","","","","","NA"
"-111.21","56.65","FORT MCMURRAY CS","3062696","2016-05-17 17:00","2016","05","17","17:00","23.9","","2.7","","25","","35","","7","","","","96.57","","","","","","NA"
"-111.21","56.65","FORT MCMURRAY CS","3062696","2016-05-17 18:00","2016","05","17","18:00","22.7","","4.2","","30","","14","","7","","","","96.55","","","","","","NA"
"-111.21","56.65","FORT MCMURRAY CS","3062696","2016-05-17 19:00","2016","05","17","19:00","21.8","","4.1","","31","","13","","10","","","","96.55","","","","","","NA"
"-111.21","56.65","FORT MCMURRAY CS","3062696","2016-05-17 20:00","2016","05","17","20:00","19.6","","5.0","","38","","13","","12","","","","96.56","","","","","","NA"
"-111.21","56.65","FORT MCMURRAY CS","3062696","2016-05-17 21:00","2016","05","17","21:00","19.4","","4.9","","38","","21","","16","","","","96.59","","","","","","NA"
"-111.21","56.65","FORT MCMURRAY CS","3062696","2016-05-17 22:00","2016","05","17","22:00","17.3","","5.3","","45","","21","","14","","","","96.58","","","","","","NA"
"-111.21","56.65","FORT MCMURRAY CS","3062696","2016-05-17 23:00","2016","05","17","23:00","15.7","","5.1","","49","","22","","3","","","","96.57","","","","","","NA"
"-111.21","56.65","FORT MCMURRAY CS","3062696","2016-05-18 00:00","2016","05","18","00:00","13.6","","4.5","","54","","21","","14","","","","96.55","","","","","","NA"
"-111.21","56.65","FORT MCMURRAY CS","3062696","2016-05-18 01:00","2016","05","18","01:00","14.1","","3.4","","49","","23","","12","","","","96.53","","","","","","NA"
"-111.21","56.65","FORT MCMURRAY CS","3062696","2016-05-18 02:00","2016","05","18","02:00","12.9","","3.1","","51","","23","","13","","","","96.50","","","","","","NA"
"-111.21","56.65","FORT MCMURRAY CS","3062696","2016-05-18 03:00","2016","05","18","03:00","11.0","","3.2","","59","","15","","5","","","","96.51","","","","","","NA"
"-111.21","56.65","FORT MCMURRAY CS","3062696","2016-05-18 04:00","2016","05","18","04:00","9.5","","2.9","","64","","19","","6","","","","96.50","","","","","","NA"
"-111.21","56.65","FORT MCMURRAY CS","3062696","2016-05-18 05:00","2016","05","18","05:00","11.0","","3.6","","60","","19","","4","","","","96.49","","","","","","NA"
"-111.21","56.65","FORT MCMURRAY CS","3062696","2016-05-18 06:00","2016","05","18","06:00","12.9","","3.6","","53","","22","","5","","","","96.48","","","","","","NA"
"-111.21","56.65","FORT MCMURRAY CS","3062696","2016-05-18 07:00","2016","05","18","07:00","15.0","","3.4","","46","","23","","12","","","","96.47","","","","","","NA"
"-111.21","56.65","FORT MCMURRAY CS","3062696","2016-05-18 08:00","2016","05","18","08:00","16.4","","4.1","","44","","24","","15","","","","96.47","","","","","","NA"
"-111.21","56.65","FORT MCMURRAY CS","3062696","2016-05-18 09:00","2016","05","18","09:00","17.4","","4.6","","43","","24","","17","","","","96.45","","","","","","NA"
"-111.21","56.65","FORT MCMURRAY CS","3062696","2016-05-18 10:00","2016","05","18","10:00","18.8","","4.9","","40","","26","","16","","","","96.42","","","","","","NA"
"-111.21","56.65","FORT MCMURRAY CS","3062696","2016-05-18 11:00","2016","05","18","11:00","21.0","","3.6","","32","","26","","18","","","","96.38","","","","","","NA"
"-111.21","56.65","FORT MCMURRAY CS","3062696","2016-05-18 12:00","2016","05","18","12:00","22.0","","3.4","","30","","26","","22","","","","96.35","","","","","","NA"
"-111.21","56.65","FORT MCMURRAY CS","3062696","2016-05-18 13:00","2016","05","18","13:00","22.8","","2.9","","27","","27","","24","","","","96.33","","","","","","NA"
"-111.21","56.65","FORT MCMURRAY CS","3062696","2016-05-18 14:00","2016","05","18","14:00","21.3","","2.1","","28","","25","","22","","","","96.34","","","","","","NA"
"-111.21","56.65","FORT MCMURRAY CS","3062696","2016-05-18 15:00","2016","05","18","15:00","21.1","","1.5","","27","","28","","18","","","","96.33","","","","","","NA"
"-111.21","56.65","FORT MCMURRAY CS","3062696","2016-05-18 16:00","2016","05","18","16:00","21.7","","1.5","","26","","26","","16","","","","96.28","","","","","","NA"
"-111.21","56.65","FORT MCMURRAY CS","3062696","2016-05-18 17:00","2016","05","18","17:00","22.0","","-0.2","","23","","28","","13","","","","96.27","","","","","","NA"
"-111.21","56.65","FORT MCMURRAY CS","3062696","2016-05-18 18:00","2016","05","18","18:00","21.8","","0.3","","24","","27","","11","","","","96.26","","","","","","NA"
"-111.21","56.65","FORT MCMURRAY CS","3062696","2016-05-18 19:00","2016","05","18","19:00","19.5","","1.1","","29","","26","","5","","","","96.26","","","","","","NA"
"-111.21","56.65","FORT MCMURRAY CS","3062696","2016-05-18 20:00","2016","05","18","20:00","17.8","","3.6","","39","","23","","8","","","","96.28","","","","","","NA"
"-111.21","56.65","FORT MCMURRAY CS","3062696","2016-05-18 21:00","2016","05","18","21:00","16.3","","3.3","","42","","9","","3","","","","96.30","","","","","","NA"
"-111.21","56.65","FORT MCMURRAY CS","3062696","2016-05-18 22:00","2016","05","18","22:00","16.1","","6.7","","54","","4","","10","","","","96.34","","","","","","NA"
"-111.21","56.65","FORT MCMURRAY CS","3062696","2016-05-18 23:00","2016","05","18","23:00","15.8","","7.2","","57","","2","","20","","","","96.39","","","","","","NA"
"-111.21","56.65","FORT MCMURRAY CS","3062696","2016-05-19 00:00","2016","05","19","00:00","12.2","","8.1","","76","","33","","13","","","","96.48","","","","","","NA"
"-111.21","56.65","FORT MCMURRAY CS","3062696","2016-05-19 01:00","2016","05","19","01:00","10.5","","7.5","","82","","33","","10","","","","96.54","","","","","","NA"
"-111.21","56.65","FORT MCMURRAY CS","3062696","2016-05-19 02:00","2016","05","19","02:00","9.8","","6.7","","81","","34","","15","","","","96.60","","","","","","NA"
"-111.21","56.65","FORT MCMURRAY CS","3062696","2016-05-19 03:00","2016","05","19","03:00","9.2","","6.0","","80","","35","","13","","","","96.63","","","","","","NA"
"-111.21","56.65","FORT MCMURRAY CS","3062696","2016-05-19 04:00","2016","05","19","04:00","9.3","","5.9","","80","","35","","14","","","","96.67","","","","","","NA"
"-111.21","56.65","FORT MCMURRAY CS","3062696","2016-05-19 05:00","2016","05","19","05:00","9.7","","5.7","","76","","34","","13","","","","96.72","","","","","","NA"
"-111.21","56.65","FORT MCMURRAY CS","3062696","2016-05-19 06:00","2016","05","19","06:00","9.0","","4.7","","75","","36","","18","","","","96.74","","","","","","NA"
"-111.21","56.65","FORT MCMURRAY CS","3062696","2016-05-19 07:00","2016","05","19","07:00","8.4","","5.1","","80","","2","","17","","","","96.72","","","","","","NA"
"-111.21","56.65","FORT MCMURRAY CS","3062696","2016-05-19 08:00","2016","05","19","08:00","8.2","","4.1","","76","","2","","20","","","","96.75","","","","","","NA"
"-111.21","56.65","FORT MCMURRAY CS","3062696","2016-05-19 09:00","2016","05","19","09:00","8.1","","3.5","","73","","2","","21","","","","96.79","","","","","","NA"
"-111.21","56.65","FORT MCMURRAY CS","3062696","2016-05-19 10:00","2016","05","19","10:00","8.0","","3.4","","72","","2","","21","","","","96.82","","","","","","NA"
"-111.21","56.65","FORT MCMURRAY CS","3062696","2016-05-19 11:00","2016","05","19","11:00","7.8","","3.4","","74","","2","","17","","","","96.86","","","","","","NA"
"-111.21","56.65","FORT MCMURRAY CS","3062696","2016-05-19 12:00","2016","05","19","12:00","7.5","","3.4","","76","","1","","21","","","","96.87","","","","","","NA"
"-111.21","56.65","FORT MCMURRAY CS","3062696","2016-05-19 13:00","2016","05","19","13:00","7.0","","3.2","","76","","2","","24","","","","96.97","","","","","","NA"
"-111.21","56.65","FORT MCMURRAY CS","3062696","2016-05-19 14:00","2016","05","19","14:00","6.5","","3.2","","79","","35","","19","","","","97.04","","","","","","NA"
"-111.21","56.65","FORT MCMURRAY CS","3062696","2016-05-19 15:00","2016","05","19","15:00","6.0","","3.2","","82","","1","","20","","","","97.03","","","","","","NA"
"-111.21","56.65","FORT MCMURRAY CS","3062696","2016-05-19 16:00","2016","05","19","16:00","6.4","","3.3","","81","","2","","26","","","","97.04","","","","","","NA"
"-111.21","56.65","FORT MCMURRAY CS","3062696","2016-05-19 17:00","2016","05","19","17:00","7.1","","2.7","","74","","3","","23","","","","97.06","","","","","","NA"
"-111.21","56.65","FORT MCMURRAY CS","3062696","2016-05-19 18:00","2016","05","19","18:00","7.2","","2.1","","70","","2","","23","","","","97.07","","","","","","NA"
"-111.21","56.65","FORT MCMURRAY CS","3062696","2016-05-19 19:00","2016","05","19","19:00","7.3","","1.7","","68","","2","","23","","","","97.11","","","","","","NA"
"-111.21","56.65","FORT MCMURRAY CS","3062696","2016-05-19 20:00","2016","05","19","20:00","6.5","","1.4","","70","","2","","18","","","","97.16","","","","","","NA"
"-111.21","56.65","FORT MCMURRAY CS","3062696","2016-05-19 21:00","2016","05","19","21:00","5.7","","1.1","","72","","1","","17","","","","97.24","","","","","","NA"
"-111.21","56.65","FORT MCMURRAY CS","3062696","2016-05-19 22:00","2016","05","19","22:00","4.7","","0.5","","75","","36","","12","","","","97.26","","","","","","NA"
"-111.21","56.65","FORT MCMURRAY CS","3062696","2016-05-19 23:00","2016","05","19","23:00","4.2","","0.4","","76","","1","","12","","","","97.27","","","","","","NA"
"-111.21","56.65","FORT MCMURRAY CS","3062696","2016-05-20 00:00","2016","05","20","00:00","3.8","","0.4","","79","","1","","10","","","","97.28","","","","","","NA"
"-111.21","56.65","FORT MCMURRAY CS","3062696","2016-05-20 01:00","2016","05","20","01:00","3.6","","0.7","","81","","2","","11","","","","97.30","","","","","","NA"
"-111.21","56.65","FORT MCMURRAY CS","3062696","2016-05-20 02:00","2016","05","20","02:00","4.0","","0.8","","79","","3","","12","","","","97.31","","","","","","NA"
"-111.21","56.65","FORT MCMURRAY CS","3062696","2016-05-20 03:00","2016","05","20","03:00","4.4","","0.8","","78","","2","","13","","","","97.31","","","","","","NA"
"-111.21","56.65","FORT MCMURRAY CS","3062696","2016-05-20 04:00","2016","05","20","04:00","4.5","","1.2","","79","","3","","13","","","","97.34","","","","","","NA"
"-111.21","56.65","FORT MCMURRAY CS","3062696","2016-05-20 05:00","2016","05","20","05:00","5.1","","1.3","","76","","6","","13","","","","97.34","","","","","","NA"
"-111.21","56.65","FORT MCMURRAY CS","3062696","2016-05-20 06:00","2016","05","20","06:00","5.4","","1.4","","75","","6","","13","","","","97.34","","","","","","NA"
"-111.21","56.65","FORT MCMURRAY CS","3062696","2016-05-20 07:00","2016","05","20","07:00","5.8","","1.3","","73","","8","","16","","","","97.34","","","","","","NA"
"-111.21","56.65","FORT MCMURRAY CS","3062696","2016-05-20 08:00","2016","05","20","08:00","6.6","","1.5","","70","","7","","17","","","","97.34","","","","","","NA"
"-111.21","56.65","FORT MCMURRAY CS","3062696","2016-05-20 09:00","2016","05","20","09:00","7.5","","1.6","","66","","10","","16","","","","97.38","","","","","","NA"
"-111.21","56.65","FORT MCMURRAY CS","3062696","2016-05-20 10:00","2016","05","20","10:00","9.7","","1.6","","57","","9","","13","","","","97.34","","","","","","NA"
"-111.21","56.65","FORT MCMURRAY CS","3062696","2016-05-20 11:00","2016","05","20","11:00","12.0","","2.3","","51","","9","","10","","","","97.30","","","","","","NA"
"-111.21","56.65","FORT MCMURRAY CS","3062696","2016-05-20 12:00","2016","05","20","12:00","14.4","","3.1","","46","","8","","12","","","","97.25","","","","","","NA"
"-111.21","56.65","FORT MCMURRAY CS","3062696","2016-05-20 13:00","2016","05","20","13:00","14.9","","3.1","","45","","6","","20","","","","97.18","","","","","","NA"
"-111.21","56.65","FORT MCMURRAY CS","3062696","2016-05-20 14:00","2016","05","20","14:00","16.3","","4.4","","45","","8","","8","","","","97.13","","","","","","NA"
"-111.21","56.65","FORT MCMURRAY CS","3062696","2016-05-20 15:00","2016","05","20","15:00","17.8","","3.3","","38","","10","","12","","","","97.13","","","","","","NA"
"-111.21","56.65","FORT MCMURRAY CS","3062696","2016-05-20 16:00","2016","05","20","16:00","17.2","","4.5","","43","","11","","10","","","","97.14","","","","","","NA"
"-111.21","56.65","FORT MCMURRAY CS","3062696","2016-05-20 17:00","2016","05","20","17:00","17.6","","4.9","","43","","14","","8","","","","97.18","","","","","","NA"
"-111.21","56.65","FORT MCMURRAY CS","3062696","2016-05-20 18:00","2016","05","20","18:00","17.4","","5.1","","44","","13","","6","","","","97.15","","","","","","NA"
"-111.21","56.65","FORT MCMURRAY CS","3062696","2016-05-20 19:00","2016","05","20","19:00","15.4","","4.6","","49","","32","","15","","","","97.12","","","","","","NA"
"-111.21","56.65","FORT MCMURRAY CS","3062696","2016-05-20 20:00","2016","05","20","20:00","13.4","","3.9","","53","","33","","16","","","","97.09","","","","","","NA"
"-111.21","56.65","FORT MCMURRAY CS","3062696","2016-05-20 21:00","2016","05","20","21:00","12.3","","3.8","","56","","32","","10","","","","97.13","","","","","","NA"
"-111.21","56.65","FORT MCMURRAY CS","3062696","2016-05-20 22:00","2016","05","20","22:00","11.2","","3.9","","61","","32","","10","","","","97.10","","","","","","NA"
"-111.21","56.65","FORT MCMURRAY CS","3062696","2016-05-20 23:00","2016","05","20","23:00","10.1","","3.8","","65","","29","","12","","","","97.13","","","","","","NA"
"-111.21","56.65","FORT MCMURRAY CS","3062696","2016-05-21 00:00","2016","05","21","00:00","9.4","","3.6","","67","","32","","12","","","","97.09","","","","","","NA"
"-111.21","56.65","FORT MCMURRAY CS","3062696","2016-05-21 01:00","2016","05","21","01:00","8.8","","3.8","","71","","32","","11","","","","97.04","","","","","","NA"
"-111.21","56.65","FORT MCMURRAY CS","3062696","2016-05-21 02:00","2016","05","21","02:00","8.2","","3.6","","73","","32","","11","","","","96.99","","","","","","NA"
"-111.21","56.65","FORT MCMURRAY CS","3062696","2016-05-21 03:00","2016","05","21","03:00","7.9","","3.5","","74","","33","","7","","","","96.96","","","","","","NA"
"-111.21","56.65","FORT MCMURRAY CS","3062696","2016-05-21 04:00","2016","05","21","04:00","6.8","","5.0","","88","","32","","10","","","","96.96","","","","","","NA"
"-111.21","56.65","FORT MCMURRAY CS","3062696","2016-05-21 05:00","2016","05","21","05:00","6.4","","5.1","","91","","34","","8","","","","96.89","","","","","","NA"
"-111.21","56.65","FORT MCMURRAY CS","3062696","2016-05-21 06:00","2016","05","21","06:00","7.3","","5.4","","88","","30","","9","","","","96.87","","","","","","NA"
"-111.21","56.65","FORT MCMURRAY CS","3062696","2016-05-21 07:00","2016","05","21","07:00","7.4","","5.6","","88","","28","","6","","","","96.85","","","","","","NA"
"-111.21","56.65","FORT MCMURRAY CS","3062696","2016-05-21 08:00","2016","05","21","08:00","8.3","","6.6","","89","","32","","9","","","","96.79","","","","","","NA"
"-111.21","56.65","FORT MCMURRAY CS","3062696","2016-05-21 09:00","2016","05","21","09:00","7.9","","6.3","","90","","32","","14","","","","96.75","","","","","","NA"
"-111.21","56.65","FORT MCMURRAY CS","3062696","2016-05-21 10:00","2016","05","21","10:00","9.6","","6.9","","83","","31","","9","","","","96.71","","","","","","NA"
"-111.21","56.65","FORT MCMURRAY CS","3062696","2016-05-21 11:00","2016","05","21","11:00","12.1","","8.2","","77","","32","","14","","","","96.62","","","","","","NA"
"-111.21","56.65","FORT MCMURRAY CS","3062696","2016-05-21 12:00","2016","05","21","12:00","13.4","","8.5","","73","","32","","13","","","","96.58","","","","","","NA"
"-111.21","56.65","FORT MCMURRAY CS","3062696","2016-05-21 13:00","2016","05","21","13:00","12.9","","8.1","","72","","31","","17","","","","96.53","","","","","","NA"
"-111.21","56.65","FORT MCMURRAY CS","3062696","2016-05-21 14:00","2016","05","21","14:00","12.4","","7.8","","73","","32","","15","","","","96.49","","","","","","NA"
"-111.21","56.65","FORT MCMURRAY CS","3062696","2016-05-21 15:00","2016","05","21","15:00","12.8","","8.1","","73","","32","","16","","","","96.45","","","","","","NA"
"-111.21","56.65","FORT MCMURRAY CS","3062696","2016-05-21 16:00","2016","05","21","16:00","11.6","","8.3","","80","","33","","19","","","","96.43","","","","","","NA"
"-111.21","56.65","FORT MCMURRAY CS","3062696","2016-05-21 17:00","2016","05","21","17:00","10.4","","7.6","","83","","32","","19","","","","96.43","","","","","","NA"
"-111.21","56.65","FORT MCMURRAY CS","3062696","2016-05-21 18:00","2016","05","21","18:00","9.0","","7.1","","88","","33","","18","","","","96.45","","","","","","NA"
"-111.21","56.65","FORT MCMURRAY CS","3062696","2016-05-21 19:00","2016","05","21","19:00","8.6","","6.9","","89","","33","","15","","","","96.43","","","","","","NA"
"-111.21","56.65","FORT MCMURRAY CS","3062696","2016-05-21 20:00","2016","05","21","20:00","8.4","","6.9","","90","","33","","13","","","","96.42","","","","","","NA"
"-111.21","56.65","FORT MCMURRAY CS","3062696","2016-05-21 21:00","2016","05","21","21:00","8.3","","6.6","","89","","34","","14","","","","96.40","","","","","","NA"
"-111.21","56.65","FORT MCMURRAY CS","3062696","2016-05-21 22:00","2016","05","21","22:00","8.2","","6.6","","90","","35","","12","","","","96.37","","","","","","NA"
"-111.21","56.65","FORT MCMURRAY CS","3062696","2016-05-21 23:00","2016","05","21","23:00","8.0","","6.7","","92","","33","","13","","","","96.31","","","","","","NA"
"-111.21","56.65","FORT MCMURRAY CS","3062696","2016-05-22 00:00","2016","05","22","00:00","7.9","","6.3","","90","","33","","6","","","","96.36","","","","","","NA"
"-111.21","56.65","FORT MCMURRAY CS","3062696","2016-05-22 01:00","2016","05","22","01:00","7.4","","6.6","","95","","34","","11","","","","96.29","","","","","","NA"
"-111.21","56.65","FORT MCMURRAY CS","3062696","2016-05-22 02:00","2016","05","22","02:00","7.2","","6.6","","96","","34","","10","","","","96.29","","","","","","NA"
"-111.21","56.65","FORT MCMURRAY CS","3062696","2016-05-22 03:00","2016","05","22","03:00","7.1","","6.5","","96","","33","","10","","","","96.23","","","","","","NA"
"-111.21","56.65","FORT MCMURRAY CS","3062696","2016-05-22 04:00","2016","05","22","04:00","7.2","","6.3","","94","","34","","14","","","","96.16","","","","","","NA"
"-111.21","56.65","FORT MCMURRAY CS","3062696","2016-05-22 05:00","2016","05","22","05:00","7.3","","6.1","","92","","35","","19","","","","96.08","","","","","","NA"
"-111.21","56.65","FORT MCMURRAY CS","3062696","2016-05-22 06:00","2016","05","22","06:00","7.6","","5.9","","89","","1","","17","","","","96.08","","","","","","NA"
"-111.21","56.65","FORT MCMURRAY CS","3062696","2016-05-22 07:00","2016","05","22","07:00","7.9","","5.8","","87","","2","","18","","","","96.09","","","","","","NA"
"-111.21","56.65","FORT MCMURRAY CS","3062696","2016-05-22 08:00","2016","05","22","08:00","7.9","","5.3","","83","","2","","21","","","","96.06","","","","","","NA"
"-111.21","56.65","FORT MCMURRAY CS","3062696","2016-05-22 09:00","2016","05","22","09:00","7.9","","5.1","","83","","3","","16","","","","96.07","","","","","","NA"
"-111.21","56.65","FORT MCMURRAY CS","3062696","2016-05-22 10:00","2016","05","22","10:00","7.9","","5.3","","84","","1","","19","","","","96.07","","","","","","NA"
"-111.21","56.65","FORT MCMURRAY CS","3062696","2016-05-22 11:00","2016","05","22","11:00","8.2","","5.0","","80","","2","","18","","","","96.05","","","","","","NA"
"-111.21","56.65","FORT MCMURRAY CS","3062696","2016-05-22 12:00","2016","05","22","12:00","8.3","","4.9","","79","","1","","17","","","","96.03","","","","","","NA"
"-111.21","56.65","FORT MCMURRAY CS","3062696","2016-05-22 13:00","2016","05","22","13:00","9.3","","5.1","","75","","35","","12","","","","95.96","","","","","","NA"
"-111.21","56.65","FORT MCMURRAY CS","3062696","2016-05-22 14:00","2016","05","22","14:00","10.2","","6.1","","76","","36","","16","","","","95.91","","","","","","NA"
"-111.21","56.65","FORT MCMURRAY CS","3062696","2016-05-22 15:00","2016","05","22","15:00","11.5","","5.6","","67","","34","","15","","","","95.86","","","","","","NA"
"-111.21","56.65","FORT MCMURRAY CS","3062696","2016-05-22 16:00","2016","05","22","16:00","12.5","","5.6","","63","","35","","14","","","","95.83","","","","","","NA"
"-111.21","56.65","FORT MCMURRAY CS","3062696","2016-05-22 17:00","2016","05","22","17:00","13.6","","4.9","","56","","36","","13","","","","95.80","","","","","","NA"
"-111.21","56.65","FORT MCMURRAY CS","3062696","2016-05-22 18:00","2016","05","22","18:00","14.0","","4.4","","52","","3","","12","","","","95.81","","","","","","NA"
"-111.21","56.65","FORT MCMURRAY CS","3062696","2016-05-22 19:00","2016","05","22","19:00","14.1","","3.2","","48","","2","","16","","","","95.87","","","","","","NA"
"-111.21","56.65","FORT MCMURRAY CS","3062696","2016-05-22 20:00","2016","05","22","20:00","13.5","","2.2","","46","","1","","15","","","","95.87","","","","","","NA"
"-111.21","56.65","FORT MCMURRAY CS","3062696","2016-05-22 21:00","2016","05","22","21:00","12.1","","1.6","","49","","3","","14","","","","95.92","","","","","","NA"
"-111.21","56.65","FORT MCMURRAY CS","3062696","2016-05-22 22:00","2016","05","22","22:00","10.7","","2.0","","55","","3","","16","","","","95.93","","","","","","NA"
"-111.21","56.65","FORT MCMURRAY CS","3062696","2016-05-22 23:00","2016","05","22","23:00","9.1","","2.0","","61","","34","","7","","","","95.94","","","","","","NA"
"-111.21","56.65","FORT MCMURRAY CS","3062696","2016-05-23 00:00","2016","05","23","00:00","8.0","","1.6","","64","","2","","10","","","","95.98","","","","","","NA"
"-111.21","56.65","FORT MCMURRAY CS","3062696","2016-05-23 01:00","2016","05","23","01:00","6.4","","1.5","","71","","1","","9","","","","96.01","","","","","","NA"
"-111.21","56.65","FORT MCMURRAY CS","3062696","2016-05-23 02:00","2016","05","23","02:00","5.2","","0.6","","72","","8","","4","","","","96.02","","","","","","NA"
"-111.21","56.65","FORT MCMURRAY CS","3062696","2016-05-23 03:00","2016","05","23","03:00","4.3","","0.8","","78","","1","","11","","","","96.03","","","","","","NA"
"-111.21","56.65","FORT MCMURRAY CS","3062696","2016-05-23 04:00","2016","05","23","04:00","3.5","","0.7","","82","","36","","8","","","","96.08","","","","","","NA"
"-111.21","56.65","FORT MCMURRAY CS","3062696","2016-05-23 05:00","2016","05","23","05:00","4.2","","0.5","","77","","2","","5","","","","96.16","","","","","","NA"
"-111.21","56.65","FORT MCMURRAY CS","3062696","2016-05-23 06:00","2016","05","23","06:00","4.3","","0.8","","78","","32","","12","","","","96.21","","","","","","NA"
"-111.21","56.65","FORT MCMURRAY CS","3062696","2016-05-23 07:00","2016","05","23","07:00","6.7","","1.6","","70","","30","","8","","","","96.24","","","","","","NA"
"-111.21","56.65","FORT MCMURRAY CS","3062696","2016-05-23 08:00","2016","05","23","08:00","8.7","","1.2","","60","","34","","8","","","","96.26","","","","","","NA"
"-111.21","56.65","FORT MCMURRAY CS","3062696","2016-05-23 09:00","2016","05","23","09:00","11.3","","1.3","","50","","32","","10","","","","96.26","","","","","","NA"
"-111.21","56.65","FORT MCMURRAY CS","3062696","2016-05-23 10:00","2016","05","23","10:00","15.0","","-4.0","","27","","3","","14","","","","96.25","","","","","","NA"
"-111.21","56.65","FORT MCMURRAY CS","3062696","2016-05-23 11:00","2016","05","23","11:00","17.0","","-6.0","","20","","5","","25","","","","96.24","","","","","","NA"
"-111.21","56.65","FORT MCMURRAY CS","3062696","2016-05-23 12:00","2016","05","23","12:00","18.2","","-6.4","","18","","8","","26","","","","96.23","","","","","","NA"
"-111.21","56.65","FORT MCMURRAY CS","3062696","2016-05-23 13:00","2016","05","23","13:00","18.1","","-4.9","","20","","7","","22","","","","96.25","","","","","","NA"
"-111.21","56.65","FORT MCMURRAY CS","3062696","2016-05-23 14:00","2016","05","23","14:00","18.6","","-4.2","","21","","7","","16","","","","96.27","","","","","","NA"
"-111.21","56.65","FORT MCMURRAY CS","3062696","2016-05-23 15:00","2016","05","23","15:00","18.9","","-4.2","","21","","6","","15","","","","96.30","","","","","","NA"
"-111.21","56.65","FORT MCMURRAY CS","3062696","2016-05-23 16:00","2016","05","23","16:00","19.2","","-3.5","","21","","7","","13","","","","96.31","","","","","","NA"
"-111.21","56.65","FORT MCMURRAY CS","3062696","2016-05-23 17:00","2016","05","23","17:00","19.3","","-3.6","","21","","7","","14","","","","96.32","","","","","","NA"
"-111.21","56.65","FORT MCMURRAY CS","3062696","2016-05-23 18:00","2016","05","23","18:00","19.0","","-3.0","","22","","8","","10","","","","96.36","","","","","","NA"
"-111.21","56.65","FORT MCMURRAY CS","3062696","2016-05-23 19:00","2016","05","23","19:00","17.6","","-2.3","","26","","13","","15","","","","96.42","","","","","","NA"
"-111.21","56.65","FORT MCMURRAY CS","3062696","2016-05-23 20:00","2016","05","23","20:00","15.4","","-1.8","","31","","14","","12","","","","96.47","","","","","","NA"
"-111.21","56.65","FORT MCMURRAY CS","3062696","2016-05-23 21:00","2016","05","23","21:00","13.1","","-1.5","","36","","13","","11","","","","96.53","","","","","","NA"
"-111.21","56.65","FORT MCMURRAY CS","3062696","2016-05-23 22:00","2016","05","23","22:00","10.9","","-1.0","","44","","15","","14","","","","96.59","","","","","","NA"
"-111.21","56.65","FORT MCMURRAY CS","3062696","2016-05-23 23:00","2016","05","23","23:00","10.9","","1.9","","54","","16","","15","","","","96.65","","","","","","NA"
"-111.21","56.65","FORT MCMURRAY CS","3062696","2016-05-24 00:00","2016","05","24","00:00","8.6","","2.1","","63","","18","","6","","","","96.69","","","","","","NA"
"-111.21","56.65","FORT MCMURRAY CS","3062696","2016-05-24 01:00","2016","05","24","01:00","8.6","","2.0","","63","","10","","6","","","","96.72","","","","","","NA"
"-111.21","56.65","FORT MCMURRAY CS","3062696","2016-05-24 02:00","2016","05","24","02:00","5.4","","0.7","","72","","10","","7","","","","96.73","","","","","","NA"
"-111.21","56.65","FORT MCMURRAY CS","3062696","2016-05-24 03:00","2016","05","24","03:00","1.3","","-0.2","","89","","12","","3","","","","96.76","","","","","","NA"
"-111.21","56.65","FORT MCMURRAY CS","3062696","2016-05-24 04:00","2016","05","24","04:00","2.4","","-0.5","","81","","12","","6","","","","96.77","","","","","","NA"
"-111.21","56.65","FORT MCMURRAY CS","3062696","2016-05-24 05:00","2016","05","24","05:00","5.6","","0.2","","68","","10","","5","","","","96.78","","","","","","NA"
"-111.21","56.65","FORT MCMURRAY CS","3062696","2016-05-24 06:00","2016","05","24","06:00","8.9","","1.5","","59","","11","","10","","","","96.79","","","","","","NA"
"-111.21","56.65","FORT MCMURRAY CS","3062696","2016-05-24 07:00","2016","05","24","07:00","11.8","","2.0","","51","","12","","9","","","","96.79","","","","","","NA"
"-111.21","56.65","FORT MCMURRAY CS","3062696","2016-05-24 08:00","2016","05","24","08:00","14.1","","1.8","","43","","12","","11","","","","96.78","","","","","","NA"
"-111.21","56.65","FORT MCMURRAY CS","3062696","2016-05-24 09:00","2016","05","24","09:00","17.0","","-0.9","","30","","14","","18","","","","96.74","","","","","","NA"
"-111.21","56.65","FORT MCMURRAY CS","3062696","2016-05-24 10:00","2016","05","24","10:00","18.0","","-2.2","","25","","14","","24","","","","96.70","","","","","","NA"
"-111.21","56.65","FORT MCMURRAY CS","3062696","2016-05-24 11:00","2016","05","24","11:00","19.2","","-1.8","","24","","13","","26","","","","96.66","","","","","","NA"
"-111.21","56.65","FORT MCMURRAY CS","3062696","2016-05-24 12:00","2016","05","24","12:00","19.8","","-2.0","","23","","14","","22","","","","96.63","","","","","","NA"
"-111.21","56.65","FORT MCMURRAY CS","3062696","2016-05-24 13:00","2016","05","24","13:00","20.8","","-0.3","","24","","16","","19","","","","96.56","","","","","","NA"
"-111.21","56.65","FORT MCMURRAY CS","3062696","2016-05-24 14:00","2016","05","24","14:00","21.5","","-0.9","","22","","19","","16","","","","96.51","","","","","","NA"
"-111.21","56.65","FORT MCMURRAY CS","3062696","2016-05-24 15:00","2016","05","24","15:00","21.6","","2.2","","28","","15","","22","","","","96.46","","","","","","NA"
"-111.21","56.65","FORT MCMURRAY CS","3062696","2016-05-24 16:00","2016","05","24","16:00","21.7","","4.1","","31","","14","","23","","","","96.41","","","","","","NA"
"-111.21","56.65","FORT MCMURRAY CS","3062696","2016-05-24 17:00","2016","05","24","17:00","20.8","","3.2","","31","","18","","17","","","","96.39","","","","","","NA"
"-111.21","56.65","FORT MCMURRAY CS","3062696","2016-05-24 18:00","2016","05","24","18:00","21.4","","3.8","","31","","21","","15","","","","96.38","","","","","","NA"
"-111.21","56.65","FORT MCMURRAY CS","3062696","2016-05-24 19:00","2016","05","24","19:00","19.2","","3.8","","36","","20","","19","","","","96.40","","","","","","NA"
"-111.21","56.65","FORT MCMURRAY CS","3062696","2016-05-24 20:00","2016","05","24","20:00","17.2","","4.8","","44","","20","","17","","","","96.43","","","","","","NA"
"-111.21","56.65","FORT MCMURRAY CS","3062696","2016-05-24 21:00","2016","05","24","21:00","14.3","","4.9","","53","","21","","12","","","","96.49","","","","","","NA"
"-111.21","56.65","FORT MCMURRAY CS","3062696","2016-05-24 22:00","2016","05","24","22:00","11.8","","5.1","","64","","17","","12","","","","96.52","","","","","","NA"
"-111.21","56.65","FORT MCMURRAY CS","3062696","2016-05-24 23:00","2016","05","24","23:00","10.6","","5.3","","70","","16","","13","","","","96.50","","","","","","NA"
"-111.21","56.65","FORT MCMURRAY CS","3062696","2016-05-25 00:00","2016","05","25","00:00","9.5","","5.6","","77","","16","","14","","","","96.50","","","","","","NA"
"-111.21","56.65","FORT MCMURRAY CS","3062696","2016-05-25 01:00","2016","05","25","01:00","8.8","","6.0","","83","","17","","14","","","","96.51","","","","","","NA"
"-111.21","56.65","FORT MCMURRAY CS","3062696","2016-05-25 02:00","2016","05","25","02:00","8.1","","5.8","","86","","16","","13","","","","96.51","","","","","","NA"
"-111.21","56.65","FORT MCMURRAY CS","3062696","2016-05-25 03:00","2016","05","25","03:00","8.8","","6.2","","84","","7","","3","","","","96.55","","","","","","NA"
"-111.21","56.65","FORT MCMURRAY CS","3062696","2016-05-25 04:00","2016","05","25","04:00","5.6","","3.5","","86","","11","","6","","","","96.55","","","","","","NA"
"-111.21","56.65","FORT MCMURRAY CS","3062696","2016-05-25 05:00","2016","05","25","05:00","5.5","","3.8","","89","","12","","6","","","","96.56","","","","","","NA"
"-111.21","56.65","FORT MCMURRAY CS","3062696","2016-05-25 06:00","2016","05","25","06:00","9.5","","5.8","","78","","6","","2","","","","96.57","","","","","","NA"
"-111.21","56.65","FORT MCMURRAY CS","3062696","2016-05-25 07:00","2016","05","25","07:00","11.3","","6.0","","70","","8","","3","","","","96.59","","","","","","NA"
"-111.21","56.65","FORT MCMURRAY CS","3062696","2016-05-25 08:00","2016","05","25","08:00","13.9","","6.2","","60","","3","","3","","","","96.61","","","","","","NA"
"-111.21","56.65","FORT MCMURRAY CS","3062696","2016-05-25 09:00","2016","05","25","09:00","16.5","","6.6","","52","","2","","5","","","","96.60","","","","","","NA"
"-111.21","56.65","FORT MCMURRAY CS","3062696","2016-05-25 10:00","2016","05","25","10:00","19.0","","6.6","","44","","23","","2","","","","96.60","","","","","","NA"
"-111.21","56.65","FORT MCMURRAY CS","3062696","2016-05-25 11:00","2016","05","25","11:00","21.0","","5.1","","35","","31","","6","","","","96.60","","","","","","NA"
"-111.21","56.65","FORT MCMURRAY CS","3062696","2016-05-25 12:00","2016","05","25","12:00","21.9","","3.6","","30","","4","","3","","","","96.56","","","","","","NA"
"-111.21","56.65","FORT MCMURRAY CS","3062696","2016-05-25 13:00","2016","05","25","13:00","23.4","","0.9","","23","","17","","7","","","","96.54","","","","","","NA"
"-111.21","56.65","FORT MCMURRAY CS","3062696","2016-05-25 14:00","2016","05","25","14:00","23.2","","3.1","","27","","33","","8","","","","96.53","","","","","","NA"
"-111.21","56.65","FORT MCMURRAY CS","3062696","2016-05-25 15:00","2016","05","25","15:00","22.9","","4.5","","30","","1","","10","","","","96.53","","","","","","NA"
"-111.21","56.65","FORT MCMURRAY CS","3062696","2016-05-25 16:00","2016","05","25","16:00","23.3","","4.4","","29","","35","","4","","","","96.54","","","","","","NA"
"-111.21","56.65","FORT MCMURRAY CS","3062696","2016-05-25 17:00","2016","05","25","17:00","22.1","","6.0","","35","","5","","18","","","","96.57","","","","","","NA"
"-111.21","56.65","FORT MCMURRAY CS","3062696","2016-05-25 18:00","2016","05","25","18:00","16.0","","10.3","","69","","6","","31","","","","96.64","","","","","","NA"
"-111.21","56.65","FORT MCMURRAY CS","3062696","2016-05-25 19:00","2016","05","25","19:00","17.1","","10.3","","64","","13","","12","","","","96.63","","","","","","NA"
"-111.21","56.65","FORT MCMURRAY CS","3062696","2016-05-25 20:00","2016","05","25","20:00","16.7","","9.8","","64","","3","","8","","","","96.65","","","","","","NA"
"-111.21","56.65","FORT MCMURRAY CS","3062696","2016-05-25 21:00","2016","05","25","21:00","16.6","","8.4","","59","","2","","6","","","","96.69","","","","","","NA"
"-111.21","56.65","FORT MCMURRAY CS","3062696","2016-05-25 22:00","2016","05","25","22:00","15.0","","8.0","","63","","35","","9","","","","96.73","","","","","","NA"
"-111.21","56.65","FORT MCMURRAY CS","3062696","2016-05-25 23:00","2016","05","25","23:00","14.9","","7.5","","61","","2","","10","","","","96.74","","","","","","NA"
"-111.21","56.65","FORT MCMURRAY CS","3062696","2016-05-26 00:00","2016","05","26","00:00","13.3","","7.3","","67","","1","","9","","","","96.73","","","","","","NA"
"-111.21","56.65","FORT MCMURRAY CS","3062696","2016-05-26 01:00","2016","05","26","01:00","12.4","","7.2","","71","","34","","9","","","","96.75","","","","","","NA"
"-111.21","56.65","FORT MCMURRAY CS","3062696","2016-05-26 02:00","2016","05","26","02:00","11.1","","6.7","","74","","34","","9","","","","96.76","","","","","","NA"
"-111.21","56.65","FORT MCMURRAY CS","3062696","2016-05-26 03:00","2016","05","26","03:00","10.1","","5.7","","74","","32","","17","","","","96.80","","","","","","NA"
"-111.21","56.65","FORT MCMURRAY CS","3062696","2016-05-26 04:00","2016","05","26","04:00","8.8","","4.4","","74","","33","","13","","","","96.84","","","","","","NA"
"-111.21","56.65","FORT MCMURRAY CS","3062696","2016-05-26 05:00","2016","05","26","05:00","8.3","","4.0","","75","","34","","12","","","","96.86","","","","","","NA"
"-111.21","56.65","FORT MCMURRAY CS","3062696","2016-05-26 06:00","2016","05","26","06:00","8.8","","4.3","","73","","34","","9","","","","96.85","","","","","","NA"
"-111.21","56.65","FORT MCMURRAY CS","3062696","2016-05-26 07:00","2016","05","26","07:00","9.6","","4.8","","72","","3","","5","","","","96.83","","","","","","NA"
"-111.21","56.65","FORT MCMURRAY CS","3062696","2016-05-26 08:00","2016","05","26","08:00","10.8","","5.9","","72","","5","","7","","","","96.80","","","","","","NA"
"-111.21","56.65","FORT MCMURRAY CS","3062696","2016-05-26 09:00","2016","05","26","09:00","12.0","","6.1","","67","","2","","3","","","","96.79","","","","","","NA"
"-111.21","56.65","FORT MCMURRAY CS","3062696","2016-05-26 10:00","2016","05","26","10:00","13.0","","6.6","","65","","4","","4","","","","96.79","","","","","","NA"
"-111.21","56.65","FORT MCMURRAY CS","3062696","2016-05-26 11:00","2016","05","26","11:00","15.3","","6.9","","57","","33","","12","","","","96.80","","","","","","NA"
"-111.21","56.65","FORT MCMURRAY CS","3062696","2016-05-26 12:00","2016","05","26","12:00","15.5","","7.0","","57","","32","","15","","","","96.80","","","","","","NA"
"-111.21","56.65","FORT MCMURRAY CS","3062696","2016-05-26 13:00","2016","05","26","13:00","17.0","","7.5","","54","","32","","20","","","","96.77","","","","","","NA"
"-111.21","56.65","FORT MCMURRAY CS","3062696","2016-05-26 14:00","2016","05","26","14:00","16.8","","7.2","","53","","35","","17","","","","96.76","","","","","","NA"
"-111.21","56.65","FORT MCMURRAY CS","3062696","2016-05-26 15:00","2016","05","26","15:00","17.8","","7.7","","51","","33","","13","","","","96.73","","","","","","NA"
"-111.21","56.65","FORT MCMURRAY CS","3062696","2016-05-26 16:00","2016","05","26","16:00","15.1","","8.3","","64","","33","","13","","","","96.75","","","","","","NA"
"-111.21","56.65","FORT MCMURRAY CS","3062696","2016-05-26 17:00","2016","05","26","17:00","13.8","","8.1","","68","","33","","16","","","","96.78","","","","","","NA"
"-111.21","56.65","FORT MCMURRAY CS","3062696","2016-05-26 18:00","2016","05","26","18:00","13.3","","8.1","","71","","31","","10","","","","96.76","","","","","","NA"
"-111.21","56.65","FORT MCMURRAY CS","3062696","2016-05-26 19:00","2016","05","26","19:00","13.7","","8.0","","68","","32","","12","","","","96.76","","","","","","NA"
"-111.21","56.65","FORT MCMURRAY CS","3062696","2016-05-26 20:00","2016","05","26","20:00","13.1","","8.1","","72","","33","","9","","","","96.74","","","","","","NA"
"-111.21","56.65","FORT MCMURRAY CS","3062696","2016-05-26 21:00","2016","05","26","21:00","12.0","","8.1","","77","","34","","11","","","","96.79","","","","","","NA"
"-111.21","56.65","FORT MCMURRAY CS","3062696","2016-05-26 22:00","2016","05","26","22:00","10.8","","7.8","","82","","32","","13","","","","96.76","","","","","","NA"
"-111.21","56.65","FORT MCMURRAY CS","3062696","2016-05-26 23:00","2016","05","26","23:00","9.9","","7.3","","84","","32","","10","","","","96.74","","","","","","NA"
"-111.21","56.65","FORT MCMURRAY CS","3062696","2016-05-27 00:00","2016","05","27","00:00","9.4","","7.1","","85","","33","","10","","","","96.75","","","","","","NA"
"-111.21","56.65","FORT MCMURRAY CS","3062696","2016-05-27 01:00","2016","05","27","01:00","9.0","","7.0","","87","","33","","9","","","","96.71","","","","","","NA"
"-111.21","56.65","FORT MCMURRAY CS","3062696","2016-05-27 02:00","2016","05","27","02:00","8.9","","7.1","","89","","33","","8","","","","96.70","","","","","","NA"
"-111.21","56.65","FORT MCMURRAY CS","3062696","2016-05-27 03:00","2016","05","27","03:00","9.0","","7.8","","92","","7","","3","","","","96.68","","","","","","NA"
"-111.21","56.65","FORT MCMURRAY CS","3062696","2016-05-27 04:00","2016","05","27","04:00","11.7","","9.7","","87","","10","","16","","","","96.65","","","","","","NA"
"-111.21","56.65","FORT MCMURRAY CS","3062696","2016-05-27 05:00","2016","05","27","05:00","11.4","","7.9","","79","","11","","22","","","","96.65","","","","","","NA"
"-111.21","56.65","FORT MCMURRAY CS","3062696","2016-05-27 06:00","2016","05","27","06:00","11.5","","7.0","","74","","11","","23","","","","96.66","","","","","","NA"
"-111.21","56.65","FORT MCMURRAY CS","3062696","2016-05-27 07:00","2016","05","27","07:00","11.4","","6.9","","74","","12","","19","","","","96.71","","","","","","NA"
"-111.21","56.65","FORT MCMURRAY CS","3062696","2016-05-27 08:00","2016","05","27","08:00","11.4","","7.5","","77","","12","","14","","","","96.71","","","","","","NA"
"-111.21","56.65","FORT MCMURRAY CS","3062696","2016-05-27 09:00","2016","05","27","09:00","12.7","","7.8","","72","","11","","15","","","","96.68","","","","","","NA"
"-111.21","56.65","FORT MCMURRAY CS","3062696","2016-05-27 10:00","2016","05","27","10:00","12.6","","9.4","","81","","10","","12","","","","96.71","","","","","","NA"
"-111.21","56.65","FORT MCMURRAY CS","3062696","2016-05-27 11:00","2016","05","27","11:00","16.1","","9.5","","65","","10","","20","","","","96.66","","","","","","NA"
"-111.21","56.65","FORT MCMURRAY CS","3062696","2016-05-27 12:00","2016","05","27","12:00","19.2","","9.4","","53","","10","","21","","","","96.62","","","","","","NA"
"-111.21","56.65","FORT MCMURRAY CS","3062696","2016-05-27 13:00","2016","05","27","13:00","20.7","","9.3","","48","","11","","23","","","","96.54","","","","","","NA"
"-111.21","56.65","FORT MCMURRAY CS","3062696","2016-05-27 14:00","2016","05","27","14:00","19.2","","9.8","","55","","11","","26","","","","96.51","","","","","","NA"
"-111.21","56.65","FORT MCMURRAY CS","3062696","2016-05-27 15:00","2016","05","27","15:00","17.8","","10.3","","61","","10","","16","","","","96.59","","","","","","NA"
"-111.21","56.65","FORT MCMURRAY CS","3062696","2016-05-27 16:00","2016","05","27","16:00","15.3","","9.1","","66","","22","","26","","","","96.69","","","","","","NA"
"-111.21","56.65","FORT MCMURRAY CS","3062696","2016-05-27 17:00","2016","05","27","17:00","12.2","","10.1","","87","","14","","8","","","","96.79","","","","","","NA"
"-111.21","56.65","FORT MCMURRAY CS","3062696","2016-05-27 18:00","2016","05","27","18:00","11.7","","10.6","","93","","10","","10","","","","96.77","","","","","","NA"
"-111.21","56.65","FORT MCMURRAY CS","3062696","2016-05-27 19:00","2016","05","27","19:00","12.2","","10.7","","91","","7","","11","","","","96.61","","","","","","NA"
"-111.21","56.65","FORT MCMURRAY CS","3062696","2016-05-27 20:00","2016","05","27","20:00","12.0","","10.6","","91","","12","","9","","","","96.65","","","","","","NA"
"-111.21","56.65","FORT MCMURRAY CS","3062696","2016-05-27 21:00","2016","05","27","21:00","11.9","","10.6","","92","","15","","19","","","","96.75","","","","","","NA"
"-111.21","56.65","FORT MCMURRAY CS","3062696","2016-05-27 22:00","2016","05","27","22:00","12.0","","10.6","","91","","11","","11","","","","96.70","","","","","","NA"
"-111.21","56.65","FORT MCMURRAY CS","3062696","2016-05-27 23:00","2016","05","27","23:00","11.9","","10.5","","91","","10","","15","","","","96.65","","","","","","NA"
"-111.21","56.65","FORT MCMURRAY CS","3062696","2016-05-28 00:00","2016","05","28","00:00","11.6","","10.3","","91","","13","","12","","","","96.71","","","","","","NA"
"-111.21","56.65","FORT MCMURRAY CS","3062696","2016-05-28 01:00","2016","05","28","01:00","10.8","","9.8","","93","","10","","12","","","","96.66","","","","","","NA"
"-111.21","56.65","FORT MCMURRAY CS","3062696","2016-05-28 02:00","2016","05","28","02:00","10.9","","8.9","","87","","11","","15","","","","96.62","","","","","","NA"
"-111.21","56.65","FORT MCMURRAY CS","3062696","2016-05-28 03:00","2016","05","28","03:00","10.7","","8.1","","84","","11","","20","","","","96.57","","","","","","NA"
"-111.21","56.65","FORT MCMURRAY CS","3062696","2016-05-28 04:00","2016","05","28","04:00","10.4","","8.0","","85","","11","","22","","","","96.59","","","","","","NA"
"-111.21","56.65","FORT MCMURRAY CS","3062696","2016-05-28 05:00","2016","05","28","05:00","10.5","","8.0","","85","","12","","19","","","","96.62","","","","","","NA"
"-111.21","56.65","FORT MCMURRAY CS","3062696","2016-05-28 06:00","2016","05","28","06:00","10.8","","8.2","","84","","12","","14","","","","96.64","","","","","","NA"
"-111.21","56.65","FORT MCMURRAY CS","3062696","2016-05-28 07:00","2016","05","28","07:00","11.7","","8.3","","79","","12","","16","","","","96.65","","","","","","NA"
"-111.21","56.65","FORT MCMURRAY CS","3062696","2016-05-28 08:00","2016","05","28","08:00","13.7","","9.7","","77","","13","","20","","","","96.64","","","","","","NA"
"-111.21","56.65","FORT MCMURRAY CS","3062696","2016-05-28 09:00","2016","05","28","09:00","14.7","","10.4","","75","","15","","19","","","","96.65","","","","","","NA"
"-111.21","56.65","FORT MCMURRAY CS","3062696","2016-05-28 10:00","2016","05","28","10:00","16.2","","10.8","","71","","12","","14","","","","96.63","","","","","","NA"
"-111.21","56.65","FORT MCMURRAY CS","3062696","2016-05-28 11:00","2016","05","28","11:00","16.8","","11.1","","69","","13","","18","","","","96.60","","","","","","NA"
"-111.21","56.65","FORT MCMURRAY CS","3062696","2016-05-28 12:00","2016","05","28","12:00","17.9","","11.5","","66","","16","","21","","","","96.60","","","","","","NA"
"-111.21","56.65","FORT MCMURRAY CS","3062696","2016-05-28 13:00","2016","05","28","13:00","16.7","","10.8","","68","","18","","23","","","","96.60","","","","","","NA"
"-111.21","56.65","FORT MCMURRAY CS","3062696","2016-05-28 14:00","2016","05","28","14:00","16.6","","10.5","","67","","18","","17","","","","96.64","","","","","","NA"
"-111.21","56.65","FORT MCMURRAY CS","3062696","2016-05-28 15:00","2016","05","28","15:00","17.8","","9.6","","59","","16","","19","","","","96.64","","","","","","NA"
"-111.21","56.65","FORT MCMURRAY CS","3062696","2016-05-28 16:00","2016","05","28","16:00","18.3","","9.8","","58","","14","","20","","","","96.63","","","","","","NA"
"-111.21","56.65","FORT MCMURRAY CS","3062696","2016-05-28 17:00","2016","05","28","17:00","17.4","","9.8","","61","","18","","19","","","","96.62","","","","","","NA"
"-111.21","56.65","FORT MCMURRAY CS","3062696","2016-05-28 18:00","2016","05","28","18:00","16.8","","9.2","","61","","19","","15","","","","96.61","","","","","","NA"
"-111.21","56.65","FORT MCMURRAY CS","3062696","2016-05-28 19:00","2016","05","28","19:00","16.8","","9.0","","60","","22","","15","","","","96.62","","","","","","NA"
"-111.21","56.65","FORT MCMURRAY CS","3062696","2016-05-28 20:00","2016","05","28","20:00","15.8","","8.9","","63","","22","","10","","","","96.65","","","","","","NA"
"-111.21","56.65","FORT MCMURRAY CS","3062696","2016-05-28 21:00","2016","05","28","21:00","14.4","","8.8","","69","","20","","8","","","","96.67","","","","","","NA"
"-111.21","56.65","FORT MCMURRAY CS","3062696","2016-05-28 22:00","2016","05","28","22:00","13.2","","9.4","","78","","17","","8","","","","96.68","","","","","","NA"
"-111.21","56.65","FORT MCMURRAY CS","3062696","2016-05-28 23:00","2016","05","28","23:00","12.9","","9.3","","79","","12","","7","","","","96.70","","","","","","NA"
"-111.21","56.65","FORT MCMURRAY CS","3062696","2016-05-29 00:00","2016","05","29","00:00","12.5","","9.2","","81","","0","","1","","","","96.70","","","","","","NA"
"-111.21","56.65","FORT MCMURRAY CS","3062696","2016-05-29 01:00","2016","05","29","01:00","12.0","","10.5","","90","","12","","7","","","","96.73","","","","","","NA"
"-111.21","56.65","FORT MCMURRAY CS","3062696","2016-05-29 02:00","2016","05","29","02:00","11.1","","10.1","","93","","19","","4","","","","96.73","","","","","","NA"
"-111.21","56.65","FORT MCMURRAY CS","3062696","2016-05-29 03:00","2016","05","29","03:00","10.5","","8.9","","90","","27","","19","","","","96.75","","","","","","NA"
"-111.21","56.65","FORT MCMURRAY CS","3062696","2016-05-29 04:00","2016","05","29","04:00","10.1","","8.9","","92","","29","","10","","","","96.76","","","","","","NA"
"-111.21","56.65","FORT MCMURRAY CS","3062696","2016-05-29 05:00","2016","05","29","05:00","9.8","","8.7","","93","","26","","4","","","","96.78","","","","","","NA"
"-111.21","56.65","FORT MCMURRAY CS","3062696","2016-05-29 06:00","2016","05","29","06:00","10.0","","8.8","","92","","23","","4","","","","96.78","","","","","","NA"
"-111.21","56.65","FORT MCMURRAY CS","3062696","2016-05-29 07:00","2016","05","29","07:00","10.3","","8.9","","91","","24","","7","","","","96.81","","","","","","NA"
"-111.21","56.65","FORT MCMURRAY CS","3062696","2016-05-29 08:00","2016","05","29","08:00","10.9","","9.1","","89","","23","","8","","","","96.84","","","","","","NA"
"-111.21","56.65","FORT MCMURRAY CS","3062696","2016-05-29 09:00","2016","05","29","09:00","11.0","","9.2","","89","","27","","8","","","","96.86","","","","","","NA"
"-111.21","56.65","FORT MCMURRAY CS","3062696","2016-05-29 10:00","2016","05","29","10:00","11.0","","9.2","","89","","25","","9","","","","96.89","","","","","","NA"
"-111.21","56.65","FORT MCMURRAY CS","3062696","2016-05-29 11:00","2016","05","29","11:00","11.8","","9.2","","84","","28","","10","","","","96.88","","","","","","NA"
"-111.21","56.65","FORT MCMURRAY CS","3062696","2016-05-29 12:00","2016","05","29","12:00","12.8","","9.1","","79","","32","","5","","","","96.88","","","","","","NA"
"-111.21","56.65","FORT MCMURRAY CS","3062696","2016-05-29 13:00","2016","05","29","13:00","13.1","","9.0","","76","","29","","8","","","","96.90","","","","","","NA"
"-111.21","56.65","FORT MCMURRAY CS","3062696","2016-05-29 14:00","2016","05","29","14:00","14.5","","9.2","","70","","31","","6","","","","96.87","","","","","","NA"
"-111.21","56.65","FORT MCMURRAY CS","3062696","2016-05-29 15:00","2016","05","29","15:00","14.9","","9.0","","67","","6","","12","","","","96.88","","","","","","NA"
"-111.21","56.65","FORT MCMURRAY CS","3062696","2016-05-29 16:00","2016","05","29","16:00","14.6","","8.9","","69","","4","","7","","","","96.89","","","","","","NA"
"-111.21","56.65","FORT MCMURRAY CS","3062696","2016-05-29 17:00","2016","05","29","17:00","15.9","","8.7","","62","","35","","10","","","","96.90","","","","","","NA"
"-111.21","56.65","FORT MCMURRAY CS","3062696","2016-05-29 18:00","2016","05","29","18:00","15.9","","8.5","","61","","36","","8","","","","96.90","","","","","","NA"
"-111.21","56.65","FORT MCMURRAY CS","3062696","2016-05-29 19:00","2016","05","29","19:00","15.5","","8.5","","63","","5","","12","","","","96.91","","","","","","NA"
"-111.21","56.65","FORT MCMURRAY CS","3062696","2016-05-29 20:00","2016","05","29","20:00","15.0","","8.3","","64","","3","","10","","","","96.91","","","","","","NA"
"-111.21","56.65","FORT MCMURRAY CS","3062696","2016-05-29 21:00","2016","05","29","21:00","14.1","","8.4","","69","","4","","6","","","","96.97","","","","","","NA"
"-111.21","56.65","FORT MCMURRAY CS","3062696","2016-05-29 22:00","2016","05","29","22:00","13.6","","9.2","","75","","1","","8","","","","97.01","","","","","","NA"
"-111.21","56.65","FORT MCMURRAY CS","3062696","2016-05-29 23:00","2016","05","29","23:00","12.2","","8.6","","79","","34","","6","","","","97.02","","","","","","NA"
"-111.21","56.65","FORT MCMURRAY CS","3062696","2016-05-30 00:00","2016","05","30","00:00","12.2","","9.3","","83","","1","","8","","","","97.03","","","","","","NA"
"-111.21","56.65","FORT MCMURRAY CS","3062696","2016-05-30 01:00","2016","05","30","01:00","12.0","","9.3","","83","","34","","8","","","","97.06","","","","","","NA"
"-111.21","56.65","FORT MCMURRAY CS","3062696","2016-05-30 02:00","2016","05","30","02:00","11.8","","9.4","","85","","34","","9","","","","97.10","","","","","","NA"
"-111.21","56.65","FORT MCMURRAY CS","3062696","2016-05-30 03:00","2016","05","30","03:00","11.4","","9.9","","90","","33","","11","","","","97.13","","","","","","NA"
"-111.21","56.65","FORT MCMURRAY CS","3062696","2016-05-30 04:00","2016","05","30","04:00","11.2","","9.9","","92","","33","","8","","","","97.17","","","","","","NA"
"-111.21","56.65","FORT MCMURRAY CS","3062696","2016-05-30 05:00","2016","05","30","05:00","11.2","","9.7","","90","","32","","11","","","","97.21","","","","","","NA"
"-111.21","56.65","FORT MCMURRAY CS","3062696","2016-05-30 06:00","2016","05","30","06:00","11.5","","9.1","","85","","33","","10","","","","97.24","","","","","","NA"
"-111.21","56.65","FORT MCMURRAY CS","3062696","2016-05-30 07:00","2016","05","30","07:00","11.8","","8.9","","82","","32","","11","","","","97.27","","","","","","NA"
"-111.21","56.65","FORT MCMURRAY CS","3062696","2016-05-30 08:00","2016","05","30","08:00","12.2","","8.7","","79","","32","","10","","","","97.32","","","","","","NA"
"-111.21","56.65","FORT MCMURRAY CS","3062696","2016-05-30 09:00","2016","05","30","09:00","12.1","","9.2","","82","","32","","14","","","","97.35","","","","","","NA"
"-111.21","56.65","FORT MCMURRAY CS","3062696","2016-05-30 10:00","2016","05","30","10:00","11.6","","9.5","","87","","32","","15","","","","97.41","","","","","","NA"
"-111.21","56.65","FORT MCMURRAY CS","3062696","2016-05-30 11:00","2016","05","30","11:00","13.7","","9.6","","77","","32","","15","","","","97.43","","","","","","NA"
"-111.21","56.65","FORT MCMURRAY CS","3062696","2016-05-30 12:00","2016","05","30","12:00","14.6","","9.4","","71","","32","","17","","","","97.44","","","","","","NA"
"-111.21","56.65","FORT MCMURRAY CS","3062696","2016-05-30 13:00","2016","05","30","13:00","15.7","","8.7","","63","","35","","21","","","","97.47","","","","","","NA"
"-111.21","56.65","FORT MCMURRAY CS","3062696","2016-05-30 14:00","2016","05","30","14:00","16.1","","8.3","","60","","36","","18","","","","97.50","","","","","","NA"
"-111.21","56.65","FORT MCMURRAY CS","3062696","2016-05-30 15:00","2016","05","30","15:00","15.9","","8.8","","63","","36","","16","","","","97.51","","","","","","NA"
"-111.21","56.65","FORT MCMURRAY CS","3062696","2016-05-30 16:00","2016","05","30","16:00","15.0","","8.4","","65","","34","","22","","","","97.54","","","","","","NA"
"-111.21","56.65","FORT MCMURRAY CS","3062696","2016-05-30 17:00","2016","05","30","17:00","14.5","","9.2","","71","","32","","18","","","","97.57","","","","","","NA"
"-111.21","56.65","FORT MCMURRAY CS","3062696","2016-05-30 18:00","2016","05","30","18:00","15.1","","7.8","","62","","33","","20","","","","97.61","","","","","","NA"
"-111.21","56.65","FORT MCMURRAY CS","3062696","2016-05-30 19:00","2016","05","30","19:00","14.4","","8.6","","68","","34","","11","","","","97.63","","","","","","NA"
"-111.21","56.65","FORT MCMURRAY CS","3062696","2016-05-30 20:00","2016","05","30","20:00","14.3","","8.5","","68","","35","","12","","","","97.66","","","","","","NA"
"-111.21","56.65","FORT MCMURRAY CS","3062696","2016-05-30 21:00","2016","05","30","21:00","13.7","","8.0","","68","","34","","13","","","","97.70","","","","","","NA"
"-111.21","56.65","FORT MCMURRAY CS","3062696","2016-05-30 22:00","2016","05","30","22:00","12.4","","7.6","","72","","35","","11","","","","97.73","","","","","","NA"
"-111.21","56.65","FORT MCMURRAY CS","3062696","2016-05-30 23:00","2016","05","30","23:00","11.1","","7.3","","78","","34","","11","","","","97.74","","","","","","NA"
"-111.21","56.65","FORT MCMURRAY CS","3062696","2016-05-31 00:00","2016","05","31","00:00","10.2","","7.4","","83","","33","","11","","","","97.74","","","","","","NA"
"-111.21","56.65","FORT MCMURRAY CS","3062696","2016-05-31 01:00","2016","05","31","01:00","9.5","","7.4","","87","","33","","10","","","","97.75","","","","","","NA"
"-111.21","56.65","FORT MCMURRAY CS","3062696","2016-05-31 02:00","2016","05","31","02:00","9.8","","7.8","","87","","32","","10","","","","97.76","","","","","","NA"
"-111.21","56.65","FORT MCMURRAY CS","3062696","2016-05-31 03:00","2016","05","31","03:00","8.7","","7.2","","90","","30","","5","","","","97.78","","","","","","NA"
"-111.21","56.65","FORT MCMURRAY CS","3062696","2016-05-31 04:00","2016","05","31","04:00","7.8","","6.9","","94","","25","","6","","","","97.78","","","","","","NA"
"-111.21","56.65","FORT MCMURRAY CS","3062696","2016-05-31 05:00","2016","05","31","05:00","8.7","","7.8","","94","","0","","1","","","","97.79","","","","","","NA"
"-111.21","56.65","FORT MCMURRAY CS","3062696","2016-05-31 06:00","2016","05","31","06:00","9.5","","7.8","","89","","23","","4","","","","97.79","","","","","","NA"
"-111.21","56.65","FORT MCMURRAY CS","3062696","2016-05-31 07:00","2016","05","31","07:00","10.6","","7.2","","80","","33","","7","","","","97.78","","","","","","NA"
"-111.21","56.65","FORT MCMURRAY CS","3062696","2016-05-31 08:00","2016","05","31","08:00","12.6","","7.1","","69","","32","","8","","","","97.76","","","","","","NA"
"-111.21","56.65","FORT MCMURRAY CS","3062696","2016-05-31 09:00","2016","05","31","09:00","13.7","","7.0","","64","","33","","8","","","","97.74","","","","","","NA"
"-111.21","56.65","FORT MCMURRAY CS","3062696","2016-05-31 10:00","2016","05","31","10:00","14.2","","6.7","","60","","4","","7","","","","97.70","","","","","","NA"
"-111.21","56.65","FORT MCMURRAY CS","3062696","2016-05-31 11:00","2016","05","31","11:00","15.5","","3.8","","46","","36","","7","","","","97.64","","","","","","NA"
"-111.21","56.65","FORT MCMURRAY CS","3062696","2016-05-31 12:00","2016","05","31","12:00","16.7","","3.6","","41","","34","","12","","","","97.60","","","","","","NA"
"-111.21","56.65","FORT MCMURRAY CS","3062696","2016-05-31 13:00","2016","05","31","13:00","17.7","","1.6","","34","","33","","8","","","","97.52","","","","","","NA"
"-111.21","56.65","FORT MCMURRAY CS","3062696","2016-05-31 14:00","2016","05","31","14:00","18.6","","1.7","","32","","32","","8","","","","97.45","","","","","","NA"
"-111.21","56.65","FORT MCMURRAY CS","3062696","2016-05-31 15:00","2016","05","31","15:00","18.8","","-0.6","","27","","24","","4","","","","97.39","","","","","","NA"
"-111.21","56.65","FORT MCMURRAY CS","3062696","2016-05-31 16:00","2016","05","31","16:00","19.1","","0.5","","29","","34","","8","","","","97.34","","","","","","NA"
"-111.21","56.65","FORT MCMURRAY CS","3062696","2016-05-31 17:00","2016","05","31","17:00","19.1","","0.7","","29","","21","","7","","","","97.26","","","","","","NA"
"-111.21","56.65","FORT MCMURRAY CS","3062696","2016-05-31 18:00","2016","05","31","18:00","19.6","","-0.5","","26","","6","","5","","","","97.19","","","","","","NA"
"-111.21","56.65","FORT MCMURRAY CS","3062696","2016-05-31 19:00","2016","05","31","19:00","19.4","","-0.5","","26","","8","","4","","","","97.15","","","","","","NA"
"-111.21","56.65","FORT MCMURRAY CS","3062696","2016-05-31 20:00","2016","05","31","20:00","18.0","","-0.6","","28","","18","","8","","","","97.10","","","","","","NA"
"-111.21","56.65","FORT MCMURRAY CS","3062696","2016-05-31 21:00","2016","05","31","21:00","14.9","","2.3","","43","","15","","11","","","","97.07","","","","","","NA"
"-111.21","56.65","FORT MCMURRAY CS","3062696","2016-05-31 22:00","2016","05","31","22:00","12.4","","1.9","","49","","14","","13","","","","97.03","","","","","","NA"
"-111.21","56.65","FORT MCMURRAY CS","3062696","2016-05-31 23:00","2016","05","31","23:00","10.7","","2.2","","56","","15","","13","","","","97.00","","","","","","NA"
